file,location,lng,lat,city,province,country
102_洪皓.json,北京,116.40717,39.90469,,,
102_洪皓.json,北京,116.40717,39.90469,,,
102_洪皓.json,北京,116.40717,39.90469,,,
102_洪皓.json,北京,116.40717,39.90469,,,
103_释宗杲.json,松江,121.22654,31.032409,,,
103_释宗杲.json,松江,121.22654,31.032409,,,
103_释宗杲.json,松江,121.22654,31.032409,,,
103_释宗杲.json,松江,121.22654,31.032409,,,
108_张元干.json,松江,121.22654,31.032409,,,
108_张元干.json,松江,121.22654,31.032409,,,
108_张元干.json,松江,121.22654,31.032409,,,
108_张元干.json,松江,121.22654,31.032409,,,
10_高适.json,北京,116.40717,39.90469,,,
10_高适.json,北京,116.40717,39.90469,,,
10_高适.json,昌平,116.23128,40.22077,,,
10_高适.json,昌平,116.23128,40.22077,,,
10_高适.json,北京,116.40717,39.90469,,,
10_高适.json,昌平,116.23128,40.22077,,,
10_高适.json,北京,116.40717,39.90469,,,
10_高适.json,北京,116.40717,39.90469,,,
10_高适.json,昌平,116.23128,40.22077,,,
10_高适.json,昌平,116.23128,40.22077,,,
10_高适.json,北京,116.40717,39.90469,,,
10_高适.json,昌平,116.23128,40.22077,,,
10_高适.json,北京,116.40717,39.90469,,,
10_高适.json,北京,116.40717,39.90469,,,
10_高适.json,昌平,116.23128,40.22077,,,
10_高适.json,昌平,116.23128,40.22077,,,
10_高适.json,北京,116.40717,39.90469,,,
10_高适.json,昌平,116.23128,40.22077,,,
10_高适.json,北京,116.40717,39.90469,,,
10_高适.json,北京,116.40717,39.90469,,,
10_高适.json,昌平,116.23128,40.22077,,,
10_高适.json,昌平,116.23128,40.22077,,,
10_高适.json,北京,116.40717,39.90469,,,
10_高适.json,昌平,116.23128,40.22077,,,
10_高适.json,北京,116.40717,39.90469,,,
10_高适.json,北京,116.40717,39.90469,,,
10_高适.json,昌平,116.23128,40.22077,,,
10_高适.json,昌平,116.23128,40.22077,,,
10_高适.json,北京,116.40717,39.90469,,,
10_高适.json,昌平,116.23128,40.22077,,,
10_高适.json,北京,116.40717,39.90469,,,
10_高适.json,北京,116.40717,39.90469,,,
10_高适.json,昌平,116.23128,40.22077,,,
10_高适.json,昌平,116.23128,40.22077,,,
10_高适.json,北京,116.40717,39.90469,,,
10_高适.json,昌平,116.23128,40.22077,,,
112_陈康伯.json,济源,112.60273,35.06707,,,
112_陈康伯.json,济源,112.60273,35.06707,,,
112_陈康伯.json,济源,112.60273,35.06707,,,
112_陈康伯.json,济源,112.60273,35.06707,,,
116_洪适.json,北京,116.40717,39.90469,,,
116_洪适.json,北京,116.40717,39.90469,,,
116_洪适.json,北京,116.40717,39.90469,,,
116_洪适.json,北京,116.40717,39.90469,,,
124_杨万里.json,松江,121.22654,31.032409,,,
124_杨万里.json,松江,121.22654,31.032409,,,
124_杨万里.json,松江,121.22654,31.032409,,,
124_杨万里.json,松江,121.22654,31.032409,,,
12_李白.json,托克马克,75.275853,42.826232,,,
12_李白.json,重庆,106.55073,29.56471,,,
12_李白.json,重庆,106.55073,29.56471,,,
12_李白.json,巫山,109.8788,31.07462,,,
12_李白.json,大兴,116.34159,39.726841,,,
12_李白.json,巫山,109.8788,31.07462,,,
12_李白.json,奉节,109.46406,31.01846,,,
12_李白.json,托克马克,75.275853,42.826232,,,
12_李白.json,重庆,106.55073,29.56471,,,
12_李白.json,巫山,109.8788,31.07462,,,
12_李白.json,大兴,116.34159,39.726841,,,
12_李白.json,奉节,109.46406,31.01846,,,
12_李白.json,白帝城,109.573991,31.043917,,,
12_李白.json,托克马克,75.275853,42.826232,,,
12_李白.json,重庆,106.55073,29.56471,,,
12_李白.json,重庆,106.55073,29.56471,,,
12_李白.json,巫山,109.8788,31.07462,,,
12_李白.json,大兴,116.34159,39.726841,,,
12_李白.json,巫山,109.8788,31.07462,,,
12_李白.json,奉节,109.46406,31.01846,,,
12_李白.json,托克马克,75.275853,42.826232,,,
12_李白.json,重庆,106.55073,29.56471,,,
12_李白.json,巫山,109.8788,31.07462,,,
12_李白.json,大兴,116.34159,39.726841,,,
12_李白.json,奉节,109.46406,31.01846,,,
12_李白.json,白帝城,109.573991,31.043917,,,
12_李白.json,托克马克,75.275853,42.826232,,,
12_李白.json,重庆,106.55073,29.56471,,,
12_李白.json,重庆,106.55073,29.56471,,,
12_李白.json,巫山,109.8788,31.07462,,,
12_李白.json,大兴,116.34159,39.726841,,,
12_李白.json,巫山,109.8788,31.07462,,,
12_李白.json,奉节,109.46406,31.01846,,,
12_李白.json,托克马克,75.275853,42.826232,,,
12_李白.json,重庆,106.55073,29.56471,,,
12_李白.json,巫山,109.8788,31.07462,,,
12_李白.json,大兴,116.34159,39.726841,,,
12_李白.json,奉节,109.46406,31.01846,,,
12_李白.json,白帝城,109.573991,31.043917,,,
12_李白.json,托克马克,75.275853,42.826232,,,
12_李白.json,重庆,106.55073,29.56471,,,
12_李白.json,重庆,106.55073,29.56471,,,
12_李白.json,巫山,109.8788,31.07462,,,
12_李白.json,大兴,116.34159,39.726841,,,
12_李白.json,巫山,109.8788,31.07462,,,
12_李白.json,奉节,109.46406,31.01846,,,
12_李白.json,托克马克,75.275853,42.826232,,,
12_李白.json,重庆,106.55073,29.56471,,,
12_李白.json,巫山,109.8788,31.07462,,,
12_李白.json,大兴,116.34159,39.726841,,,
12_李白.json,奉节,109.46406,31.01846,,,
12_李白.json,白帝城,109.573991,31.043917,,,
12_李白.json,托克马克,75.275853,42.826232,,,
12_李白.json,重庆,106.55073,29.56471,,,
12_李白.json,重庆,106.55073,29.56471,,,
12_李白.json,巫山,109.8788,31.07462,,,
12_李白.json,大兴,116.34159,39.726841,,,
12_李白.json,巫山,109.8788,31.07462,,,
12_李白.json,奉节,109.46406,31.01846,,,
12_李白.json,托克马克,75.275853,42.826232,,,
12_李白.json,重庆,106.55073,29.56471,,,
12_李白.json,巫山,109.8788,31.07462,,,
12_李白.json,大兴,116.34159,39.726841,,,
12_李白.json,奉节,109.46406,31.01846,,,
12_李白.json,白帝城,109.573991,31.043917,,,
12_李白.json,托克马克,75.275853,42.826232,,,
12_李白.json,重庆,106.55073,29.56471,,,
12_李白.json,重庆,106.55073,29.56471,,,
12_李白.json,巫山,109.8788,31.07462,,,
12_李白.json,大兴,116.34159,39.726841,,,
12_李白.json,巫山,109.8788,31.07462,,,
12_李白.json,奉节,109.46406,31.01846,,,
12_李白.json,托克马克,75.275853,42.826232,,,
12_李白.json,重庆,106.55073,29.56471,,,
12_李白.json,巫山,109.8788,31.07462,,,
12_李白.json,大兴,116.34159,39.726841,,,
12_李白.json,奉节,109.46406,31.01846,,,
12_李白.json,白帝城,109.573991,31.043917,,,
12_李白.json,托克马克,75.275853,42.826232,,,
12_李白.json,重庆,106.55073,29.56471,,,
12_李白.json,重庆,106.55073,29.56471,,,
12_李白.json,巫山,109.8788,31.07462,,,
12_李白.json,大兴,116.34159,39.726841,,,
12_李白.json,巫山,109.8788,31.07462,,,
12_李白.json,奉节,109.46406,31.01846,,,
12_李白.json,托克马克,75.275853,42.826232,,,
12_李白.json,重庆,106.55073,29.56471,,,
12_李白.json,巫山,109.8788,31.07462,,,
12_李白.json,大兴,116.34159,39.726841,,,
12_李白.json,奉节,109.46406,31.01846,,,
12_李白.json,白帝城,109.573991,31.043917,,,
12_李白.json,托克马克,75.275853,42.826232,,,
12_李白.json,重庆,106.55073,29.56471,,,
12_李白.json,重庆,106.55073,29.56471,,,
12_李白.json,巫山,109.8788,31.07462,,,
12_李白.json,大兴,116.34159,39.726841,,,
12_李白.json,巫山,109.8788,31.07462,,,
12_李白.json,奉节,109.46406,31.01846,,,
12_李白.json,托克马克,75.275853,42.826232,,,
12_李白.json,重庆,106.55073,29.56471,,,
12_李白.json,巫山,109.8788,31.07462,,,
12_李白.json,大兴,116.34159,39.726841,,,
12_李白.json,奉节,109.46406,31.01846,,,
12_李白.json,白帝城,109.573991,31.043917,,,
12_李白.json,托克马克,75.275853,42.826232,,,
12_李白.json,重庆,106.55073,29.56471,,,
12_李白.json,重庆,106.55073,29.56471,,,
12_李白.json,巫山,109.8788,31.07462,,,
12_李白.json,大兴,116.34159,39.726841,,,
12_李白.json,巫山,109.8788,31.07462,,,
12_李白.json,奉节,109.46406,31.01846,,,
12_李白.json,托克马克,75.275853,42.826232,,,
12_李白.json,重庆,106.55073,29.56471,,,
12_李白.json,巫山,109.8788,31.07462,,,
12_李白.json,大兴,116.34159,39.726841,,,
12_李白.json,奉节,109.46406,31.01846,,,
12_李白.json,白帝城,109.573991,31.043917,,,
12_李白.json,托克马克,75.275853,42.826232,,,
12_李白.json,重庆,106.55073,29.56471,,,
12_李白.json,重庆,106.55073,29.56471,,,
12_李白.json,巫山,109.8788,31.07462,,,
12_李白.json,大兴,116.34159,39.726841,,,
12_李白.json,巫山,109.8788,31.07462,,,
12_李白.json,奉节,109.46406,31.01846,,,
12_李白.json,托克马克,75.275853,42.826232,,,
12_李白.json,重庆,106.55073,29.56471,,,
12_李白.json,巫山,109.8788,31.07462,,,
12_李白.json,大兴,116.34159,39.726841,,,
12_李白.json,奉节,109.46406,31.01846,,,
12_李白.json,白帝城,109.573991,31.043917,,,
12_李白.json,托克马克,75.275853,42.826232,,,
12_李白.json,重庆,106.55073,29.56471,,,
12_李白.json,重庆,106.55073,29.56471,,,
12_李白.json,巫山,109.8788,31.07462,,,
12_李白.json,大兴,116.34159,39.726841,,,
12_李白.json,巫山,109.8788,31.07462,,,
12_李白.json,奉节,109.46406,31.01846,,,
12_李白.json,托克马克,75.275853,42.826232,,,
12_李白.json,重庆,106.55073,29.56471,,,
12_李白.json,巫山,109.8788,31.07462,,,
12_李白.json,大兴,116.34159,39.726841,,,
12_李白.json,奉节,109.46406,31.01846,,,
12_李白.json,白帝城,109.573991,31.043917,,,
12_李白.json,托克马克,75.275853,42.826232,,,
12_李白.json,重庆,106.55073,29.56471,,,
12_李白.json,重庆,106.55073,29.56471,,,
12_李白.json,巫山,109.8788,31.07462,,,
12_李白.json,大兴,116.34159,39.726841,,,
12_李白.json,巫山,109.8788,31.07462,,,
12_李白.json,奉节,109.46406,31.01846,,,
12_李白.json,托克马克,75.275853,42.826232,,,
12_李白.json,重庆,106.55073,29.56471,,,
12_李白.json,巫山,109.8788,31.07462,,,
12_李白.json,大兴,116.34159,39.726841,,,
12_李白.json,奉节,109.46406,31.01846,,,
12_李白.json,白帝城,109.573991,31.043917,,,
12_李白.json,托克马克,75.275853,42.826232,,,
12_李白.json,重庆,106.55073,29.56471,,,
12_李白.json,重庆,106.55073,29.56471,,,
12_李白.json,巫山,109.8788,31.07462,,,
12_李白.json,大兴,116.34159,39.726841,,,
12_李白.json,巫山,109.8788,31.07462,,,
12_李白.json,奉节,109.46406,31.01846,,,
12_李白.json,托克马克,75.275853,42.826232,,,
12_李白.json,重庆,106.55073,29.56471,,,
12_李白.json,巫山,109.8788,31.07462,,,
12_李白.json,大兴,116.34159,39.726841,,,
12_李白.json,奉节,109.46406,31.01846,,,
12_李白.json,白帝城,109.573991,31.043917,,,
130_丘崇.json,松江,121.22654,31.032409,,,
130_丘崇.json,松江,121.22654,31.032409,,,
130_丘崇.json,北京,116.40717,39.90469,,,
130_丘崇.json,松江,121.22654,31.032409,,,
130_丘崇.json,北京,116.40717,39.90469,,,
130_丘崇.json,松江,121.22654,31.032409,,,
130_丘崇.json,松江,121.22654,31.032409,,,
130_丘崇.json,北京,116.40717,39.90469,,,
130_丘崇.json,松江,121.22654,31.032409,,,
130_丘崇.json,北京,116.40717,39.90469,,,
130_丘崇.json,松江,121.22654,31.032409,,,
130_丘崇.json,松江,121.22654,31.032409,,,
130_丘崇.json,北京,116.40717,39.90469,,,
130_丘崇.json,松江,121.22654,31.032409,,,
130_丘崇.json,北京,116.40717,39.90469,,,
130_丘崇.json,松江,121.22654,31.032409,,,
130_丘崇.json,松江,121.22654,31.032409,,,
130_丘崇.json,北京,116.40717,39.90469,,,
130_丘崇.json,松江,121.22654,31.032409,,,
130_丘崇.json,北京,116.40717,39.90469,,,
130_丘崇.json,松江,121.22654,31.032409,,,
130_丘崇.json,松江,121.22654,31.032409,,,
130_丘崇.json,北京,116.40717,39.90469,,,
130_丘崇.json,松江,121.22654,31.032409,,,
130_丘崇.json,北京,116.40717,39.90469,,,
131_王质.json,奉节,109.46406,31.01846,,,
131_王质.json,涪陵,107.38982,29.70315,,,
131_王质.json,云阳,108.69698,30.93063,,,
131_王质.json,奉节,109.46406,31.01846,,,
131_王质.json,奉节,109.46406,31.01846,,,
131_王质.json,涪陵,107.38982,29.70315,,,
131_王质.json,云阳,108.69698,30.93063,,,
131_王质.json,奉节,109.46406,31.01846,,,
131_王质.json,涪陵,107.38982,29.70315,,,
131_王质.json,云阳,108.69698,30.93063,,,
131_王质.json,奉节,109.46406,31.01846,,,
131_王质.json,奉节,109.46406,31.01846,,,
131_王质.json,涪陵,107.38982,29.70315,,,
131_王质.json,云阳,108.69698,30.93063,,,
131_王质.json,奉节,109.46406,31.01846,,,
131_王质.json,涪陵,107.38982,29.70315,,,
131_王质.json,云阳,108.69698,30.93063,,,
131_王质.json,奉节,109.46406,31.01846,,,
131_王质.json,奉节,109.46406,31.01846,,,
131_王质.json,涪陵,107.38982,29.70315,,,
131_王质.json,云阳,108.69698,30.93063,,,
131_王质.json,奉节,109.46406,31.01846,,,
131_王质.json,涪陵,107.38982,29.70315,,,
131_王质.json,云阳,108.69698,30.93063,,,
131_王质.json,奉节,109.46406,31.01846,,,
131_王质.json,奉节,109.46406,31.01846,,,
131_王质.json,涪陵,107.38982,29.70315,,,
131_王质.json,云阳,108.69698,30.93063,,,
131_王质.json,奉节,109.46406,31.01846,,,
131_王质.json,涪陵,107.38982,29.70315,,,
131_王质.json,云阳,108.69698,30.93063,,,
131_王质.json,奉节,109.46406,31.01846,,,
131_王质.json,奉节,109.46406,31.01846,,,
131_王质.json,涪陵,107.38982,29.70315,,,
131_王质.json,云阳,108.69698,30.93063,,,
131_王质.json,奉节,109.46406,31.01846,,,
131_王质.json,涪陵,107.38982,29.70315,,,
131_王质.json,云阳,108.69698,30.93063,,,
131_王质.json,奉节,109.46406,31.01846,,,
131_王质.json,奉节,109.46406,31.01846,,,
131_王质.json,涪陵,107.38982,29.70315,,,
131_王质.json,云阳,108.69698,30.93063,,,
131_王质.json,奉节,109.46406,31.01846,,,
131_王质.json,涪陵,107.38982,29.70315,,,
131_王质.json,云阳,108.69698,30.93063,,,
131_王质.json,奉节,109.46406,31.01846,,,
131_王质.json,奉节,109.46406,31.01846,,,
131_王质.json,涪陵,107.38982,29.70315,,,
131_王质.json,云阳,108.69698,30.93063,,,
139_李壁.json,北京,116.40717,39.90469,,,
139_李壁.json,北京,116.40717,39.90469,,,
139_李壁.json,北京,116.40717,39.90469,,,
139_李壁.json,北京,116.40717,39.90469,,,
13_杜甫.json,重庆,106.55073,29.56471,,,
13_杜甫.json,忠县,108.03767,30.30026,,,
13_杜甫.json,云阳,108.69698,30.93063,,,
13_杜甫.json,奉节,109.46406,31.01846,,,
13_杜甫.json,巫山,109.8788,31.07462,,,
13_杜甫.json,重庆,106.55073,29.56471,,,
13_杜甫.json,忠县,108.03767,30.30026,,,
13_杜甫.json,云阳,108.69698,30.93063,,,
13_杜甫.json,奉节,109.46406,31.01846,,,
13_杜甫.json,巫山,109.8788,31.07462,,,
13_杜甫.json,白帝城,109.573991,31.043917,,,
13_杜甫.json,重庆,106.55073,29.56471,,,
13_杜甫.json,忠县,108.03767,30.30026,,,
13_杜甫.json,云阳,108.69698,30.93063,,,
13_杜甫.json,奉节,109.46406,31.01846,,,
13_杜甫.json,巫山,109.8788,31.07462,,,
13_杜甫.json,重庆,106.55073,29.56471,,,
13_杜甫.json,忠县,108.03767,30.30026,,,
13_杜甫.json,云阳,108.69698,30.93063,,,
13_杜甫.json,奉节,109.46406,31.01846,,,
13_杜甫.json,巫山,109.8788,31.07462,,,
13_杜甫.json,白帝城,109.573991,31.043917,,,
13_杜甫.json,重庆,106.55073,29.56471,,,
13_杜甫.json,忠县,108.03767,30.30026,,,
13_杜甫.json,云阳,108.69698,30.93063,,,
13_杜甫.json,奉节,109.46406,31.01846,,,
13_杜甫.json,巫山,109.8788,31.07462,,,
13_杜甫.json,重庆,106.55073,29.56471,,,
13_杜甫.json,忠县,108.03767,30.30026,,,
13_杜甫.json,云阳,108.69698,30.93063,,,
13_杜甫.json,奉节,109.46406,31.01846,,,
13_杜甫.json,巫山,109.8788,31.07462,,,
13_杜甫.json,白帝城,109.573991,31.043917,,,
13_杜甫.json,重庆,106.55073,29.56471,,,
13_杜甫.json,忠县,108.03767,30.30026,,,
13_杜甫.json,云阳,108.69698,30.93063,,,
13_杜甫.json,奉节,109.46406,31.01846,,,
13_杜甫.json,巫山,109.8788,31.07462,,,
13_杜甫.json,重庆,106.55073,29.56471,,,
13_杜甫.json,忠县,108.03767,30.30026,,,
13_杜甫.json,云阳,108.69698,30.93063,,,
13_杜甫.json,奉节,109.46406,31.01846,,,
13_杜甫.json,巫山,109.8788,31.07462,,,
13_杜甫.json,白帝城,109.573991,31.043917,,,
13_杜甫.json,重庆,106.55073,29.56471,,,
13_杜甫.json,忠县,108.03767,30.30026,,,
13_杜甫.json,云阳,108.69698,30.93063,,,
13_杜甫.json,奉节,109.46406,31.01846,,,
13_杜甫.json,巫山,109.8788,31.07462,,,
13_杜甫.json,重庆,106.55073,29.56471,,,
13_杜甫.json,忠县,108.03767,30.30026,,,
13_杜甫.json,云阳,108.69698,30.93063,,,
13_杜甫.json,奉节,109.46406,31.01846,,,
13_杜甫.json,巫山,109.8788,31.07462,,,
13_杜甫.json,白帝城,109.573991,31.043917,,,
13_杜甫.json,重庆,106.55073,29.56471,,,
13_杜甫.json,忠县,108.03767,30.30026,,,
13_杜甫.json,云阳,108.69698,30.93063,,,
13_杜甫.json,奉节,109.46406,31.01846,,,
13_杜甫.json,巫山,109.8788,31.07462,,,
13_杜甫.json,重庆,106.55073,29.56471,,,
13_杜甫.json,忠县,108.03767,30.30026,,,
13_杜甫.json,云阳,108.69698,30.93063,,,
13_杜甫.json,奉节,109.46406,31.01846,,,
13_杜甫.json,巫山,109.8788,31.07462,,,
13_杜甫.json,白帝城,109.573991,31.043917,,,
13_杜甫.json,重庆,106.55073,29.56471,,,
13_杜甫.json,忠县,108.03767,30.30026,,,
13_杜甫.json,云阳,108.69698,30.93063,,,
13_杜甫.json,奉节,109.46406,31.01846,,,
13_杜甫.json,巫山,109.8788,31.07462,,,
13_杜甫.json,重庆,106.55073,29.56471,,,
13_杜甫.json,忠县,108.03767,30.30026,,,
13_杜甫.json,云阳,108.69698,30.93063,,,
13_杜甫.json,奉节,109.46406,31.01846,,,
13_杜甫.json,巫山,109.8788,31.07462,,,
13_杜甫.json,白帝城,109.573991,31.043917,,,
13_杜甫.json,重庆,106.55073,29.56471,,,
13_杜甫.json,忠县,108.03767,30.30026,,,
13_杜甫.json,云阳,108.69698,30.93063,,,
13_杜甫.json,奉节,109.46406,31.01846,,,
13_杜甫.json,巫山,109.8788,31.07462,,,
13_杜甫.json,重庆,106.55073,29.56471,,,
13_杜甫.json,忠县,108.03767,30.30026,,,
13_杜甫.json,云阳,108.69698,30.93063,,,
13_杜甫.json,奉节,109.46406,31.01846,,,
13_杜甫.json,巫山,109.8788,31.07462,,,
13_杜甫.json,白帝城,109.573991,31.043917,,,
13_杜甫.json,重庆,106.55073,29.56471,,,
13_杜甫.json,忠县,108.03767,30.30026,,,
13_杜甫.json,云阳,108.69698,30.93063,,,
13_杜甫.json,奉节,109.46406,31.01846,,,
13_杜甫.json,巫山,109.8788,31.07462,,,
13_杜甫.json,重庆,106.55073,29.56471,,,
13_杜甫.json,忠县,108.03767,30.30026,,,
13_杜甫.json,云阳,108.69698,30.93063,,,
13_杜甫.json,奉节,109.46406,31.01846,,,
13_杜甫.json,巫山,109.8788,31.07462,,,
13_杜甫.json,白帝城,109.573991,31.043917,,,
13_杜甫.json,重庆,106.55073,29.56471,,,
13_杜甫.json,忠县,108.03767,30.30026,,,
13_杜甫.json,云阳,108.69698,30.93063,,,
13_杜甫.json,奉节,109.46406,31.01846,,,
13_杜甫.json,巫山,109.8788,31.07462,,,
13_杜甫.json,重庆,106.55073,29.56471,,,
13_杜甫.json,忠县,108.03767,30.30026,,,
13_杜甫.json,云阳,108.69698,30.93063,,,
13_杜甫.json,奉节,109.46406,31.01846,,,
13_杜甫.json,巫山,109.8788,31.07462,,,
13_杜甫.json,白帝城,109.573991,31.043917,,,
13_杜甫.json,重庆,106.55073,29.56471,,,
13_杜甫.json,忠县,108.03767,30.30026,,,
13_杜甫.json,云阳,108.69698,30.93063,,,
13_杜甫.json,奉节,109.46406,31.01846,,,
13_杜甫.json,巫山,109.8788,31.07462,,,
13_杜甫.json,重庆,106.55073,29.56471,,,
13_杜甫.json,忠县,108.03767,30.30026,,,
13_杜甫.json,云阳,108.69698,30.93063,,,
13_杜甫.json,奉节,109.46406,31.01846,,,
13_杜甫.json,巫山,109.8788,31.07462,,,
13_杜甫.json,白帝城,109.573991,31.043917,,,
140_李埴.json,奉节,109.46406,31.01846,,,
140_李埴.json,奉节,109.46406,31.01846,,,
140_李埴.json,奉节,109.46406,31.01846,,,
140_李埴.json,奉节,109.46406,31.01846,,,
152_谢枋得.json,北京,116.40717,39.90469,,,
152_谢枋得.json,北京,116.40717,39.90469,,,
152_谢枋得.json,北京,116.40717,39.90469,,,
152_谢枋得.json,北京,116.40717,39.90469,,,
154_文天祥.json,徐水,121.436869,31.188259,,,
154_文天祥.json,北京,116.40717,39.90469,,,
154_文天祥.json,徐水,121.436869,31.188259,,,
154_文天祥.json,北京,116.40717,39.90469,,,
154_文天祥.json,徐水,121.436869,31.188259,,,
154_文天祥.json,北京,116.40717,39.90469,,,
154_文天祥.json,徐水,121.436869,31.188259,,,
154_文天祥.json,北京,116.40717,39.90469,,,
154_文天祥.json,徐水,121.436869,31.188259,,,
154_文天祥.json,北京,116.40717,39.90469,,,
154_文天祥.json,徐水,121.436869,31.188259,,,
154_文天祥.json,北京,116.40717,39.90469,,,
154_文天祥.json,徐水,121.436869,31.188259,,,
154_文天祥.json,北京,116.40717,39.90469,,,
154_文天祥.json,徐水,121.436869,31.188259,,,
154_文天祥.json,北京,116.40717,39.90469,,,
155_张炎.json,北京,116.40717,39.90469,,,
155_张炎.json,北京,116.40717,39.90469,,,
155_张炎.json,北京,116.40717,39.90469,,,
155_张炎.json,北京,116.40717,39.90469,,,
15_岑参.json,济源,112.60273,35.06707,,,
15_岑参.json,济源,112.60273,35.06707,,,
15_岑参.json,济源,112.60273,35.06707,,,
15_岑参.json,济源,112.60273,35.06707,,,
19_孟郊.json,仙桃,113.4545,30.36251,,,
19_孟郊.json,巫山,109.8788,31.07462,,,
19_孟郊.json,仙桃,113.4545,30.36251,,,
19_孟郊.json,济源,112.60273,35.06707,,,
19_孟郊.json,仙桃,113.4545,30.36251,,,
19_孟郊.json,巫山,109.8788,31.07462,,,
19_孟郊.json,济源,112.60273,35.06707,,,
19_孟郊.json,巫峡,109.913068,31.059249,,,
19_孟郊.json,仙桃,113.4545,30.36251,,,
19_孟郊.json,巫山,109.8788,31.07462,,,
19_孟郊.json,仙桃,113.4545,30.36251,,,
19_孟郊.json,济源,112.60273,35.06707,,,
19_孟郊.json,仙桃,113.4545,30.36251,,,
19_孟郊.json,巫山,109.8788,31.07462,,,
19_孟郊.json,济源,112.60273,35.06707,,,
19_孟郊.json,巫峡,109.913068,31.059249,,,
19_孟郊.json,仙桃,113.4545,30.36251,,,
19_孟郊.json,巫山,109.8788,31.07462,,,
19_孟郊.json,仙桃,113.4545,30.36251,,,
19_孟郊.json,济源,112.60273,35.06707,,,
19_孟郊.json,仙桃,113.4545,30.36251,,,
19_孟郊.json,巫山,109.8788,31.07462,,,
19_孟郊.json,济源,112.60273,35.06707,,,
19_孟郊.json,巫峡,109.913068,31.059249,,,
19_孟郊.json,仙桃,113.4545,30.36251,,,
19_孟郊.json,巫山,109.8788,31.07462,,,
19_孟郊.json,仙桃,113.4545,30.36251,,,
19_孟郊.json,济源,112.60273,35.06707,,,
19_孟郊.json,仙桃,113.4545,30.36251,,,
19_孟郊.json,巫山,109.8788,31.07462,,,
19_孟郊.json,济源,112.60273,35.06707,,,
19_孟郊.json,巫峡,109.913068,31.059249,,,
19_孟郊.json,仙桃,113.4545,30.36251,,,
19_孟郊.json,巫山,109.8788,31.07462,,,
19_孟郊.json,仙桃,113.4545,30.36251,,,
19_孟郊.json,济源,112.60273,35.06707,,,
19_孟郊.json,仙桃,113.4545,30.36251,,,
19_孟郊.json,巫山,109.8788,31.07462,,,
19_孟郊.json,济源,112.60273,35.06707,,,
19_孟郊.json,巫峡,109.913068,31.059249,,,
19_孟郊.json,仙桃,113.4545,30.36251,,,
19_孟郊.json,巫山,109.8788,31.07462,,,
19_孟郊.json,仙桃,113.4545,30.36251,,,
19_孟郊.json,济源,112.60273,35.06707,,,
19_孟郊.json,仙桃,113.4545,30.36251,,,
19_孟郊.json,巫山,109.8788,31.07462,,,
19_孟郊.json,济源,112.60273,35.06707,,,
19_孟郊.json,巫峡,109.913068,31.059249,,,
19_孟郊.json,仙桃,113.4545,30.36251,,,
19_孟郊.json,巫山,109.8788,31.07462,,,
19_孟郊.json,仙桃,113.4545,30.36251,,,
19_孟郊.json,济源,112.60273,35.06707,,,
19_孟郊.json,仙桃,113.4545,30.36251,,,
19_孟郊.json,巫山,109.8788,31.07462,,,
19_孟郊.json,济源,112.60273,35.06707,,,
19_孟郊.json,巫峡,109.913068,31.059249,,,
19_孟郊.json,仙桃,113.4545,30.36251,,,
19_孟郊.json,巫山,109.8788,31.07462,,,
19_孟郊.json,仙桃,113.4545,30.36251,,,
19_孟郊.json,济源,112.60273,35.06707,,,
19_孟郊.json,仙桃,113.4545,30.36251,,,
19_孟郊.json,巫山,109.8788,31.07462,,,
19_孟郊.json,济源,112.60273,35.06707,,,
19_孟郊.json,巫峡,109.913068,31.059249,,,
26_张彻.json,丰台,116.28616,39.85856,,,
26_张彻.json,丰台,116.28616,39.85856,,,
26_张彻.json,丰台,116.28616,39.85856,,,
26_张彻.json,丰台,116.28616,39.85856,,,
29_李德裕.json,忠县,108.03767,30.30026,,,
29_李德裕.json,忠县,108.03767,30.30026,,,
29_李德裕.json,忠县,108.03767,30.30026,,,
29_李德裕.json,忠县,108.03767,30.30026,,,
2_卢照邻.json,蒙古,107.143166,47.959959,,,
2_卢照邻.json,乌兰巴托北,106.927039,48.320006,,,
2_卢照邻.json,蒙古,107.143166,47.959959,,,
2_卢照邻.json,乌兰巴托北,106.927039,48.320006,,,
2_卢照邻.json,蒙古,107.143166,47.959959,,,
2_卢照邻.json,乌兰巴托北,106.927039,48.320006,,,
2_卢照邻.json,蒙古,107.143166,47.959959,,,
2_卢照邻.json,乌兰巴托北,106.927039,48.320006,,,
2_卢照邻.json,蒙古,107.143166,47.959959,,,
2_卢照邻.json,乌兰巴托北,106.927039,48.320006,,,
2_卢照邻.json,蒙古,107.143166,47.959959,,,
2_卢照邻.json,乌兰巴托北,106.927039,48.320006,,,
2_卢照邻.json,蒙古,107.143166,47.959959,,,
2_卢照邻.json,乌兰巴托北,106.927039,48.320006,,,
2_卢照邻.json,蒙古,107.143166,47.959959,,,
2_卢照邻.json,乌兰巴托北,106.927039,48.320006,,,
36_李频.json,彭水,108.165555,29.293763,,,
36_李频.json,彭水,108.165555,29.293763,,,
36_李频.json,彭水,108.165555,29.293763,,,
36_李频.json,彭水,108.165555,29.293763,,,
39_贯休.json,蓟县,117.40829,40.04577,,,
39_贯休.json,涪陵,107.38982,29.70315,,,
39_贯休.json,彭水,108.165555,29.293763,,,
39_贯休.json,重庆,106.55073,29.56471,,,
39_贯休.json,蓟县,117.40829,40.04577,,,
39_贯休.json,涪陵,107.38982,29.70315,,,
39_贯休.json,彭水,108.165555,29.293763,,,
39_贯休.json,重庆,106.55073,29.56471,,,
39_贯休.json,缙云山,106.397529,29.836926,,,
39_贯休.json,蓟县,117.40829,40.04577,,,
39_贯休.json,涪陵,107.38982,29.70315,,,
39_贯休.json,彭水,108.165555,29.293763,,,
39_贯休.json,重庆,106.55073,29.56471,,,
39_贯休.json,蓟县,117.40829,40.04577,,,
39_贯休.json,涪陵,107.38982,29.70315,,,
39_贯休.json,彭水,108.165555,29.293763,,,
39_贯休.json,重庆,106.55073,29.56471,,,
39_贯休.json,缙云山,106.397529,29.836926,,,
39_贯休.json,蓟县,117.40829,40.04577,,,
39_贯休.json,涪陵,107.38982,29.70315,,,
39_贯休.json,彭水,108.165555,29.293763,,,
39_贯休.json,重庆,106.55073,29.56471,,,
39_贯休.json,蓟县,117.40829,40.04577,,,
39_贯休.json,涪陵,107.38982,29.70315,,,
39_贯休.json,彭水,108.165555,29.293763,,,
39_贯休.json,重庆,106.55073,29.56471,,,
39_贯休.json,缙云山,106.397529,29.836926,,,
39_贯休.json,蓟县,117.40829,40.04577,,,
39_贯休.json,涪陵,107.38982,29.70315,,,
39_贯休.json,彭水,108.165555,29.293763,,,
39_贯休.json,重庆,106.55073,29.56471,,,
39_贯休.json,蓟县,117.40829,40.04577,,,
39_贯休.json,涪陵,107.38982,29.70315,,,
39_贯休.json,彭水,108.165555,29.293763,,,
39_贯休.json,重庆,106.55073,29.56471,,,
39_贯休.json,缙云山,106.397529,29.836926,,,
39_贯休.json,蓟县,117.40829,40.04577,,,
39_贯休.json,涪陵,107.38982,29.70315,,,
39_贯休.json,彭水,108.165555,29.293763,,,
39_贯休.json,重庆,106.55073,29.56471,,,
39_贯休.json,蓟县,117.40829,40.04577,,,
39_贯休.json,涪陵,107.38982,29.70315,,,
39_贯休.json,彭水,108.165555,29.293763,,,
39_贯休.json,重庆,106.55073,29.56471,,,
39_贯休.json,缙云山,106.397529,29.836926,,,
39_贯休.json,蓟县,117.40829,40.04577,,,
39_贯休.json,涪陵,107.38982,29.70315,,,
39_贯休.json,彭水,108.165555,29.293763,,,
39_贯休.json,重庆,106.55073,29.56471,,,
39_贯休.json,蓟县,117.40829,40.04577,,,
39_贯休.json,涪陵,107.38982,29.70315,,,
39_贯休.json,彭水,108.165555,29.293763,,,
39_贯休.json,重庆,106.55073,29.56471,,,
39_贯休.json,缙云山,106.397529,29.836926,,,
39_贯休.json,蓟县,117.40829,40.04577,,,
39_贯休.json,涪陵,107.38982,29.70315,,,
39_贯休.json,彭水,108.165555,29.293763,,,
39_贯休.json,重庆,106.55073,29.56471,,,
39_贯休.json,蓟县,117.40829,40.04577,,,
39_贯休.json,涪陵,107.38982,29.70315,,,
39_贯休.json,彭水,108.165555,29.293763,,,
39_贯休.json,重庆,106.55073,29.56471,,,
39_贯休.json,缙云山,106.397529,29.836926,,,
39_贯休.json,蓟县,117.40829,40.04577,,,
39_贯休.json,涪陵,107.38982,29.70315,,,
39_贯休.json,彭水,108.165555,29.293763,,,
39_贯休.json,重庆,106.55073,29.56471,,,
39_贯休.json,蓟县,117.40829,40.04577,,,
39_贯休.json,涪陵,107.38982,29.70315,,,
39_贯休.json,彭水,108.165555,29.293763,,,
39_贯休.json,重庆,106.55073,29.56471,,,
39_贯休.json,缙云山,106.397529,29.836926,,,
39_贯休.json,蓟县,117.40829,40.04577,,,
39_贯休.json,涪陵,107.38982,29.70315,,,
39_贯休.json,彭水,108.165555,29.293763,,,
39_贯休.json,重庆,106.55073,29.56471,,,
39_贯休.json,蓟县,117.40829,40.04577,,,
39_贯休.json,涪陵,107.38982,29.70315,,,
39_贯休.json,彭水,108.165555,29.293763,,,
39_贯休.json,重庆,106.55073,29.56471,,,
39_贯休.json,缙云山,106.397529,29.836926,,,
40_罗隐.json,巫山,109.8788,31.07462,,,
40_罗隐.json,合川,106.27679,29.97288,,,
40_罗隐.json,蓟县,117.40829,40.04577,,,
40_罗隐.json,巫山,109.8788,31.07462,,,
40_罗隐.json,合川,106.27679,29.97288,,,
40_罗隐.json,蓟县,117.40829,40.04577,,,
40_罗隐.json,巫山,109.8788,31.07462,,,
40_罗隐.json,合川,106.27679,29.97288,,,
40_罗隐.json,蓟县,117.40829,40.04577,,,
40_罗隐.json,巫山,109.8788,31.07462,,,
40_罗隐.json,合川,106.27679,29.97288,,,
40_罗隐.json,蓟县,117.40829,40.04577,,,
40_罗隐.json,巫山,109.8788,31.07462,,,
40_罗隐.json,合川,106.27679,29.97288,,,
40_罗隐.json,蓟县,117.40829,40.04577,,,
40_罗隐.json,巫山,109.8788,31.07462,,,
40_罗隐.json,合川,106.27679,29.97288,,,
40_罗隐.json,蓟县,117.40829,40.04577,,,
40_罗隐.json,巫山,109.8788,31.07462,,,
40_罗隐.json,合川,106.27679,29.97288,,,
40_罗隐.json,蓟县,117.40829,40.04577,,,
40_罗隐.json,巫山,109.8788,31.07462,,,
40_罗隐.json,合川,106.27679,29.97288,,,
40_罗隐.json,蓟县,117.40829,40.04577,,,
40_罗隐.json,巫山,109.8788,31.07462,,,
40_罗隐.json,合川,106.27679,29.97288,,,
40_罗隐.json,蓟县,117.40829,40.04577,,,
40_罗隐.json,巫山,109.8788,31.07462,,,
40_罗隐.json,合川,106.27679,29.97288,,,
40_罗隐.json,蓟县,117.40829,40.04577,,,
40_罗隐.json,巫山,109.8788,31.07462,,,
40_罗隐.json,合川,106.27679,29.97288,,,
40_罗隐.json,蓟县,117.40829,40.04577,,,
40_罗隐.json,巫山,109.8788,31.07462,,,
40_罗隐.json,合川,106.27679,29.97288,,,
40_罗隐.json,蓟县,117.40829,40.04577,,,
41_皮日休.json,天门,113.16614,30.66339,,,
41_皮日休.json,天门,113.16614,30.66339,,,
41_皮日休.json,天门,113.16614,30.66339,,,
41_皮日休.json,天门,113.16614,30.66339,,,
41_皮日休.json,天门,113.16614,30.66339,,,
41_皮日休.json,天门,113.16614,30.66339,,,
41_皮日休.json,天门,113.16614,30.66339,,,
41_皮日休.json,天门,113.16614,30.66339,,,
41_皮日休.json,天门,113.16614,30.66339,,,
41_皮日休.json,天门,113.16614,30.66339,,,
41_皮日休.json,天门,113.16614,30.66339,,,
41_皮日休.json,天门,113.16614,30.66339,,,
41_皮日休.json,天门,113.16614,30.66339,,,
41_皮日休.json,天门,113.16614,30.66339,,,
41_皮日休.json,天门,113.16614,30.66339,,,
41_皮日休.json,天门,113.16614,30.66339,,,
45_郑谷.json,涪陵,107.38982,29.70315,,,
45_郑谷.json,万州,108.40873,30.8079,,,
45_郑谷.json,奉节,109.46406,31.01846,,,
45_郑谷.json,奉节,109.46406,31.01846,,,
45_郑谷.json,巫山,109.8788,31.07462,,,
45_郑谷.json,涪陵,107.38982,29.70315,,,
45_郑谷.json,万州,108.40873,30.8079,,,
45_郑谷.json,奉节,109.46406,31.01846,,,
45_郑谷.json,巫山,109.8788,31.07462,,,
45_郑谷.json,涪陵,107.38982,29.70315,,,
45_郑谷.json,万州,108.40873,30.8079,,,
45_郑谷.json,奉节,109.46406,31.01846,,,
45_郑谷.json,奉节,109.46406,31.01846,,,
45_郑谷.json,巫山,109.8788,31.07462,,,
45_郑谷.json,涪陵,107.38982,29.70315,,,
45_郑谷.json,万州,108.40873,30.8079,,,
45_郑谷.json,奉节,109.46406,31.01846,,,
45_郑谷.json,巫山,109.8788,31.07462,,,
45_郑谷.json,涪陵,107.38982,29.70315,,,
45_郑谷.json,万州,108.40873,30.8079,,,
45_郑谷.json,奉节,109.46406,31.01846,,,
45_郑谷.json,奉节,109.46406,31.01846,,,
45_郑谷.json,巫山,109.8788,31.07462,,,
45_郑谷.json,涪陵,107.38982,29.70315,,,
45_郑谷.json,万州,108.40873,30.8079,,,
45_郑谷.json,奉节,109.46406,31.01846,,,
45_郑谷.json,巫山,109.8788,31.07462,,,
45_郑谷.json,涪陵,107.38982,29.70315,,,
45_郑谷.json,万州,108.40873,30.8079,,,
45_郑谷.json,奉节,109.46406,31.01846,,,
45_郑谷.json,奉节,109.46406,31.01846,,,
45_郑谷.json,巫山,109.8788,31.07462,,,
45_郑谷.json,涪陵,107.38982,29.70315,,,
45_郑谷.json,万州,108.40873,30.8079,,,
45_郑谷.json,奉节,109.46406,31.01846,,,
45_郑谷.json,巫山,109.8788,31.07462,,,
45_郑谷.json,涪陵,107.38982,29.70315,,,
45_郑谷.json,万州,108.40873,30.8079,,,
45_郑谷.json,奉节,109.46406,31.01846,,,
45_郑谷.json,奉节,109.46406,31.01846,,,
45_郑谷.json,巫山,109.8788,31.07462,,,
45_郑谷.json,涪陵,107.38982,29.70315,,,
45_郑谷.json,万州,108.40873,30.8079,,,
45_郑谷.json,奉节,109.46406,31.01846,,,
45_郑谷.json,巫山,109.8788,31.07462,,,
45_郑谷.json,涪陵,107.38982,29.70315,,,
45_郑谷.json,万州,108.40873,30.8079,,,
45_郑谷.json,奉节,109.46406,31.01846,,,
45_郑谷.json,奉节,109.46406,31.01846,,,
45_郑谷.json,巫山,109.8788,31.07462,,,
45_郑谷.json,涪陵,107.38982,29.70315,,,
45_郑谷.json,万州,108.40873,30.8079,,,
45_郑谷.json,奉节,109.46406,31.01846,,,
45_郑谷.json,巫山,109.8788,31.07462,,,
45_郑谷.json,涪陵,107.38982,29.70315,,,
45_郑谷.json,万州,108.40873,30.8079,,,
45_郑谷.json,奉节,109.46406,31.01846,,,
45_郑谷.json,奉节,109.46406,31.01846,,,
45_郑谷.json,巫山,109.8788,31.07462,,,
45_郑谷.json,涪陵,107.38982,29.70315,,,
45_郑谷.json,万州,108.40873,30.8079,,,
45_郑谷.json,奉节,109.46406,31.01846,,,
45_郑谷.json,巫山,109.8788,31.07462,,,
45_郑谷.json,涪陵,107.38982,29.70315,,,
45_郑谷.json,万州,108.40873,30.8079,,,
45_郑谷.json,奉节,109.46406,31.01846,,,
45_郑谷.json,奉节,109.46406,31.01846,,,
45_郑谷.json,巫山,109.8788,31.07462,,,
45_郑谷.json,涪陵,107.38982,29.70315,,,
45_郑谷.json,万州,108.40873,30.8079,,,
45_郑谷.json,奉节,109.46406,31.01846,,,
45_郑谷.json,巫山,109.8788,31.07462,,,
45_郑谷.json,涪陵,107.38982,29.70315,,,
45_郑谷.json,万州,108.40873,30.8079,,,
45_郑谷.json,奉节,109.46406,31.01846,,,
45_郑谷.json,奉节,109.46406,31.01846,,,
45_郑谷.json,巫山,109.8788,31.07462,,,
45_郑谷.json,涪陵,107.38982,29.70315,,,
45_郑谷.json,万州,108.40873,30.8079,,,
45_郑谷.json,奉节,109.46406,31.01846,,,
45_郑谷.json,巫山,109.8788,31.07462,,,
46_崔涂.json,奉节,109.46406,31.01846,,,
46_崔涂.json,合川,106.27679,29.97288,,,
46_崔涂.json,巫山,109.8788,31.07462,,,
46_崔涂.json,奉节,109.46406,31.01846,,,
46_崔涂.json,合川,106.27679,29.97288,,,
46_崔涂.json,巫山,109.8788,31.07462,,,
46_崔涂.json,奉节,109.46406,31.01846,,,
46_崔涂.json,合川,106.27679,29.97288,,,
46_崔涂.json,巫山,109.8788,31.07462,,,
46_崔涂.json,奉节,109.46406,31.01846,,,
46_崔涂.json,合川,106.27679,29.97288,,,
46_崔涂.json,巫山,109.8788,31.07462,,,
46_崔涂.json,奉节,109.46406,31.01846,,,
46_崔涂.json,合川,106.27679,29.97288,,,
46_崔涂.json,巫山,109.8788,31.07462,,,
46_崔涂.json,奉节,109.46406,31.01846,,,
46_崔涂.json,合川,106.27679,29.97288,,,
46_崔涂.json,巫山,109.8788,31.07462,,,
46_崔涂.json,奉节,109.46406,31.01846,,,
46_崔涂.json,合川,106.27679,29.97288,,,
46_崔涂.json,巫山,109.8788,31.07462,,,
46_崔涂.json,奉节,109.46406,31.01846,,,
46_崔涂.json,合川,106.27679,29.97288,,,
46_崔涂.json,巫山,109.8788,31.07462,,,
46_崔涂.json,奉节,109.46406,31.01846,,,
46_崔涂.json,合川,106.27679,29.97288,,,
46_崔涂.json,巫山,109.8788,31.07462,,,
46_崔涂.json,奉节,109.46406,31.01846,,,
46_崔涂.json,合川,106.27679,29.97288,,,
46_崔涂.json,巫山,109.8788,31.07462,,,
46_崔涂.json,奉节,109.46406,31.01846,,,
46_崔涂.json,合川,106.27679,29.97288,,,
46_崔涂.json,巫山,109.8788,31.07462,,,
46_崔涂.json,奉节,109.46406,31.01846,,,
46_崔涂.json,合川,106.27679,29.97288,,,
46_崔涂.json,巫山,109.8788,31.07462,,,
47_徐铉.json,北京,116.40717,39.90469,,,
47_徐铉.json,北京,116.40717,39.90469,,,
47_徐铉.json,北京,116.40717,39.90469,,,
47_徐铉.json,北京,116.40717,39.90469,,,
4_杨炯.json,奉节,109.46406,31.01846,,,
4_杨炯.json,奉节,109.46406,31.01846,,,
4_杨炯.json,三峡,109.539515,31.03424,,,
4_杨炯.json,奉节,109.46406,31.01846,,,
4_杨炯.json,奉节,109.46406,31.01846,,,
4_杨炯.json,三峡,109.539515,31.03424,,,
4_杨炯.json,奉节,109.46406,31.01846,,,
4_杨炯.json,奉节,109.46406,31.01846,,,
4_杨炯.json,三峡,109.539515,31.03424,,,
51_丁谓.json,奉节,109.46406,31.01846,,,
51_丁谓.json,奉节,109.46406,31.01846,,,
51_丁谓.json,奉节,109.46406,31.01846,,,
51_丁谓.json,奉节,109.46406,31.01846,,,
55_张先.json,重庆,106.55073,29.56471,,,
55_张先.json,重庆,106.55073,29.56471,,,
55_张先.json,重庆,106.55073,29.56471,,,
55_张先.json,重庆,106.55073,29.56471,,,
56_宋庠.json,北京,116.40717,39.90469,,,
56_宋庠.json,北京,116.40717,39.90469,,,
56_宋庠.json,北京,116.40717,39.90469,,,
56_宋庠.json,北京,116.40717,39.90469,,,
59_富弼.json,万州,108.40873,30.8079,,,
59_富弼.json,万州,108.40873,30.8079,,,
59_富弼.json,万州,108.40873,30.8079,,,
59_富弼.json,万州,108.40873,30.8079,,,
5_王勃.json,越南河内,105.836317,21.020867,,,
5_王勃.json,越南河内,105.836317,21.020867,,,
5_王勃.json,越南河内,105.836317,21.020867,,,
5_王勃.json,越南河内,105.836317,21.020867,,,
61_张方平.json,北京,116.40717,39.90469,,,
61_张方平.json,北京,116.40717,39.90469,,,
61_张方平.json,北京,116.40717,39.90469,,,
61_张方平.json,北京,116.40717,39.90469,,,
63_赵\.json,万州,108.40873,30.8079,,,
63_赵\.json,忠县,108.03767,30.30026,,,
63_赵\.json,万州,108.40873,30.8079,,,
63_赵\.json,忠县,108.03767,30.30026,,,
63_赵\.json,万州,108.40873,30.8079,,,
63_赵\.json,忠县,108.03767,30.30026,,,
63_赵\.json,万州,108.40873,30.8079,,,
63_赵\.json,忠县,108.03767,30.30026,,,
63_赵\.json,万州,108.40873,30.8079,,,
63_赵\.json,忠县,108.03767,30.30026,,,
63_赵\.json,万州,108.40873,30.8079,,,
63_赵\.json,忠县,108.03767,30.30026,,,
63_赵\.json,万州,108.40873,30.8079,,,
63_赵\.json,忠县,108.03767,30.30026,,,
63_赵\.json,万州,108.40873,30.8079,,,
63_赵\.json,忠县,108.03767,30.30026,,,
64_苏洵.json,奉节,109.46406,31.01846,,,
64_苏洵.json,重庆,106.55073,29.56471,,,
64_苏洵.json,涪陵,107.38982,29.70315,,,
64_苏洵.json,丰都,107.73085,29.86352,,,
64_苏洵.json,万州,108.40873,30.8079,,,
64_苏洵.json,奉节,109.46406,31.01846,,,
64_苏洵.json,巫山,109.8788,31.07462,,,
64_苏洵.json,奉节,109.46406,31.01846,,,
64_苏洵.json,重庆,106.55073,29.56471,,,
64_苏洵.json,涪陵,107.38982,29.70315,,,
64_苏洵.json,丰都,107.73085,29.86352,,,
64_苏洵.json,万州,108.40873,30.8079,,,
64_苏洵.json,巫山,109.8788,31.07462,,,
64_苏洵.json,三峡,109.539515,31.03424,,,
64_苏洵.json,白帝庙,109.574919,31.040505,,,
64_苏洵.json,奉节,109.46406,31.01846,,,
64_苏洵.json,重庆,106.55073,29.56471,,,
64_苏洵.json,涪陵,107.38982,29.70315,,,
64_苏洵.json,丰都,107.73085,29.86352,,,
64_苏洵.json,万州,108.40873,30.8079,,,
64_苏洵.json,奉节,109.46406,31.01846,,,
64_苏洵.json,巫山,109.8788,31.07462,,,
64_苏洵.json,奉节,109.46406,31.01846,,,
64_苏洵.json,重庆,106.55073,29.56471,,,
64_苏洵.json,涪陵,107.38982,29.70315,,,
64_苏洵.json,丰都,107.73085,29.86352,,,
64_苏洵.json,万州,108.40873,30.8079,,,
64_苏洵.json,巫山,109.8788,31.07462,,,
64_苏洵.json,三峡,109.539515,31.03424,,,
64_苏洵.json,白帝庙,109.574919,31.040505,,,
64_苏洵.json,奉节,109.46406,31.01846,,,
64_苏洵.json,重庆,106.55073,29.56471,,,
64_苏洵.json,涪陵,107.38982,29.70315,,,
64_苏洵.json,丰都,107.73085,29.86352,,,
64_苏洵.json,万州,108.40873,30.8079,,,
64_苏洵.json,奉节,109.46406,31.01846,,,
64_苏洵.json,巫山,109.8788,31.07462,,,
64_苏洵.json,奉节,109.46406,31.01846,,,
64_苏洵.json,重庆,106.55073,29.56471,,,
64_苏洵.json,涪陵,107.38982,29.70315,,,
64_苏洵.json,丰都,107.73085,29.86352,,,
64_苏洵.json,万州,108.40873,30.8079,,,
64_苏洵.json,巫山,109.8788,31.07462,,,
64_苏洵.json,三峡,109.539515,31.03424,,,
64_苏洵.json,白帝庙,109.574919,31.040505,,,
64_苏洵.json,奉节,109.46406,31.01846,,,
64_苏洵.json,重庆,106.55073,29.56471,,,
64_苏洵.json,涪陵,107.38982,29.70315,,,
64_苏洵.json,丰都,107.73085,29.86352,,,
64_苏洵.json,万州,108.40873,30.8079,,,
64_苏洵.json,奉节,109.46406,31.01846,,,
64_苏洵.json,巫山,109.8788,31.07462,,,
64_苏洵.json,奉节,109.46406,31.01846,,,
64_苏洵.json,重庆,106.55073,29.56471,,,
64_苏洵.json,涪陵,107.38982,29.70315,,,
64_苏洵.json,丰都,107.73085,29.86352,,,
64_苏洵.json,万州,108.40873,30.8079,,,
64_苏洵.json,巫山,109.8788,31.07462,,,
64_苏洵.json,三峡,109.539515,31.03424,,,
64_苏洵.json,白帝庙,109.574919,31.040505,,,
64_苏洵.json,奉节,109.46406,31.01846,,,
64_苏洵.json,重庆,106.55073,29.56471,,,
64_苏洵.json,涪陵,107.38982,29.70315,,,
64_苏洵.json,丰都,107.73085,29.86352,,,
64_苏洵.json,万州,108.40873,30.8079,,,
64_苏洵.json,奉节,109.46406,31.01846,,,
64_苏洵.json,巫山,109.8788,31.07462,,,
64_苏洵.json,奉节,109.46406,31.01846,,,
64_苏洵.json,重庆,106.55073,29.56471,,,
64_苏洵.json,涪陵,107.38982,29.70315,,,
64_苏洵.json,丰都,107.73085,29.86352,,,
64_苏洵.json,万州,108.40873,30.8079,,,
64_苏洵.json,巫山,109.8788,31.07462,,,
64_苏洵.json,三峡,109.539515,31.03424,,,
64_苏洵.json,白帝庙,109.574919,31.040505,,,
64_苏洵.json,奉节,109.46406,31.01846,,,
64_苏洵.json,重庆,106.55073,29.56471,,,
64_苏洵.json,涪陵,107.38982,29.70315,,,
64_苏洵.json,丰都,107.73085,29.86352,,,
64_苏洵.json,万州,108.40873,30.8079,,,
64_苏洵.json,奉节,109.46406,31.01846,,,
64_苏洵.json,巫山,109.8788,31.07462,,,
64_苏洵.json,奉节,109.46406,31.01846,,,
64_苏洵.json,重庆,106.55073,29.56471,,,
64_苏洵.json,涪陵,107.38982,29.70315,,,
64_苏洵.json,丰都,107.73085,29.86352,,,
64_苏洵.json,万州,108.40873,30.8079,,,
64_苏洵.json,巫山,109.8788,31.07462,,,
64_苏洵.json,三峡,109.539515,31.03424,,,
64_苏洵.json,白帝庙,109.574919,31.040505,,,
64_苏洵.json,奉节,109.46406,31.01846,,,
64_苏洵.json,重庆,106.55073,29.56471,,,
64_苏洵.json,涪陵,107.38982,29.70315,,,
64_苏洵.json,丰都,107.73085,29.86352,,,
64_苏洵.json,万州,108.40873,30.8079,,,
64_苏洵.json,奉节,109.46406,31.01846,,,
64_苏洵.json,巫山,109.8788,31.07462,,,
64_苏洵.json,奉节,109.46406,31.01846,,,
64_苏洵.json,重庆,106.55073,29.56471,,,
64_苏洵.json,涪陵,107.38982,29.70315,,,
64_苏洵.json,丰都,107.73085,29.86352,,,
64_苏洵.json,万州,108.40873,30.8079,,,
64_苏洵.json,巫山,109.8788,31.07462,,,
64_苏洵.json,三峡,109.539515,31.03424,,,
64_苏洵.json,白帝庙,109.574919,31.040505,,,
64_苏洵.json,奉节,109.46406,31.01846,,,
64_苏洵.json,重庆,106.55073,29.56471,,,
64_苏洵.json,涪陵,107.38982,29.70315,,,
64_苏洵.json,丰都,107.73085,29.86352,,,
64_苏洵.json,万州,108.40873,30.8079,,,
64_苏洵.json,奉节,109.46406,31.01846,,,
64_苏洵.json,巫山,109.8788,31.07462,,,
64_苏洵.json,奉节,109.46406,31.01846,,,
64_苏洵.json,重庆,106.55073,29.56471,,,
64_苏洵.json,涪陵,107.38982,29.70315,,,
64_苏洵.json,丰都,107.73085,29.86352,,,
64_苏洵.json,万州,108.40873,30.8079,,,
64_苏洵.json,巫山,109.8788,31.07462,,,
64_苏洵.json,三峡,109.539515,31.03424,,,
64_苏洵.json,白帝庙,109.574919,31.040505,,,
64_苏洵.json,奉节,109.46406,31.01846,,,
64_苏洵.json,重庆,106.55073,29.56471,,,
64_苏洵.json,涪陵,107.38982,29.70315,,,
64_苏洵.json,丰都,107.73085,29.86352,,,
64_苏洵.json,万州,108.40873,30.8079,,,
64_苏洵.json,奉节,109.46406,31.01846,,,
64_苏洵.json,巫山,109.8788,31.07462,,,
64_苏洵.json,奉节,109.46406,31.01846,,,
64_苏洵.json,重庆,106.55073,29.56471,,,
64_苏洵.json,涪陵,107.38982,29.70315,,,
64_苏洵.json,丰都,107.73085,29.86352,,,
64_苏洵.json,万州,108.40873,30.8079,,,
64_苏洵.json,巫山,109.8788,31.07462,,,
64_苏洵.json,三峡,109.539515,31.03424,,,
64_苏洵.json,白帝庙,109.574919,31.040505,,,
64_苏洵.json,奉节,109.46406,31.01846,,,
64_苏洵.json,重庆,106.55073,29.56471,,,
64_苏洵.json,涪陵,107.38982,29.70315,,,
64_苏洵.json,丰都,107.73085,29.86352,,,
64_苏洵.json,万州,108.40873,30.8079,,,
64_苏洵.json,奉节,109.46406,31.01846,,,
64_苏洵.json,巫山,109.8788,31.07462,,,
64_苏洵.json,奉节,109.46406,31.01846,,,
64_苏洵.json,重庆,106.55073,29.56471,,,
64_苏洵.json,涪陵,107.38982,29.70315,,,
64_苏洵.json,丰都,107.73085,29.86352,,,
64_苏洵.json,万州,108.40873,30.8079,,,
64_苏洵.json,巫山,109.8788,31.07462,,,
64_苏洵.json,三峡,109.539515,31.03424,,,
64_苏洵.json,白帝庙,109.574919,31.040505,,,
64_苏洵.json,奉节,109.46406,31.01846,,,
64_苏洵.json,重庆,106.55073,29.56471,,,
64_苏洵.json,涪陵,107.38982,29.70315,,,
64_苏洵.json,丰都,107.73085,29.86352,,,
64_苏洵.json,万州,108.40873,30.8079,,,
64_苏洵.json,奉节,109.46406,31.01846,,,
64_苏洵.json,巫山,109.8788,31.07462,,,
64_苏洵.json,奉节,109.46406,31.01846,,,
64_苏洵.json,重庆,106.55073,29.56471,,,
64_苏洵.json,涪陵,107.38982,29.70315,,,
64_苏洵.json,丰都,107.73085,29.86352,,,
64_苏洵.json,万州,108.40873,30.8079,,,
64_苏洵.json,巫山,109.8788,31.07462,,,
64_苏洵.json,三峡,109.539515,31.03424,,,
64_苏洵.json,白帝庙,109.574919,31.040505,,,
64_苏洵.json,奉节,109.46406,31.01846,,,
64_苏洵.json,重庆,106.55073,29.56471,,,
64_苏洵.json,涪陵,107.38982,29.70315,,,
64_苏洵.json,丰都,107.73085,29.86352,,,
64_苏洵.json,万州,108.40873,30.8079,,,
64_苏洵.json,奉节,109.46406,31.01846,,,
64_苏洵.json,巫山,109.8788,31.07462,,,
64_苏洵.json,奉节,109.46406,31.01846,,,
64_苏洵.json,重庆,106.55073,29.56471,,,
64_苏洵.json,涪陵,107.38982,29.70315,,,
64_苏洵.json,丰都,107.73085,29.86352,,,
64_苏洵.json,万州,108.40873,30.8079,,,
64_苏洵.json,巫山,109.8788,31.07462,,,
64_苏洵.json,三峡,109.539515,31.03424,,,
64_苏洵.json,白帝庙,109.574919,31.040505,,,
64_苏洵.json,奉节,109.46406,31.01846,,,
64_苏洵.json,重庆,106.55073,29.56471,,,
64_苏洵.json,涪陵,107.38982,29.70315,,,
64_苏洵.json,丰都,107.73085,29.86352,,,
64_苏洵.json,万州,108.40873,30.8079,,,
64_苏洵.json,奉节,109.46406,31.01846,,,
64_苏洵.json,巫山,109.8788,31.07462,,,
64_苏洵.json,奉节,109.46406,31.01846,,,
64_苏洵.json,重庆,106.55073,29.56471,,,
64_苏洵.json,涪陵,107.38982,29.70315,,,
64_苏洵.json,丰都,107.73085,29.86352,,,
64_苏洵.json,万州,108.40873,30.8079,,,
64_苏洵.json,巫山,109.8788,31.07462,,,
64_苏洵.json,三峡,109.539515,31.03424,,,
64_苏洵.json,白帝庙,109.574919,31.040505,,,
64_苏洵.json,奉节,109.46406,31.01846,,,
64_苏洵.json,重庆,106.55073,29.56471,,,
64_苏洵.json,涪陵,107.38982,29.70315,,,
64_苏洵.json,丰都,107.73085,29.86352,,,
64_苏洵.json,万州,108.40873,30.8079,,,
64_苏洵.json,奉节,109.46406,31.01846,,,
64_苏洵.json,巫山,109.8788,31.07462,,,
64_苏洵.json,奉节,109.46406,31.01846,,,
64_苏洵.json,重庆,106.55073,29.56471,,,
64_苏洵.json,涪陵,107.38982,29.70315,,,
64_苏洵.json,丰都,107.73085,29.86352,,,
64_苏洵.json,万州,108.40873,30.8079,,,
64_苏洵.json,巫山,109.8788,31.07462,,,
64_苏洵.json,三峡,109.539515,31.03424,,,
64_苏洵.json,白帝庙,109.574919,31.040505,,,
64_苏洵.json,奉节,109.46406,31.01846,,,
64_苏洵.json,重庆,106.55073,29.56471,,,
64_苏洵.json,涪陵,107.38982,29.70315,,,
64_苏洵.json,丰都,107.73085,29.86352,,,
64_苏洵.json,万州,108.40873,30.8079,,,
64_苏洵.json,奉节,109.46406,31.01846,,,
64_苏洵.json,巫山,109.8788,31.07462,,,
64_苏洵.json,奉节,109.46406,31.01846,,,
64_苏洵.json,重庆,106.55073,29.56471,,,
64_苏洵.json,涪陵,107.38982,29.70315,,,
64_苏洵.json,丰都,107.73085,29.86352,,,
64_苏洵.json,万州,108.40873,30.8079,,,
64_苏洵.json,巫山,109.8788,31.07462,,,
64_苏洵.json,三峡,109.539515,31.03424,,,
64_苏洵.json,白帝庙,109.574919,31.040505,,,
66_苏颂.json,天门,113.16614,30.66339,,,
66_苏颂.json,天门,113.16614,30.66339,,,
66_苏颂.json,天门,113.16614,30.66339,,,
66_苏颂.json,天门,113.16614,30.66339,,,
72_吕陶.json,铜梁,106.032665,29.812572,,,
72_吕陶.json,铜梁,106.032665,29.812572,,,
72_吕陶.json,铜梁,106.032665,29.812572,,,
72_吕陶.json,铜梁,106.032665,29.812572,,,
76_程颐.json,合川,106.27679,29.97288,,,
76_程颐.json,涪陵,107.38982,29.70315,,,
76_程颐.json,合川,106.27679,29.97288,,,
76_程颐.json,涪陵,107.38982,29.70315,,,
76_程颐.json,合川,106.27679,29.97288,,,
76_程颐.json,涪陵,107.38982,29.70315,,,
76_程颐.json,合川,106.27679,29.97288,,,
76_程颐.json,涪陵,107.38982,29.70315,,,
76_程颐.json,合川,106.27679,29.97288,,,
76_程颐.json,涪陵,107.38982,29.70315,,,
76_程颐.json,合川,106.27679,29.97288,,,
76_程颐.json,涪陵,107.38982,29.70315,,,
76_程颐.json,合川,106.27679,29.97288,,,
76_程颐.json,涪陵,107.38982,29.70315,,,
76_程颐.json,合川,106.27679,29.97288,,,
76_程颐.json,涪陵,107.38982,29.70315,,,
77_苏轼.json,重庆,106.55073,29.56471,,,
77_苏轼.json,涪陵,107.38982,29.70315,,,
77_苏轼.json,丰都,107.73085,29.86352,,,
77_苏轼.json,忠县,108.03767,30.30026,,,
77_苏轼.json,万州,108.40873,30.8079,,,
77_苏轼.json,奉节,109.46406,31.01846,,,
77_苏轼.json,巫山,109.8788,31.07462,,,
77_苏轼.json,云阳,108.69698,30.93063,,,
77_苏轼.json,丰都,107.73085,29.86352,,,
77_苏轼.json,重庆,106.55073,29.56471,,,
77_苏轼.json,青浦,121.12426,31.14979,,,
77_苏轼.json,陵水,110.0372,18.50596,,,
77_苏轼.json,澄迈,110.00487,19.73849,,,
77_苏轼.json,重庆,106.55073,29.56471,,,
77_苏轼.json,涪陵,107.38982,29.70315,,,
77_苏轼.json,丰都,107.73085,29.86352,,,
77_苏轼.json,忠县,108.03767,30.30026,,,
77_苏轼.json,万州,108.40873,30.8079,,,
77_苏轼.json,奉节,109.46406,31.01846,,,
77_苏轼.json,巫山,109.8788,31.07462,,,
77_苏轼.json,云阳,108.69698,30.93063,,,
77_苏轼.json,青浦,121.12426,31.14979,,,
77_苏轼.json,陵水,110.0372,18.50596,,,
77_苏轼.json,澄迈,110.00487,19.73849,,,
77_苏轼.json,白帝庙,109.574919,31.040505,,,
77_苏轼.json,神女庙,110.130787,31.203944,,,
77_苏轼.json,峻灵王庙,108.690936,19.315137,,,
77_苏轼.json,重庆,106.55073,29.56471,,,
77_苏轼.json,涪陵,107.38982,29.70315,,,
77_苏轼.json,丰都,107.73085,29.86352,,,
77_苏轼.json,忠县,108.03767,30.30026,,,
77_苏轼.json,万州,108.40873,30.8079,,,
77_苏轼.json,奉节,109.46406,31.01846,,,
77_苏轼.json,巫山,109.8788,31.07462,,,
77_苏轼.json,云阳,108.69698,30.93063,,,
77_苏轼.json,丰都,107.73085,29.86352,,,
77_苏轼.json,重庆,106.55073,29.56471,,,
77_苏轼.json,青浦,121.12426,31.14979,,,
77_苏轼.json,陵水,110.0372,18.50596,,,
77_苏轼.json,澄迈,110.00487,19.73849,,,
77_苏轼.json,重庆,106.55073,29.56471,,,
77_苏轼.json,涪陵,107.38982,29.70315,,,
77_苏轼.json,丰都,107.73085,29.86352,,,
77_苏轼.json,忠县,108.03767,30.30026,,,
77_苏轼.json,万州,108.40873,30.8079,,,
77_苏轼.json,奉节,109.46406,31.01846,,,
77_苏轼.json,巫山,109.8788,31.07462,,,
77_苏轼.json,云阳,108.69698,30.93063,,,
77_苏轼.json,青浦,121.12426,31.14979,,,
77_苏轼.json,陵水,110.0372,18.50596,,,
77_苏轼.json,澄迈,110.00487,19.73849,,,
77_苏轼.json,白帝庙,109.574919,31.040505,,,
77_苏轼.json,神女庙,110.130787,31.203944,,,
77_苏轼.json,峻灵王庙,108.690936,19.315137,,,
77_苏轼.json,重庆,106.55073,29.56471,,,
77_苏轼.json,涪陵,107.38982,29.70315,,,
77_苏轼.json,丰都,107.73085,29.86352,,,
77_苏轼.json,忠县,108.03767,30.30026,,,
77_苏轼.json,万州,108.40873,30.8079,,,
77_苏轼.json,奉节,109.46406,31.01846,,,
77_苏轼.json,巫山,109.8788,31.07462,,,
77_苏轼.json,云阳,108.69698,30.93063,,,
77_苏轼.json,丰都,107.73085,29.86352,,,
77_苏轼.json,重庆,106.55073,29.56471,,,
77_苏轼.json,青浦,121.12426,31.14979,,,
77_苏轼.json,陵水,110.0372,18.50596,,,
77_苏轼.json,澄迈,110.00487,19.73849,,,
77_苏轼.json,重庆,106.55073,29.56471,,,
77_苏轼.json,涪陵,107.38982,29.70315,,,
77_苏轼.json,丰都,107.73085,29.86352,,,
77_苏轼.json,忠县,108.03767,30.30026,,,
77_苏轼.json,万州,108.40873,30.8079,,,
77_苏轼.json,奉节,109.46406,31.01846,,,
77_苏轼.json,巫山,109.8788,31.07462,,,
77_苏轼.json,云阳,108.69698,30.93063,,,
77_苏轼.json,青浦,121.12426,31.14979,,,
77_苏轼.json,陵水,110.0372,18.50596,,,
77_苏轼.json,澄迈,110.00487,19.73849,,,
77_苏轼.json,白帝庙,109.574919,31.040505,,,
77_苏轼.json,神女庙,110.130787,31.203944,,,
77_苏轼.json,峻灵王庙,108.690936,19.315137,,,
77_苏轼.json,重庆,106.55073,29.56471,,,
77_苏轼.json,涪陵,107.38982,29.70315,,,
77_苏轼.json,丰都,107.73085,29.86352,,,
77_苏轼.json,忠县,108.03767,30.30026,,,
77_苏轼.json,万州,108.40873,30.8079,,,
77_苏轼.json,奉节,109.46406,31.01846,,,
77_苏轼.json,巫山,109.8788,31.07462,,,
77_苏轼.json,云阳,108.69698,30.93063,,,
77_苏轼.json,丰都,107.73085,29.86352,,,
77_苏轼.json,重庆,106.55073,29.56471,,,
77_苏轼.json,青浦,121.12426,31.14979,,,
77_苏轼.json,陵水,110.0372,18.50596,,,
77_苏轼.json,澄迈,110.00487,19.73849,,,
77_苏轼.json,重庆,106.55073,29.56471,,,
77_苏轼.json,涪陵,107.38982,29.70315,,,
77_苏轼.json,丰都,107.73085,29.86352,,,
77_苏轼.json,忠县,108.03767,30.30026,,,
77_苏轼.json,万州,108.40873,30.8079,,,
77_苏轼.json,奉节,109.46406,31.01846,,,
77_苏轼.json,巫山,109.8788,31.07462,,,
77_苏轼.json,云阳,108.69698,30.93063,,,
77_苏轼.json,青浦,121.12426,31.14979,,,
77_苏轼.json,陵水,110.0372,18.50596,,,
77_苏轼.json,澄迈,110.00487,19.73849,,,
77_苏轼.json,白帝庙,109.574919,31.040505,,,
77_苏轼.json,神女庙,110.130787,31.203944,,,
77_苏轼.json,峻灵王庙,108.690936,19.315137,,,
77_苏轼.json,重庆,106.55073,29.56471,,,
77_苏轼.json,涪陵,107.38982,29.70315,,,
77_苏轼.json,丰都,107.73085,29.86352,,,
77_苏轼.json,忠县,108.03767,30.30026,,,
77_苏轼.json,万州,108.40873,30.8079,,,
77_苏轼.json,奉节,109.46406,31.01846,,,
77_苏轼.json,巫山,109.8788,31.07462,,,
77_苏轼.json,云阳,108.69698,30.93063,,,
77_苏轼.json,丰都,107.73085,29.86352,,,
77_苏轼.json,重庆,106.55073,29.56471,,,
77_苏轼.json,青浦,121.12426,31.14979,,,
77_苏轼.json,陵水,110.0372,18.50596,,,
77_苏轼.json,澄迈,110.00487,19.73849,,,
77_苏轼.json,重庆,106.55073,29.56471,,,
77_苏轼.json,涪陵,107.38982,29.70315,,,
77_苏轼.json,丰都,107.73085,29.86352,,,
77_苏轼.json,忠县,108.03767,30.30026,,,
77_苏轼.json,万州,108.40873,30.8079,,,
77_苏轼.json,奉节,109.46406,31.01846,,,
77_苏轼.json,巫山,109.8788,31.07462,,,
77_苏轼.json,云阳,108.69698,30.93063,,,
77_苏轼.json,青浦,121.12426,31.14979,,,
77_苏轼.json,陵水,110.0372,18.50596,,,
77_苏轼.json,澄迈,110.00487,19.73849,,,
77_苏轼.json,白帝庙,109.574919,31.040505,,,
77_苏轼.json,神女庙,110.130787,31.203944,,,
77_苏轼.json,峻灵王庙,108.690936,19.315137,,,
77_苏轼.json,重庆,106.55073,29.56471,,,
77_苏轼.json,涪陵,107.38982,29.70315,,,
77_苏轼.json,丰都,107.73085,29.86352,,,
77_苏轼.json,忠县,108.03767,30.30026,,,
77_苏轼.json,万州,108.40873,30.8079,,,
77_苏轼.json,奉节,109.46406,31.01846,,,
77_苏轼.json,巫山,109.8788,31.07462,,,
77_苏轼.json,云阳,108.69698,30.93063,,,
77_苏轼.json,丰都,107.73085,29.86352,,,
77_苏轼.json,重庆,106.55073,29.56471,,,
77_苏轼.json,青浦,121.12426,31.14979,,,
77_苏轼.json,陵水,110.0372,18.50596,,,
77_苏轼.json,澄迈,110.00487,19.73849,,,
77_苏轼.json,重庆,106.55073,29.56471,,,
77_苏轼.json,涪陵,107.38982,29.70315,,,
77_苏轼.json,丰都,107.73085,29.86352,,,
77_苏轼.json,忠县,108.03767,30.30026,,,
77_苏轼.json,万州,108.40873,30.8079,,,
77_苏轼.json,奉节,109.46406,31.01846,,,
77_苏轼.json,巫山,109.8788,31.07462,,,
77_苏轼.json,云阳,108.69698,30.93063,,,
77_苏轼.json,青浦,121.12426,31.14979,,,
77_苏轼.json,陵水,110.0372,18.50596,,,
77_苏轼.json,澄迈,110.00487,19.73849,,,
77_苏轼.json,白帝庙,109.574919,31.040505,,,
77_苏轼.json,神女庙,110.130787,31.203944,,,
77_苏轼.json,峻灵王庙,108.690936,19.315137,,,
77_苏轼.json,重庆,106.55073,29.56471,,,
77_苏轼.json,涪陵,107.38982,29.70315,,,
77_苏轼.json,丰都,107.73085,29.86352,,,
77_苏轼.json,忠县,108.03767,30.30026,,,
77_苏轼.json,万州,108.40873,30.8079,,,
77_苏轼.json,奉节,109.46406,31.01846,,,
77_苏轼.json,巫山,109.8788,31.07462,,,
77_苏轼.json,云阳,108.69698,30.93063,,,
77_苏轼.json,丰都,107.73085,29.86352,,,
77_苏轼.json,重庆,106.55073,29.56471,,,
77_苏轼.json,青浦,121.12426,31.14979,,,
77_苏轼.json,陵水,110.0372,18.50596,,,
77_苏轼.json,澄迈,110.00487,19.73849,,,
77_苏轼.json,重庆,106.55073,29.56471,,,
77_苏轼.json,涪陵,107.38982,29.70315,,,
77_苏轼.json,丰都,107.73085,29.86352,,,
77_苏轼.json,忠县,108.03767,30.30026,,,
77_苏轼.json,万州,108.40873,30.8079,,,
77_苏轼.json,奉节,109.46406,31.01846,,,
77_苏轼.json,巫山,109.8788,31.07462,,,
77_苏轼.json,云阳,108.69698,30.93063,,,
77_苏轼.json,青浦,121.12426,31.14979,,,
77_苏轼.json,陵水,110.0372,18.50596,,,
77_苏轼.json,澄迈,110.00487,19.73849,,,
77_苏轼.json,白帝庙,109.574919,31.040505,,,
77_苏轼.json,神女庙,110.130787,31.203944,,,
77_苏轼.json,峻灵王庙,108.690936,19.315137,,,
77_苏轼.json,重庆,106.55073,29.56471,,,
77_苏轼.json,涪陵,107.38982,29.70315,,,
77_苏轼.json,丰都,107.73085,29.86352,,,
77_苏轼.json,忠县,108.03767,30.30026,,,
77_苏轼.json,万州,108.40873,30.8079,,,
77_苏轼.json,奉节,109.46406,31.01846,,,
77_苏轼.json,巫山,109.8788,31.07462,,,
77_苏轼.json,云阳,108.69698,30.93063,,,
77_苏轼.json,丰都,107.73085,29.86352,,,
77_苏轼.json,重庆,106.55073,29.56471,,,
77_苏轼.json,青浦,121.12426,31.14979,,,
77_苏轼.json,陵水,110.0372,18.50596,,,
77_苏轼.json,澄迈,110.00487,19.73849,,,
77_苏轼.json,重庆,106.55073,29.56471,,,
77_苏轼.json,涪陵,107.38982,29.70315,,,
77_苏轼.json,丰都,107.73085,29.86352,,,
77_苏轼.json,忠县,108.03767,30.30026,,,
77_苏轼.json,万州,108.40873,30.8079,,,
77_苏轼.json,奉节,109.46406,31.01846,,,
77_苏轼.json,巫山,109.8788,31.07462,,,
77_苏轼.json,云阳,108.69698,30.93063,,,
77_苏轼.json,青浦,121.12426,31.14979,,,
77_苏轼.json,陵水,110.0372,18.50596,,,
77_苏轼.json,澄迈,110.00487,19.73849,,,
77_苏轼.json,白帝庙,109.574919,31.040505,,,
77_苏轼.json,神女庙,110.130787,31.203944,,,
77_苏轼.json,峻灵王庙,108.690936,19.315137,,,
77_苏轼.json,重庆,106.55073,29.56471,,,
77_苏轼.json,涪陵,107.38982,29.70315,,,
77_苏轼.json,丰都,107.73085,29.86352,,,
77_苏轼.json,忠县,108.03767,30.30026,,,
77_苏轼.json,万州,108.40873,30.8079,,,
77_苏轼.json,奉节,109.46406,31.01846,,,
77_苏轼.json,巫山,109.8788,31.07462,,,
77_苏轼.json,云阳,108.69698,30.93063,,,
77_苏轼.json,丰都,107.73085,29.86352,,,
77_苏轼.json,重庆,106.55073,29.56471,,,
77_苏轼.json,青浦,121.12426,31.14979,,,
77_苏轼.json,陵水,110.0372,18.50596,,,
77_苏轼.json,澄迈,110.00487,19.73849,,,
77_苏轼.json,重庆,106.55073,29.56471,,,
77_苏轼.json,涪陵,107.38982,29.70315,,,
77_苏轼.json,丰都,107.73085,29.86352,,,
77_苏轼.json,忠县,108.03767,30.30026,,,
77_苏轼.json,万州,108.40873,30.8079,,,
77_苏轼.json,奉节,109.46406,31.01846,,,
77_苏轼.json,巫山,109.8788,31.07462,,,
77_苏轼.json,云阳,108.69698,30.93063,,,
77_苏轼.json,青浦,121.12426,31.14979,,,
77_苏轼.json,陵水,110.0372,18.50596,,,
77_苏轼.json,澄迈,110.00487,19.73849,,,
77_苏轼.json,白帝庙,109.574919,31.040505,,,
77_苏轼.json,神女庙,110.130787,31.203944,,,
77_苏轼.json,峻灵王庙,108.690936,19.315137,,,
77_苏轼.json,重庆,106.55073,29.56471,,,
77_苏轼.json,涪陵,107.38982,29.70315,,,
77_苏轼.json,丰都,107.73085,29.86352,,,
77_苏轼.json,忠县,108.03767,30.30026,,,
77_苏轼.json,万州,108.40873,30.8079,,,
77_苏轼.json,奉节,109.46406,31.01846,,,
77_苏轼.json,巫山,109.8788,31.07462,,,
77_苏轼.json,云阳,108.69698,30.93063,,,
77_苏轼.json,丰都,107.73085,29.86352,,,
77_苏轼.json,重庆,106.55073,29.56471,,,
77_苏轼.json,青浦,121.12426,31.14979,,,
77_苏轼.json,陵水,110.0372,18.50596,,,
77_苏轼.json,澄迈,110.00487,19.73849,,,
77_苏轼.json,重庆,106.55073,29.56471,,,
77_苏轼.json,涪陵,107.38982,29.70315,,,
77_苏轼.json,丰都,107.73085,29.86352,,,
77_苏轼.json,忠县,108.03767,30.30026,,,
77_苏轼.json,万州,108.40873,30.8079,,,
77_苏轼.json,奉节,109.46406,31.01846,,,
77_苏轼.json,巫山,109.8788,31.07462,,,
77_苏轼.json,云阳,108.69698,30.93063,,,
77_苏轼.json,青浦,121.12426,31.14979,,,
77_苏轼.json,陵水,110.0372,18.50596,,,
77_苏轼.json,澄迈,110.00487,19.73849,,,
77_苏轼.json,白帝庙,109.574919,31.040505,,,
77_苏轼.json,神女庙,110.130787,31.203944,,,
77_苏轼.json,峻灵王庙,108.690936,19.315137,,,
77_苏轼.json,重庆,106.55073,29.56471,,,
77_苏轼.json,涪陵,107.38982,29.70315,,,
77_苏轼.json,丰都,107.73085,29.86352,,,
77_苏轼.json,忠县,108.03767,30.30026,,,
77_苏轼.json,万州,108.40873,30.8079,,,
77_苏轼.json,奉节,109.46406,31.01846,,,
77_苏轼.json,巫山,109.8788,31.07462,,,
77_苏轼.json,云阳,108.69698,30.93063,,,
77_苏轼.json,丰都,107.73085,29.86352,,,
77_苏轼.json,重庆,106.55073,29.56471,,,
77_苏轼.json,青浦,121.12426,31.14979,,,
77_苏轼.json,陵水,110.0372,18.50596,,,
77_苏轼.json,澄迈,110.00487,19.73849,,,
77_苏轼.json,重庆,106.55073,29.56471,,,
77_苏轼.json,涪陵,107.38982,29.70315,,,
77_苏轼.json,丰都,107.73085,29.86352,,,
77_苏轼.json,忠县,108.03767,30.30026,,,
77_苏轼.json,万州,108.40873,30.8079,,,
77_苏轼.json,奉节,109.46406,31.01846,,,
77_苏轼.json,巫山,109.8788,31.07462,,,
77_苏轼.json,云阳,108.69698,30.93063,,,
77_苏轼.json,青浦,121.12426,31.14979,,,
77_苏轼.json,陵水,110.0372,18.50596,,,
77_苏轼.json,澄迈,110.00487,19.73849,,,
77_苏轼.json,白帝庙,109.574919,31.040505,,,
77_苏轼.json,神女庙,110.130787,31.203944,,,
77_苏轼.json,峻灵王庙,108.690936,19.315137,,,
77_苏轼.json,重庆,106.55073,29.56471,,,
77_苏轼.json,涪陵,107.38982,29.70315,,,
77_苏轼.json,丰都,107.73085,29.86352,,,
77_苏轼.json,忠县,108.03767,30.30026,,,
77_苏轼.json,万州,108.40873,30.8079,,,
77_苏轼.json,奉节,109.46406,31.01846,,,
77_苏轼.json,巫山,109.8788,31.07462,,,
77_苏轼.json,云阳,108.69698,30.93063,,,
77_苏轼.json,丰都,107.73085,29.86352,,,
77_苏轼.json,重庆,106.55073,29.56471,,,
77_苏轼.json,青浦,121.12426,31.14979,,,
77_苏轼.json,陵水,110.0372,18.50596,,,
77_苏轼.json,澄迈,110.00487,19.73849,,,
77_苏轼.json,重庆,106.55073,29.56471,,,
77_苏轼.json,涪陵,107.38982,29.70315,,,
77_苏轼.json,丰都,107.73085,29.86352,,,
77_苏轼.json,忠县,108.03767,30.30026,,,
77_苏轼.json,万州,108.40873,30.8079,,,
77_苏轼.json,奉节,109.46406,31.01846,,,
77_苏轼.json,巫山,109.8788,31.07462,,,
77_苏轼.json,云阳,108.69698,30.93063,,,
77_苏轼.json,青浦,121.12426,31.14979,,,
77_苏轼.json,陵水,110.0372,18.50596,,,
77_苏轼.json,澄迈,110.00487,19.73849,,,
77_苏轼.json,白帝庙,109.574919,31.040505,,,
77_苏轼.json,神女庙,110.130787,31.203944,,,
77_苏轼.json,峻灵王庙,108.690936,19.315137,,,
77_苏轼.json,重庆,106.55073,29.56471,,,
77_苏轼.json,涪陵,107.38982,29.70315,,,
77_苏轼.json,丰都,107.73085,29.86352,,,
77_苏轼.json,忠县,108.03767,30.30026,,,
77_苏轼.json,万州,108.40873,30.8079,,,
77_苏轼.json,奉节,109.46406,31.01846,,,
77_苏轼.json,巫山,109.8788,31.07462,,,
77_苏轼.json,云阳,108.69698,30.93063,,,
77_苏轼.json,丰都,107.73085,29.86352,,,
77_苏轼.json,重庆,106.55073,29.56471,,,
77_苏轼.json,青浦,121.12426,31.14979,,,
77_苏轼.json,陵水,110.0372,18.50596,,,
77_苏轼.json,澄迈,110.00487,19.73849,,,
77_苏轼.json,重庆,106.55073,29.56471,,,
77_苏轼.json,涪陵,107.38982,29.70315,,,
77_苏轼.json,丰都,107.73085,29.86352,,,
77_苏轼.json,忠县,108.03767,30.30026,,,
77_苏轼.json,万州,108.40873,30.8079,,,
77_苏轼.json,奉节,109.46406,31.01846,,,
77_苏轼.json,巫山,109.8788,31.07462,,,
77_苏轼.json,云阳,108.69698,30.93063,,,
77_苏轼.json,青浦,121.12426,31.14979,,,
77_苏轼.json,陵水,110.0372,18.50596,,,
77_苏轼.json,澄迈,110.00487,19.73849,,,
77_苏轼.json,白帝庙,109.574919,31.040505,,,
77_苏轼.json,神女庙,110.130787,31.203944,,,
77_苏轼.json,峻灵王庙,108.690936,19.315137,,,
77_苏轼.json,重庆,106.55073,29.56471,,,
77_苏轼.json,涪陵,107.38982,29.70315,,,
77_苏轼.json,丰都,107.73085,29.86352,,,
77_苏轼.json,忠县,108.03767,30.30026,,,
77_苏轼.json,万州,108.40873,30.8079,,,
77_苏轼.json,奉节,109.46406,31.01846,,,
77_苏轼.json,巫山,109.8788,31.07462,,,
77_苏轼.json,云阳,108.69698,30.93063,,,
77_苏轼.json,丰都,107.73085,29.86352,,,
77_苏轼.json,重庆,106.55073,29.56471,,,
77_苏轼.json,青浦,121.12426,31.14979,,,
77_苏轼.json,陵水,110.0372,18.50596,,,
77_苏轼.json,澄迈,110.00487,19.73849,,,
77_苏轼.json,重庆,106.55073,29.56471,,,
77_苏轼.json,涪陵,107.38982,29.70315,,,
77_苏轼.json,丰都,107.73085,29.86352,,,
77_苏轼.json,忠县,108.03767,30.30026,,,
77_苏轼.json,万州,108.40873,30.8079,,,
77_苏轼.json,奉节,109.46406,31.01846,,,
77_苏轼.json,巫山,109.8788,31.07462,,,
77_苏轼.json,云阳,108.69698,30.93063,,,
77_苏轼.json,青浦,121.12426,31.14979,,,
77_苏轼.json,陵水,110.0372,18.50596,,,
77_苏轼.json,澄迈,110.00487,19.73849,,,
77_苏轼.json,白帝庙,109.574919,31.040505,,,
77_苏轼.json,神女庙,110.130787,31.203944,,,
77_苏轼.json,峻灵王庙,108.690936,19.315137,,,
77_苏轼.json,重庆,106.55073,29.56471,,,
77_苏轼.json,涪陵,107.38982,29.70315,,,
77_苏轼.json,丰都,107.73085,29.86352,,,
77_苏轼.json,忠县,108.03767,30.30026,,,
77_苏轼.json,万州,108.40873,30.8079,,,
77_苏轼.json,奉节,109.46406,31.01846,,,
77_苏轼.json,巫山,109.8788,31.07462,,,
77_苏轼.json,云阳,108.69698,30.93063,,,
77_苏轼.json,丰都,107.73085,29.86352,,,
77_苏轼.json,重庆,106.55073,29.56471,,,
77_苏轼.json,青浦,121.12426,31.14979,,,
77_苏轼.json,陵水,110.0372,18.50596,,,
77_苏轼.json,澄迈,110.00487,19.73849,,,
77_苏轼.json,重庆,106.55073,29.56471,,,
77_苏轼.json,涪陵,107.38982,29.70315,,,
77_苏轼.json,丰都,107.73085,29.86352,,,
77_苏轼.json,忠县,108.03767,30.30026,,,
77_苏轼.json,万州,108.40873,30.8079,,,
77_苏轼.json,奉节,109.46406,31.01846,,,
77_苏轼.json,巫山,109.8788,31.07462,,,
77_苏轼.json,云阳,108.69698,30.93063,,,
77_苏轼.json,青浦,121.12426,31.14979,,,
77_苏轼.json,陵水,110.0372,18.50596,,,
77_苏轼.json,澄迈,110.00487,19.73849,,,
77_苏轼.json,白帝庙,109.574919,31.040505,,,
77_苏轼.json,神女庙,110.130787,31.203944,,,
77_苏轼.json,峻灵王庙,108.690936,19.315137,,,
77_苏轼.json,重庆,106.55073,29.56471,,,
77_苏轼.json,涪陵,107.38982,29.70315,,,
77_苏轼.json,丰都,107.73085,29.86352,,,
77_苏轼.json,忠县,108.03767,30.30026,,,
77_苏轼.json,万州,108.40873,30.8079,,,
77_苏轼.json,奉节,109.46406,31.01846,,,
77_苏轼.json,巫山,109.8788,31.07462,,,
77_苏轼.json,云阳,108.69698,30.93063,,,
77_苏轼.json,丰都,107.73085,29.86352,,,
77_苏轼.json,重庆,106.55073,29.56471,,,
77_苏轼.json,青浦,121.12426,31.14979,,,
77_苏轼.json,陵水,110.0372,18.50596,,,
77_苏轼.json,澄迈,110.00487,19.73849,,,
77_苏轼.json,重庆,106.55073,29.56471,,,
77_苏轼.json,涪陵,107.38982,29.70315,,,
77_苏轼.json,丰都,107.73085,29.86352,,,
77_苏轼.json,忠县,108.03767,30.30026,,,
77_苏轼.json,万州,108.40873,30.8079,,,
77_苏轼.json,奉节,109.46406,31.01846,,,
77_苏轼.json,巫山,109.8788,31.07462,,,
77_苏轼.json,云阳,108.69698,30.93063,,,
77_苏轼.json,青浦,121.12426,31.14979,,,
77_苏轼.json,陵水,110.0372,18.50596,,,
77_苏轼.json,澄迈,110.00487,19.73849,,,
77_苏轼.json,白帝庙,109.574919,31.040505,,,
77_苏轼.json,神女庙,110.130787,31.203944,,,
77_苏轼.json,峻灵王庙,108.690936,19.315137,,,
77_苏轼.json,重庆,106.55073,29.56471,,,
77_苏轼.json,涪陵,107.38982,29.70315,,,
77_苏轼.json,丰都,107.73085,29.86352,,,
77_苏轼.json,忠县,108.03767,30.30026,,,
77_苏轼.json,万州,108.40873,30.8079,,,
77_苏轼.json,奉节,109.46406,31.01846,,,
77_苏轼.json,巫山,109.8788,31.07462,,,
77_苏轼.json,云阳,108.69698,30.93063,,,
77_苏轼.json,丰都,107.73085,29.86352,,,
77_苏轼.json,重庆,106.55073,29.56471,,,
77_苏轼.json,青浦,121.12426,31.14979,,,
77_苏轼.json,陵水,110.0372,18.50596,,,
77_苏轼.json,澄迈,110.00487,19.73849,,,
77_苏轼.json,重庆,106.55073,29.56471,,,
77_苏轼.json,涪陵,107.38982,29.70315,,,
77_苏轼.json,丰都,107.73085,29.86352,,,
77_苏轼.json,忠县,108.03767,30.30026,,,
77_苏轼.json,万州,108.40873,30.8079,,,
77_苏轼.json,奉节,109.46406,31.01846,,,
77_苏轼.json,巫山,109.8788,31.07462,,,
77_苏轼.json,云阳,108.69698,30.93063,,,
77_苏轼.json,青浦,121.12426,31.14979,,,
77_苏轼.json,陵水,110.0372,18.50596,,,
77_苏轼.json,澄迈,110.00487,19.73849,,,
77_苏轼.json,白帝庙,109.574919,31.040505,,,
77_苏轼.json,神女庙,110.130787,31.203944,,,
77_苏轼.json,峻灵王庙,108.690936,19.315137,,,
77_苏轼.json,重庆,106.55073,29.56471,,,
77_苏轼.json,涪陵,107.38982,29.70315,,,
77_苏轼.json,丰都,107.73085,29.86352,,,
77_苏轼.json,忠县,108.03767,30.30026,,,
77_苏轼.json,万州,108.40873,30.8079,,,
77_苏轼.json,奉节,109.46406,31.01846,,,
77_苏轼.json,巫山,109.8788,31.07462,,,
77_苏轼.json,云阳,108.69698,30.93063,,,
77_苏轼.json,丰都,107.73085,29.86352,,,
77_苏轼.json,重庆,106.55073,29.56471,,,
77_苏轼.json,青浦,121.12426,31.14979,,,
77_苏轼.json,陵水,110.0372,18.50596,,,
77_苏轼.json,澄迈,110.00487,19.73849,,,
77_苏轼.json,重庆,106.55073,29.56471,,,
77_苏轼.json,涪陵,107.38982,29.70315,,,
77_苏轼.json,丰都,107.73085,29.86352,,,
77_苏轼.json,忠县,108.03767,30.30026,,,
77_苏轼.json,万州,108.40873,30.8079,,,
77_苏轼.json,奉节,109.46406,31.01846,,,
77_苏轼.json,巫山,109.8788,31.07462,,,
77_苏轼.json,云阳,108.69698,30.93063,,,
77_苏轼.json,青浦,121.12426,31.14979,,,
77_苏轼.json,陵水,110.0372,18.50596,,,
77_苏轼.json,澄迈,110.00487,19.73849,,,
77_苏轼.json,白帝庙,109.574919,31.040505,,,
77_苏轼.json,神女庙,110.130787,31.203944,,,
77_苏轼.json,峻灵王庙,108.690936,19.315137,,,
77_苏轼.json,重庆,106.55073,29.56471,,,
77_苏轼.json,涪陵,107.38982,29.70315,,,
77_苏轼.json,丰都,107.73085,29.86352,,,
77_苏轼.json,忠县,108.03767,30.30026,,,
77_苏轼.json,万州,108.40873,30.8079,,,
77_苏轼.json,奉节,109.46406,31.01846,,,
77_苏轼.json,巫山,109.8788,31.07462,,,
77_苏轼.json,云阳,108.69698,30.93063,,,
77_苏轼.json,丰都,107.73085,29.86352,,,
77_苏轼.json,重庆,106.55073,29.56471,,,
77_苏轼.json,青浦,121.12426,31.14979,,,
77_苏轼.json,陵水,110.0372,18.50596,,,
77_苏轼.json,澄迈,110.00487,19.73849,,,
77_苏轼.json,重庆,106.55073,29.56471,,,
77_苏轼.json,涪陵,107.38982,29.70315,,,
77_苏轼.json,丰都,107.73085,29.86352,,,
77_苏轼.json,忠县,108.03767,30.30026,,,
77_苏轼.json,万州,108.40873,30.8079,,,
77_苏轼.json,奉节,109.46406,31.01846,,,
77_苏轼.json,巫山,109.8788,31.07462,,,
77_苏轼.json,云阳,108.69698,30.93063,,,
77_苏轼.json,青浦,121.12426,31.14979,,,
77_苏轼.json,陵水,110.0372,18.50596,,,
77_苏轼.json,澄迈,110.00487,19.73849,,,
77_苏轼.json,白帝庙,109.574919,31.040505,,,
77_苏轼.json,神女庙,110.130787,31.203944,,,
77_苏轼.json,峻灵王庙,108.690936,19.315137,,,
77_苏轼.json,重庆,106.55073,29.56471,,,
77_苏轼.json,涪陵,107.38982,29.70315,,,
77_苏轼.json,丰都,107.73085,29.86352,,,
77_苏轼.json,忠县,108.03767,30.30026,,,
77_苏轼.json,万州,108.40873,30.8079,,,
77_苏轼.json,奉节,109.46406,31.01846,,,
77_苏轼.json,巫山,109.8788,31.07462,,,
77_苏轼.json,云阳,108.69698,30.93063,,,
77_苏轼.json,丰都,107.73085,29.86352,,,
77_苏轼.json,重庆,106.55073,29.56471,,,
77_苏轼.json,青浦,121.12426,31.14979,,,
77_苏轼.json,陵水,110.0372,18.50596,,,
77_苏轼.json,澄迈,110.00487,19.73849,,,
77_苏轼.json,重庆,106.55073,29.56471,,,
77_苏轼.json,涪陵,107.38982,29.70315,,,
77_苏轼.json,丰都,107.73085,29.86352,,,
77_苏轼.json,忠县,108.03767,30.30026,,,
77_苏轼.json,万州,108.40873,30.8079,,,
77_苏轼.json,奉节,109.46406,31.01846,,,
77_苏轼.json,巫山,109.8788,31.07462,,,
77_苏轼.json,云阳,108.69698,30.93063,,,
77_苏轼.json,青浦,121.12426,31.14979,,,
77_苏轼.json,陵水,110.0372,18.50596,,,
77_苏轼.json,澄迈,110.00487,19.73849,,,
77_苏轼.json,白帝庙,109.574919,31.040505,,,
77_苏轼.json,神女庙,110.130787,31.203944,,,
77_苏轼.json,峻灵王庙,108.690936,19.315137,,,
77_苏轼.json,重庆,106.55073,29.56471,,,
77_苏轼.json,涪陵,107.38982,29.70315,,,
77_苏轼.json,丰都,107.73085,29.86352,,,
77_苏轼.json,忠县,108.03767,30.30026,,,
77_苏轼.json,万州,108.40873,30.8079,,,
77_苏轼.json,奉节,109.46406,31.01846,,,
77_苏轼.json,巫山,109.8788,31.07462,,,
77_苏轼.json,云阳,108.69698,30.93063,,,
77_苏轼.json,丰都,107.73085,29.86352,,,
77_苏轼.json,重庆,106.55073,29.56471,,,
77_苏轼.json,青浦,121.12426,31.14979,,,
77_苏轼.json,陵水,110.0372,18.50596,,,
77_苏轼.json,澄迈,110.00487,19.73849,,,
77_苏轼.json,重庆,106.55073,29.56471,,,
77_苏轼.json,涪陵,107.38982,29.70315,,,
77_苏轼.json,丰都,107.73085,29.86352,,,
77_苏轼.json,忠县,108.03767,30.30026,,,
77_苏轼.json,万州,108.40873,30.8079,,,
77_苏轼.json,奉节,109.46406,31.01846,,,
77_苏轼.json,巫山,109.8788,31.07462,,,
77_苏轼.json,云阳,108.69698,30.93063,,,
77_苏轼.json,青浦,121.12426,31.14979,,,
77_苏轼.json,陵水,110.0372,18.50596,,,
77_苏轼.json,澄迈,110.00487,19.73849,,,
77_苏轼.json,白帝庙,109.574919,31.040505,,,
77_苏轼.json,神女庙,110.130787,31.203944,,,
77_苏轼.json,峻灵王庙,108.690936,19.315137,,,
77_苏轼.json,重庆,106.55073,29.56471,,,
77_苏轼.json,涪陵,107.38982,29.70315,,,
77_苏轼.json,丰都,107.73085,29.86352,,,
77_苏轼.json,忠县,108.03767,30.30026,,,
77_苏轼.json,万州,108.40873,30.8079,,,
77_苏轼.json,奉节,109.46406,31.01846,,,
77_苏轼.json,巫山,109.8788,31.07462,,,
77_苏轼.json,云阳,108.69698,30.93063,,,
77_苏轼.json,丰都,107.73085,29.86352,,,
77_苏轼.json,重庆,106.55073,29.56471,,,
77_苏轼.json,青浦,121.12426,31.14979,,,
77_苏轼.json,陵水,110.0372,18.50596,,,
77_苏轼.json,澄迈,110.00487,19.73849,,,
77_苏轼.json,重庆,106.55073,29.56471,,,
77_苏轼.json,涪陵,107.38982,29.70315,,,
77_苏轼.json,丰都,107.73085,29.86352,,,
77_苏轼.json,忠县,108.03767,30.30026,,,
77_苏轼.json,万州,108.40873,30.8079,,,
77_苏轼.json,奉节,109.46406,31.01846,,,
77_苏轼.json,巫山,109.8788,31.07462,,,
77_苏轼.json,云阳,108.69698,30.93063,,,
77_苏轼.json,青浦,121.12426,31.14979,,,
77_苏轼.json,陵水,110.0372,18.50596,,,
77_苏轼.json,澄迈,110.00487,19.73849,,,
77_苏轼.json,白帝庙,109.574919,31.040505,,,
77_苏轼.json,神女庙,110.130787,31.203944,,,
77_苏轼.json,峻灵王庙,108.690936,19.315137,,,
77_苏轼.json,重庆,106.55073,29.56471,,,
77_苏轼.json,涪陵,107.38982,29.70315,,,
77_苏轼.json,丰都,107.73085,29.86352,,,
77_苏轼.json,忠县,108.03767,30.30026,,,
77_苏轼.json,万州,108.40873,30.8079,,,
77_苏轼.json,奉节,109.46406,31.01846,,,
77_苏轼.json,巫山,109.8788,31.07462,,,
77_苏轼.json,云阳,108.69698,30.93063,,,
77_苏轼.json,丰都,107.73085,29.86352,,,
77_苏轼.json,重庆,106.55073,29.56471,,,
77_苏轼.json,青浦,121.12426,31.14979,,,
77_苏轼.json,陵水,110.0372,18.50596,,,
77_苏轼.json,澄迈,110.00487,19.73849,,,
77_苏轼.json,重庆,106.55073,29.56471,,,
77_苏轼.json,涪陵,107.38982,29.70315,,,
77_苏轼.json,丰都,107.73085,29.86352,,,
77_苏轼.json,忠县,108.03767,30.30026,,,
77_苏轼.json,万州,108.40873,30.8079,,,
77_苏轼.json,奉节,109.46406,31.01846,,,
77_苏轼.json,巫山,109.8788,31.07462,,,
77_苏轼.json,云阳,108.69698,30.93063,,,
77_苏轼.json,青浦,121.12426,31.14979,,,
77_苏轼.json,陵水,110.0372,18.50596,,,
77_苏轼.json,澄迈,110.00487,19.73849,,,
77_苏轼.json,白帝庙,109.574919,31.040505,,,
77_苏轼.json,神女庙,110.130787,31.203944,,,
77_苏轼.json,峻灵王庙,108.690936,19.315137,,,
77_苏轼.json,重庆,106.55073,29.56471,,,
77_苏轼.json,涪陵,107.38982,29.70315,,,
77_苏轼.json,丰都,107.73085,29.86352,,,
77_苏轼.json,忠县,108.03767,30.30026,,,
77_苏轼.json,万州,108.40873,30.8079,,,
77_苏轼.json,奉节,109.46406,31.01846,,,
77_苏轼.json,巫山,109.8788,31.07462,,,
77_苏轼.json,云阳,108.69698,30.93063,,,
77_苏轼.json,丰都,107.73085,29.86352,,,
77_苏轼.json,重庆,106.55073,29.56471,,,
77_苏轼.json,青浦,121.12426,31.14979,,,
77_苏轼.json,陵水,110.0372,18.50596,,,
77_苏轼.json,澄迈,110.00487,19.73849,,,
77_苏轼.json,重庆,106.55073,29.56471,,,
77_苏轼.json,涪陵,107.38982,29.70315,,,
77_苏轼.json,丰都,107.73085,29.86352,,,
77_苏轼.json,忠县,108.03767,30.30026,,,
77_苏轼.json,万州,108.40873,30.8079,,,
77_苏轼.json,奉节,109.46406,31.01846,,,
77_苏轼.json,巫山,109.8788,31.07462,,,
77_苏轼.json,云阳,108.69698,30.93063,,,
77_苏轼.json,青浦,121.12426,31.14979,,,
77_苏轼.json,陵水,110.0372,18.50596,,,
77_苏轼.json,澄迈,110.00487,19.73849,,,
77_苏轼.json,白帝庙,109.574919,31.040505,,,
77_苏轼.json,神女庙,110.130787,31.203944,,,
77_苏轼.json,峻灵王庙,108.690936,19.315137,,,
77_苏轼.json,重庆,106.55073,29.56471,,,
77_苏轼.json,涪陵,107.38982,29.70315,,,
77_苏轼.json,丰都,107.73085,29.86352,,,
77_苏轼.json,忠县,108.03767,30.30026,,,
77_苏轼.json,万州,108.40873,30.8079,,,
77_苏轼.json,奉节,109.46406,31.01846,,,
77_苏轼.json,巫山,109.8788,31.07462,,,
77_苏轼.json,云阳,108.69698,30.93063,,,
77_苏轼.json,丰都,107.73085,29.86352,,,
77_苏轼.json,重庆,106.55073,29.56471,,,
77_苏轼.json,青浦,121.12426,31.14979,,,
77_苏轼.json,陵水,110.0372,18.50596,,,
77_苏轼.json,澄迈,110.00487,19.73849,,,
77_苏轼.json,重庆,106.55073,29.56471,,,
77_苏轼.json,涪陵,107.38982,29.70315,,,
77_苏轼.json,丰都,107.73085,29.86352,,,
77_苏轼.json,忠县,108.03767,30.30026,,,
77_苏轼.json,万州,108.40873,30.8079,,,
77_苏轼.json,奉节,109.46406,31.01846,,,
77_苏轼.json,巫山,109.8788,31.07462,,,
77_苏轼.json,云阳,108.69698,30.93063,,,
77_苏轼.json,青浦,121.12426,31.14979,,,
77_苏轼.json,陵水,110.0372,18.50596,,,
77_苏轼.json,澄迈,110.00487,19.73849,,,
77_苏轼.json,白帝庙,109.574919,31.040505,,,
77_苏轼.json,神女庙,110.130787,31.203944,,,
77_苏轼.json,峻灵王庙,108.690936,19.315137,,,
77_苏轼.json,重庆,106.55073,29.56471,,,
77_苏轼.json,涪陵,107.38982,29.70315,,,
77_苏轼.json,丰都,107.73085,29.86352,,,
77_苏轼.json,忠县,108.03767,30.30026,,,
77_苏轼.json,万州,108.40873,30.8079,,,
77_苏轼.json,奉节,109.46406,31.01846,,,
77_苏轼.json,巫山,109.8788,31.07462,,,
77_苏轼.json,云阳,108.69698,30.93063,,,
77_苏轼.json,丰都,107.73085,29.86352,,,
77_苏轼.json,重庆,106.55073,29.56471,,,
77_苏轼.json,青浦,121.12426,31.14979,,,
77_苏轼.json,陵水,110.0372,18.50596,,,
77_苏轼.json,澄迈,110.00487,19.73849,,,
77_苏轼.json,重庆,106.55073,29.56471,,,
77_苏轼.json,涪陵,107.38982,29.70315,,,
77_苏轼.json,丰都,107.73085,29.86352,,,
77_苏轼.json,忠县,108.03767,30.30026,,,
77_苏轼.json,万州,108.40873,30.8079,,,
77_苏轼.json,奉节,109.46406,31.01846,,,
77_苏轼.json,巫山,109.8788,31.07462,,,
77_苏轼.json,云阳,108.69698,30.93063,,,
77_苏轼.json,青浦,121.12426,31.14979,,,
77_苏轼.json,陵水,110.0372,18.50596,,,
77_苏轼.json,澄迈,110.00487,19.73849,,,
77_苏轼.json,白帝庙,109.574919,31.040505,,,
77_苏轼.json,神女庙,110.130787,31.203944,,,
77_苏轼.json,峻灵王庙,108.690936,19.315137,,,
77_苏轼.json,重庆,106.55073,29.56471,,,
77_苏轼.json,涪陵,107.38982,29.70315,,,
77_苏轼.json,丰都,107.73085,29.86352,,,
77_苏轼.json,忠县,108.03767,30.30026,,,
77_苏轼.json,万州,108.40873,30.8079,,,
77_苏轼.json,奉节,109.46406,31.01846,,,
77_苏轼.json,巫山,109.8788,31.07462,,,
77_苏轼.json,云阳,108.69698,30.93063,,,
77_苏轼.json,丰都,107.73085,29.86352,,,
77_苏轼.json,重庆,106.55073,29.56471,,,
77_苏轼.json,青浦,121.12426,31.14979,,,
77_苏轼.json,陵水,110.0372,18.50596,,,
77_苏轼.json,澄迈,110.00487,19.73849,,,
77_苏轼.json,重庆,106.55073,29.56471,,,
77_苏轼.json,涪陵,107.38982,29.70315,,,
77_苏轼.json,丰都,107.73085,29.86352,,,
77_苏轼.json,忠县,108.03767,30.30026,,,
77_苏轼.json,万州,108.40873,30.8079,,,
77_苏轼.json,奉节,109.46406,31.01846,,,
77_苏轼.json,巫山,109.8788,31.07462,,,
77_苏轼.json,云阳,108.69698,30.93063,,,
77_苏轼.json,青浦,121.12426,31.14979,,,
77_苏轼.json,陵水,110.0372,18.50596,,,
77_苏轼.json,澄迈,110.00487,19.73849,,,
77_苏轼.json,白帝庙,109.574919,31.040505,,,
77_苏轼.json,神女庙,110.130787,31.203944,,,
77_苏轼.json,峻灵王庙,108.690936,19.315137,,,
79_苏辙.json,重庆,106.55073,29.56471,,,
79_苏辙.json,涪陵,107.38982,29.70315,,,
79_苏辙.json,丰都,107.73085,29.86352,,,
79_苏辙.json,忠县,108.03767,30.30026,,,
79_苏辙.json,奉节,109.46406,31.01846,,,
79_苏辙.json,巫山,109.8788,31.07462,,,
79_苏辙.json,云阳,108.69698,30.93063,,,
79_苏辙.json,丰都,107.73085,29.86352,,,
79_苏辙.json,北京,116.40717,39.90469,,,
79_苏辙.json,密云,116.84317,40.37625,,,
79_苏辙.json,北京,116.40717,39.90469,,,
79_苏辙.json,重庆,106.55073,29.56471,,,
79_苏辙.json,涪陵,107.38982,29.70315,,,
79_苏辙.json,丰都,107.73085,29.86352,,,
79_苏辙.json,忠县,108.03767,30.30026,,,
79_苏辙.json,奉节,109.46406,31.01846,,,
79_苏辙.json,巫山,109.8788,31.07462,,,
79_苏辙.json,云阳,108.69698,30.93063,,,
79_苏辙.json,北京,116.40717,39.90469,,,
79_苏辙.json,密云,116.84317,40.37625,,,
79_苏辙.json,西山,116.20368,39.972949,,,
79_苏辙.json,重庆,106.55073,29.56471,,,
79_苏辙.json,涪陵,107.38982,29.70315,,,
79_苏辙.json,丰都,107.73085,29.86352,,,
79_苏辙.json,忠县,108.03767,30.30026,,,
79_苏辙.json,奉节,109.46406,31.01846,,,
79_苏辙.json,巫山,109.8788,31.07462,,,
79_苏辙.json,云阳,108.69698,30.93063,,,
79_苏辙.json,丰都,107.73085,29.86352,,,
79_苏辙.json,北京,116.40717,39.90469,,,
79_苏辙.json,密云,116.84317,40.37625,,,
79_苏辙.json,北京,116.40717,39.90469,,,
79_苏辙.json,重庆,106.55073,29.56471,,,
79_苏辙.json,涪陵,107.38982,29.70315,,,
79_苏辙.json,丰都,107.73085,29.86352,,,
79_苏辙.json,忠县,108.03767,30.30026,,,
79_苏辙.json,奉节,109.46406,31.01846,,,
79_苏辙.json,巫山,109.8788,31.07462,,,
79_苏辙.json,云阳,108.69698,30.93063,,,
79_苏辙.json,北京,116.40717,39.90469,,,
79_苏辙.json,密云,116.84317,40.37625,,,
79_苏辙.json,西山,116.20368,39.972949,,,
79_苏辙.json,重庆,106.55073,29.56471,,,
79_苏辙.json,涪陵,107.38982,29.70315,,,
79_苏辙.json,丰都,107.73085,29.86352,,,
79_苏辙.json,忠县,108.03767,30.30026,,,
79_苏辙.json,奉节,109.46406,31.01846,,,
79_苏辙.json,巫山,109.8788,31.07462,,,
79_苏辙.json,云阳,108.69698,30.93063,,,
79_苏辙.json,丰都,107.73085,29.86352,,,
79_苏辙.json,北京,116.40717,39.90469,,,
79_苏辙.json,密云,116.84317,40.37625,,,
79_苏辙.json,北京,116.40717,39.90469,,,
79_苏辙.json,重庆,106.55073,29.56471,,,
79_苏辙.json,涪陵,107.38982,29.70315,,,
79_苏辙.json,丰都,107.73085,29.86352,,,
79_苏辙.json,忠县,108.03767,30.30026,,,
79_苏辙.json,奉节,109.46406,31.01846,,,
79_苏辙.json,巫山,109.8788,31.07462,,,
79_苏辙.json,云阳,108.69698,30.93063,,,
79_苏辙.json,北京,116.40717,39.90469,,,
79_苏辙.json,密云,116.84317,40.37625,,,
79_苏辙.json,西山,116.20368,39.972949,,,
79_苏辙.json,重庆,106.55073,29.56471,,,
79_苏辙.json,涪陵,107.38982,29.70315,,,
79_苏辙.json,丰都,107.73085,29.86352,,,
79_苏辙.json,忠县,108.03767,30.30026,,,
79_苏辙.json,奉节,109.46406,31.01846,,,
79_苏辙.json,巫山,109.8788,31.07462,,,
79_苏辙.json,云阳,108.69698,30.93063,,,
79_苏辙.json,丰都,107.73085,29.86352,,,
79_苏辙.json,北京,116.40717,39.90469,,,
79_苏辙.json,密云,116.84317,40.37625,,,
79_苏辙.json,北京,116.40717,39.90469,,,
79_苏辙.json,重庆,106.55073,29.56471,,,
79_苏辙.json,涪陵,107.38982,29.70315,,,
79_苏辙.json,丰都,107.73085,29.86352,,,
79_苏辙.json,忠县,108.03767,30.30026,,,
79_苏辙.json,奉节,109.46406,31.01846,,,
79_苏辙.json,巫山,109.8788,31.07462,,,
79_苏辙.json,云阳,108.69698,30.93063,,,
79_苏辙.json,北京,116.40717,39.90469,,,
79_苏辙.json,密云,116.84317,40.37625,,,
79_苏辙.json,西山,116.20368,39.972949,,,
79_苏辙.json,重庆,106.55073,29.56471,,,
79_苏辙.json,涪陵,107.38982,29.70315,,,
79_苏辙.json,丰都,107.73085,29.86352,,,
79_苏辙.json,忠县,108.03767,30.30026,,,
79_苏辙.json,奉节,109.46406,31.01846,,,
79_苏辙.json,巫山,109.8788,31.07462,,,
79_苏辙.json,云阳,108.69698,30.93063,,,
79_苏辙.json,丰都,107.73085,29.86352,,,
79_苏辙.json,北京,116.40717,39.90469,,,
79_苏辙.json,密云,116.84317,40.37625,,,
79_苏辙.json,北京,116.40717,39.90469,,,
79_苏辙.json,重庆,106.55073,29.56471,,,
79_苏辙.json,涪陵,107.38982,29.70315,,,
79_苏辙.json,丰都,107.73085,29.86352,,,
79_苏辙.json,忠县,108.03767,30.30026,,,
79_苏辙.json,奉节,109.46406,31.01846,,,
79_苏辙.json,巫山,109.8788,31.07462,,,
79_苏辙.json,云阳,108.69698,30.93063,,,
79_苏辙.json,北京,116.40717,39.90469,,,
79_苏辙.json,密云,116.84317,40.37625,,,
79_苏辙.json,西山,116.20368,39.972949,,,
79_苏辙.json,重庆,106.55073,29.56471,,,
79_苏辙.json,涪陵,107.38982,29.70315,,,
79_苏辙.json,丰都,107.73085,29.86352,,,
79_苏辙.json,忠县,108.03767,30.30026,,,
79_苏辙.json,奉节,109.46406,31.01846,,,
79_苏辙.json,巫山,109.8788,31.07462,,,
79_苏辙.json,云阳,108.69698,30.93063,,,
79_苏辙.json,丰都,107.73085,29.86352,,,
79_苏辙.json,北京,116.40717,39.90469,,,
79_苏辙.json,密云,116.84317,40.37625,,,
79_苏辙.json,北京,116.40717,39.90469,,,
79_苏辙.json,重庆,106.55073,29.56471,,,
79_苏辙.json,涪陵,107.38982,29.70315,,,
79_苏辙.json,丰都,107.73085,29.86352,,,
79_苏辙.json,忠县,108.03767,30.30026,,,
79_苏辙.json,奉节,109.46406,31.01846,,,
79_苏辙.json,巫山,109.8788,31.07462,,,
79_苏辙.json,云阳,108.69698,30.93063,,,
79_苏辙.json,北京,116.40717,39.90469,,,
79_苏辙.json,密云,116.84317,40.37625,,,
79_苏辙.json,西山,116.20368,39.972949,,,
79_苏辙.json,重庆,106.55073,29.56471,,,
79_苏辙.json,涪陵,107.38982,29.70315,,,
79_苏辙.json,丰都,107.73085,29.86352,,,
79_苏辙.json,忠县,108.03767,30.30026,,,
79_苏辙.json,奉节,109.46406,31.01846,,,
79_苏辙.json,巫山,109.8788,31.07462,,,
79_苏辙.json,云阳,108.69698,30.93063,,,
79_苏辙.json,丰都,107.73085,29.86352,,,
79_苏辙.json,北京,116.40717,39.90469,,,
79_苏辙.json,密云,116.84317,40.37625,,,
79_苏辙.json,北京,116.40717,39.90469,,,
79_苏辙.json,重庆,106.55073,29.56471,,,
79_苏辙.json,涪陵,107.38982,29.70315,,,
79_苏辙.json,丰都,107.73085,29.86352,,,
79_苏辙.json,忠县,108.03767,30.30026,,,
79_苏辙.json,奉节,109.46406,31.01846,,,
79_苏辙.json,巫山,109.8788,31.07462,,,
79_苏辙.json,云阳,108.69698,30.93063,,,
79_苏辙.json,北京,116.40717,39.90469,,,
79_苏辙.json,密云,116.84317,40.37625,,,
79_苏辙.json,西山,116.20368,39.972949,,,
79_苏辙.json,重庆,106.55073,29.56471,,,
79_苏辙.json,涪陵,107.38982,29.70315,,,
79_苏辙.json,丰都,107.73085,29.86352,,,
79_苏辙.json,忠县,108.03767,30.30026,,,
79_苏辙.json,奉节,109.46406,31.01846,,,
79_苏辙.json,巫山,109.8788,31.07462,,,
79_苏辙.json,云阳,108.69698,30.93063,,,
79_苏辙.json,丰都,107.73085,29.86352,,,
79_苏辙.json,北京,116.40717,39.90469,,,
79_苏辙.json,密云,116.84317,40.37625,,,
79_苏辙.json,北京,116.40717,39.90469,,,
79_苏辙.json,重庆,106.55073,29.56471,,,
79_苏辙.json,涪陵,107.38982,29.70315,,,
79_苏辙.json,丰都,107.73085,29.86352,,,
79_苏辙.json,忠县,108.03767,30.30026,,,
79_苏辙.json,奉节,109.46406,31.01846,,,
79_苏辙.json,巫山,109.8788,31.07462,,,
79_苏辙.json,云阳,108.69698,30.93063,,,
79_苏辙.json,北京,116.40717,39.90469,,,
79_苏辙.json,密云,116.84317,40.37625,,,
79_苏辙.json,西山,116.20368,39.972949,,,
79_苏辙.json,重庆,106.55073,29.56471,,,
79_苏辙.json,涪陵,107.38982,29.70315,,,
79_苏辙.json,丰都,107.73085,29.86352,,,
79_苏辙.json,忠县,108.03767,30.30026,,,
79_苏辙.json,奉节,109.46406,31.01846,,,
79_苏辙.json,巫山,109.8788,31.07462,,,
79_苏辙.json,云阳,108.69698,30.93063,,,
79_苏辙.json,丰都,107.73085,29.86352,,,
79_苏辙.json,北京,116.40717,39.90469,,,
79_苏辙.json,密云,116.84317,40.37625,,,
79_苏辙.json,北京,116.40717,39.90469,,,
79_苏辙.json,重庆,106.55073,29.56471,,,
79_苏辙.json,涪陵,107.38982,29.70315,,,
79_苏辙.json,丰都,107.73085,29.86352,,,
79_苏辙.json,忠县,108.03767,30.30026,,,
79_苏辙.json,奉节,109.46406,31.01846,,,
79_苏辙.json,巫山,109.8788,31.07462,,,
79_苏辙.json,云阳,108.69698,30.93063,,,
79_苏辙.json,北京,116.40717,39.90469,,,
79_苏辙.json,密云,116.84317,40.37625,,,
79_苏辙.json,西山,116.20368,39.972949,,,
79_苏辙.json,重庆,106.55073,29.56471,,,
79_苏辙.json,涪陵,107.38982,29.70315,,,
79_苏辙.json,丰都,107.73085,29.86352,,,
79_苏辙.json,忠县,108.03767,30.30026,,,
79_苏辙.json,奉节,109.46406,31.01846,,,
79_苏辙.json,巫山,109.8788,31.07462,,,
79_苏辙.json,云阳,108.69698,30.93063,,,
79_苏辙.json,丰都,107.73085,29.86352,,,
79_苏辙.json,北京,116.40717,39.90469,,,
79_苏辙.json,密云,116.84317,40.37625,,,
79_苏辙.json,北京,116.40717,39.90469,,,
79_苏辙.json,重庆,106.55073,29.56471,,,
79_苏辙.json,涪陵,107.38982,29.70315,,,
79_苏辙.json,丰都,107.73085,29.86352,,,
79_苏辙.json,忠县,108.03767,30.30026,,,
79_苏辙.json,奉节,109.46406,31.01846,,,
79_苏辙.json,巫山,109.8788,31.07462,,,
79_苏辙.json,云阳,108.69698,30.93063,,,
79_苏辙.json,北京,116.40717,39.90469,,,
79_苏辙.json,密云,116.84317,40.37625,,,
79_苏辙.json,西山,116.20368,39.972949,,,
79_苏辙.json,重庆,106.55073,29.56471,,,
79_苏辙.json,涪陵,107.38982,29.70315,,,
79_苏辙.json,丰都,107.73085,29.86352,,,
79_苏辙.json,忠县,108.03767,30.30026,,,
79_苏辙.json,奉节,109.46406,31.01846,,,
79_苏辙.json,巫山,109.8788,31.07462,,,
79_苏辙.json,云阳,108.69698,30.93063,,,
79_苏辙.json,丰都,107.73085,29.86352,,,
79_苏辙.json,北京,116.40717,39.90469,,,
79_苏辙.json,密云,116.84317,40.37625,,,
79_苏辙.json,北京,116.40717,39.90469,,,
79_苏辙.json,重庆,106.55073,29.56471,,,
79_苏辙.json,涪陵,107.38982,29.70315,,,
79_苏辙.json,丰都,107.73085,29.86352,,,
79_苏辙.json,忠县,108.03767,30.30026,,,
79_苏辙.json,奉节,109.46406,31.01846,,,
79_苏辙.json,巫山,109.8788,31.07462,,,
79_苏辙.json,云阳,108.69698,30.93063,,,
79_苏辙.json,北京,116.40717,39.90469,,,
79_苏辙.json,密云,116.84317,40.37625,,,
79_苏辙.json,西山,116.20368,39.972949,,,
79_苏辙.json,重庆,106.55073,29.56471,,,
79_苏辙.json,涪陵,107.38982,29.70315,,,
79_苏辙.json,丰都,107.73085,29.86352,,,
79_苏辙.json,忠县,108.03767,30.30026,,,
79_苏辙.json,奉节,109.46406,31.01846,,,
79_苏辙.json,巫山,109.8788,31.07462,,,
79_苏辙.json,云阳,108.69698,30.93063,,,
79_苏辙.json,丰都,107.73085,29.86352,,,
79_苏辙.json,北京,116.40717,39.90469,,,
79_苏辙.json,密云,116.84317,40.37625,,,
79_苏辙.json,北京,116.40717,39.90469,,,
79_苏辙.json,重庆,106.55073,29.56471,,,
79_苏辙.json,涪陵,107.38982,29.70315,,,
79_苏辙.json,丰都,107.73085,29.86352,,,
79_苏辙.json,忠县,108.03767,30.30026,,,
79_苏辙.json,奉节,109.46406,31.01846,,,
79_苏辙.json,巫山,109.8788,31.07462,,,
79_苏辙.json,云阳,108.69698,30.93063,,,
79_苏辙.json,北京,116.40717,39.90469,,,
79_苏辙.json,密云,116.84317,40.37625,,,
79_苏辙.json,西山,116.20368,39.972949,,,
79_苏辙.json,重庆,106.55073,29.56471,,,
79_苏辙.json,涪陵,107.38982,29.70315,,,
79_苏辙.json,丰都,107.73085,29.86352,,,
79_苏辙.json,忠县,108.03767,30.30026,,,
79_苏辙.json,奉节,109.46406,31.01846,,,
79_苏辙.json,巫山,109.8788,31.07462,,,
79_苏辙.json,云阳,108.69698,30.93063,,,
79_苏辙.json,丰都,107.73085,29.86352,,,
79_苏辙.json,北京,116.40717,39.90469,,,
79_苏辙.json,密云,116.84317,40.37625,,,
79_苏辙.json,北京,116.40717,39.90469,,,
79_苏辙.json,重庆,106.55073,29.56471,,,
79_苏辙.json,涪陵,107.38982,29.70315,,,
79_苏辙.json,丰都,107.73085,29.86352,,,
79_苏辙.json,忠县,108.03767,30.30026,,,
79_苏辙.json,奉节,109.46406,31.01846,,,
79_苏辙.json,巫山,109.8788,31.07462,,,
79_苏辙.json,云阳,108.69698,30.93063,,,
79_苏辙.json,北京,116.40717,39.90469,,,
79_苏辙.json,密云,116.84317,40.37625,,,
79_苏辙.json,西山,116.20368,39.972949,,,
79_苏辙.json,重庆,106.55073,29.56471,,,
79_苏辙.json,涪陵,107.38982,29.70315,,,
79_苏辙.json,丰都,107.73085,29.86352,,,
79_苏辙.json,忠县,108.03767,30.30026,,,
79_苏辙.json,奉节,109.46406,31.01846,,,
79_苏辙.json,巫山,109.8788,31.07462,,,
79_苏辙.json,云阳,108.69698,30.93063,,,
79_苏辙.json,丰都,107.73085,29.86352,,,
79_苏辙.json,北京,116.40717,39.90469,,,
79_苏辙.json,密云,116.84317,40.37625,,,
79_苏辙.json,北京,116.40717,39.90469,,,
79_苏辙.json,重庆,106.55073,29.56471,,,
79_苏辙.json,涪陵,107.38982,29.70315,,,
79_苏辙.json,丰都,107.73085,29.86352,,,
79_苏辙.json,忠县,108.03767,30.30026,,,
79_苏辙.json,奉节,109.46406,31.01846,,,
79_苏辙.json,巫山,109.8788,31.07462,,,
79_苏辙.json,云阳,108.69698,30.93063,,,
79_苏辙.json,北京,116.40717,39.90469,,,
79_苏辙.json,密云,116.84317,40.37625,,,
79_苏辙.json,西山,116.20368,39.972949,,,
79_苏辙.json,重庆,106.55073,29.56471,,,
79_苏辙.json,涪陵,107.38982,29.70315,,,
79_苏辙.json,丰都,107.73085,29.86352,,,
79_苏辙.json,忠县,108.03767,30.30026,,,
79_苏辙.json,奉节,109.46406,31.01846,,,
79_苏辙.json,巫山,109.8788,31.07462,,,
79_苏辙.json,云阳,108.69698,30.93063,,,
79_苏辙.json,丰都,107.73085,29.86352,,,
79_苏辙.json,北京,116.40717,39.90469,,,
79_苏辙.json,密云,116.84317,40.37625,,,
79_苏辙.json,北京,116.40717,39.90469,,,
79_苏辙.json,重庆,106.55073,29.56471,,,
79_苏辙.json,涪陵,107.38982,29.70315,,,
79_苏辙.json,丰都,107.73085,29.86352,,,
79_苏辙.json,忠县,108.03767,30.30026,,,
79_苏辙.json,奉节,109.46406,31.01846,,,
79_苏辙.json,巫山,109.8788,31.07462,,,
79_苏辙.json,云阳,108.69698,30.93063,,,
79_苏辙.json,北京,116.40717,39.90469,,,
79_苏辙.json,密云,116.84317,40.37625,,,
79_苏辙.json,西山,116.20368,39.972949,,,
79_苏辙.json,重庆,106.55073,29.56471,,,
79_苏辙.json,涪陵,107.38982,29.70315,,,
79_苏辙.json,丰都,107.73085,29.86352,,,
79_苏辙.json,忠县,108.03767,30.30026,,,
79_苏辙.json,奉节,109.46406,31.01846,,,
79_苏辙.json,巫山,109.8788,31.07462,,,
79_苏辙.json,云阳,108.69698,30.93063,,,
79_苏辙.json,丰都,107.73085,29.86352,,,
79_苏辙.json,北京,116.40717,39.90469,,,
79_苏辙.json,密云,116.84317,40.37625,,,
79_苏辙.json,北京,116.40717,39.90469,,,
79_苏辙.json,重庆,106.55073,29.56471,,,
79_苏辙.json,涪陵,107.38982,29.70315,,,
79_苏辙.json,丰都,107.73085,29.86352,,,
79_苏辙.json,忠县,108.03767,30.30026,,,
79_苏辙.json,奉节,109.46406,31.01846,,,
79_苏辙.json,巫山,109.8788,31.07462,,,
79_苏辙.json,云阳,108.69698,30.93063,,,
79_苏辙.json,北京,116.40717,39.90469,,,
79_苏辙.json,密云,116.84317,40.37625,,,
79_苏辙.json,西山,116.20368,39.972949,,,
79_苏辙.json,重庆,106.55073,29.56471,,,
79_苏辙.json,涪陵,107.38982,29.70315,,,
79_苏辙.json,丰都,107.73085,29.86352,,,
79_苏辙.json,忠县,108.03767,30.30026,,,
79_苏辙.json,奉节,109.46406,31.01846,,,
79_苏辙.json,巫山,109.8788,31.07462,,,
79_苏辙.json,云阳,108.69698,30.93063,,,
79_苏辙.json,丰都,107.73085,29.86352,,,
79_苏辙.json,北京,116.40717,39.90469,,,
79_苏辙.json,密云,116.84317,40.37625,,,
79_苏辙.json,北京,116.40717,39.90469,,,
79_苏辙.json,重庆,106.55073,29.56471,,,
79_苏辙.json,涪陵,107.38982,29.70315,,,
79_苏辙.json,丰都,107.73085,29.86352,,,
79_苏辙.json,忠县,108.03767,30.30026,,,
79_苏辙.json,奉节,109.46406,31.01846,,,
79_苏辙.json,巫山,109.8788,31.07462,,,
79_苏辙.json,云阳,108.69698,30.93063,,,
79_苏辙.json,北京,116.40717,39.90469,,,
79_苏辙.json,密云,116.84317,40.37625,,,
79_苏辙.json,西山,116.20368,39.972949,,,
79_苏辙.json,重庆,106.55073,29.56471,,,
79_苏辙.json,涪陵,107.38982,29.70315,,,
79_苏辙.json,丰都,107.73085,29.86352,,,
79_苏辙.json,忠县,108.03767,30.30026,,,
79_苏辙.json,奉节,109.46406,31.01846,,,
79_苏辙.json,巫山,109.8788,31.07462,,,
79_苏辙.json,云阳,108.69698,30.93063,,,
79_苏辙.json,丰都,107.73085,29.86352,,,
79_苏辙.json,北京,116.40717,39.90469,,,
79_苏辙.json,密云,116.84317,40.37625,,,
79_苏辙.json,北京,116.40717,39.90469,,,
79_苏辙.json,重庆,106.55073,29.56471,,,
79_苏辙.json,涪陵,107.38982,29.70315,,,
79_苏辙.json,丰都,107.73085,29.86352,,,
79_苏辙.json,忠县,108.03767,30.30026,,,
79_苏辙.json,奉节,109.46406,31.01846,,,
79_苏辙.json,巫山,109.8788,31.07462,,,
79_苏辙.json,云阳,108.69698,30.93063,,,
79_苏辙.json,北京,116.40717,39.90469,,,
79_苏辙.json,密云,116.84317,40.37625,,,
79_苏辙.json,西山,116.20368,39.972949,,,
79_苏辙.json,重庆,106.55073,29.56471,,,
79_苏辙.json,涪陵,107.38982,29.70315,,,
79_苏辙.json,丰都,107.73085,29.86352,,,
79_苏辙.json,忠县,108.03767,30.30026,,,
79_苏辙.json,奉节,109.46406,31.01846,,,
79_苏辙.json,巫山,109.8788,31.07462,,,
79_苏辙.json,云阳,108.69698,30.93063,,,
79_苏辙.json,丰都,107.73085,29.86352,,,
79_苏辙.json,北京,116.40717,39.90469,,,
79_苏辙.json,密云,116.84317,40.37625,,,
79_苏辙.json,北京,116.40717,39.90469,,,
79_苏辙.json,重庆,106.55073,29.56471,,,
79_苏辙.json,涪陵,107.38982,29.70315,,,
79_苏辙.json,丰都,107.73085,29.86352,,,
79_苏辙.json,忠县,108.03767,30.30026,,,
79_苏辙.json,奉节,109.46406,31.01846,,,
79_苏辙.json,巫山,109.8788,31.07462,,,
79_苏辙.json,云阳,108.69698,30.93063,,,
79_苏辙.json,北京,116.40717,39.90469,,,
79_苏辙.json,密云,116.84317,40.37625,,,
79_苏辙.json,西山,116.20368,39.972949,,,
79_苏辙.json,重庆,106.55073,29.56471,,,
79_苏辙.json,涪陵,107.38982,29.70315,,,
79_苏辙.json,丰都,107.73085,29.86352,,,
79_苏辙.json,忠县,108.03767,30.30026,,,
79_苏辙.json,奉节,109.46406,31.01846,,,
79_苏辙.json,巫山,109.8788,31.07462,,,
79_苏辙.json,云阳,108.69698,30.93063,,,
79_苏辙.json,丰都,107.73085,29.86352,,,
79_苏辙.json,北京,116.40717,39.90469,,,
79_苏辙.json,密云,116.84317,40.37625,,,
79_苏辙.json,北京,116.40717,39.90469,,,
79_苏辙.json,重庆,106.55073,29.56471,,,
79_苏辙.json,涪陵,107.38982,29.70315,,,
79_苏辙.json,丰都,107.73085,29.86352,,,
79_苏辙.json,忠县,108.03767,30.30026,,,
79_苏辙.json,奉节,109.46406,31.01846,,,
79_苏辙.json,巫山,109.8788,31.07462,,,
79_苏辙.json,云阳,108.69698,30.93063,,,
79_苏辙.json,北京,116.40717,39.90469,,,
79_苏辙.json,密云,116.84317,40.37625,,,
79_苏辙.json,西山,116.20368,39.972949,,,
79_苏辙.json,重庆,106.55073,29.56471,,,
79_苏辙.json,涪陵,107.38982,29.70315,,,
79_苏辙.json,丰都,107.73085,29.86352,,,
79_苏辙.json,忠县,108.03767,30.30026,,,
79_苏辙.json,奉节,109.46406,31.01846,,,
79_苏辙.json,巫山,109.8788,31.07462,,,
79_苏辙.json,云阳,108.69698,30.93063,,,
79_苏辙.json,丰都,107.73085,29.86352,,,
79_苏辙.json,北京,116.40717,39.90469,,,
79_苏辙.json,密云,116.84317,40.37625,,,
79_苏辙.json,北京,116.40717,39.90469,,,
79_苏辙.json,重庆,106.55073,29.56471,,,
79_苏辙.json,涪陵,107.38982,29.70315,,,
79_苏辙.json,丰都,107.73085,29.86352,,,
79_苏辙.json,忠县,108.03767,30.30026,,,
79_苏辙.json,奉节,109.46406,31.01846,,,
79_苏辙.json,巫山,109.8788,31.07462,,,
79_苏辙.json,云阳,108.69698,30.93063,,,
79_苏辙.json,北京,116.40717,39.90469,,,
79_苏辙.json,密云,116.84317,40.37625,,,
79_苏辙.json,西山,116.20368,39.972949,,,
7_沈缙.json,巫山,109.8788,31.07462,,,
7_沈缙.json,重庆,106.55073,29.56471,,,
7_沈缙.json,北宁,106.065131,21.172023,,,
7_沈缙.json,清化,106.186138,10.677974,,,
7_沈缙.json,荣市,105.698883,18.636599,,,
7_沈缙.json,文昌,110.79774,19.54329,,,
7_沈缙.json,巫山,109.8788,31.07462,,,
7_沈缙.json,重庆,106.55073,29.56471,,,
7_沈缙.json,北宁,106.065131,21.172023,,,
7_沈缙.json,清化,106.186138,10.677974,,,
7_沈缙.json,荣市,105.698883,18.636599,,,
7_沈缙.json,文昌,110.79774,19.54329,,,
7_沈缙.json,神女庙,110.130787,31.203944,,,
7_沈缙.json,龙门峡,108.315049,29.126775,,,
7_沈缙.json,巫山,109.8788,31.07462,,,
7_沈缙.json,重庆,106.55073,29.56471,,,
7_沈缙.json,北宁,106.065131,21.172023,,,
7_沈缙.json,清化,106.186138,10.677974,,,
7_沈缙.json,荣市,105.698883,18.636599,,,
7_沈缙.json,文昌,110.79774,19.54329,,,
7_沈缙.json,巫山,109.8788,31.07462,,,
7_沈缙.json,重庆,106.55073,29.56471,,,
7_沈缙.json,北宁,106.065131,21.172023,,,
7_沈缙.json,清化,106.186138,10.677974,,,
7_沈缙.json,荣市,105.698883,18.636599,,,
7_沈缙.json,文昌,110.79774,19.54329,,,
7_沈缙.json,神女庙,110.130787,31.203944,,,
7_沈缙.json,龙门峡,108.315049,29.126775,,,
7_沈缙.json,巫山,109.8788,31.07462,,,
7_沈缙.json,重庆,106.55073,29.56471,,,
7_沈缙.json,北宁,106.065131,21.172023,,,
7_沈缙.json,清化,106.186138,10.677974,,,
7_沈缙.json,荣市,105.698883,18.636599,,,
7_沈缙.json,文昌,110.79774,19.54329,,,
7_沈缙.json,巫山,109.8788,31.07462,,,
7_沈缙.json,重庆,106.55073,29.56471,,,
7_沈缙.json,北宁,106.065131,21.172023,,,
7_沈缙.json,清化,106.186138,10.677974,,,
7_沈缙.json,荣市,105.698883,18.636599,,,
7_沈缙.json,文昌,110.79774,19.54329,,,
7_沈缙.json,神女庙,110.130787,31.203944,,,
7_沈缙.json,龙门峡,108.315049,29.126775,,,
7_沈缙.json,巫山,109.8788,31.07462,,,
7_沈缙.json,重庆,106.55073,29.56471,,,
7_沈缙.json,北宁,106.065131,21.172023,,,
7_沈缙.json,清化,106.186138,10.677974,,,
7_沈缙.json,荣市,105.698883,18.636599,,,
7_沈缙.json,文昌,110.79774,19.54329,,,
7_沈缙.json,巫山,109.8788,31.07462,,,
7_沈缙.json,重庆,106.55073,29.56471,,,
7_沈缙.json,北宁,106.065131,21.172023,,,
7_沈缙.json,清化,106.186138,10.677974,,,
7_沈缙.json,荣市,105.698883,18.636599,,,
7_沈缙.json,文昌,110.79774,19.54329,,,
7_沈缙.json,神女庙,110.130787,31.203944,,,
7_沈缙.json,龙门峡,108.315049,29.126775,,,
7_沈缙.json,巫山,109.8788,31.07462,,,
7_沈缙.json,重庆,106.55073,29.56471,,,
7_沈缙.json,北宁,106.065131,21.172023,,,
7_沈缙.json,清化,106.186138,10.677974,,,
7_沈缙.json,荣市,105.698883,18.636599,,,
7_沈缙.json,文昌,110.79774,19.54329,,,
7_沈缙.json,巫山,109.8788,31.07462,,,
7_沈缙.json,重庆,106.55073,29.56471,,,
7_沈缙.json,北宁,106.065131,21.172023,,,
7_沈缙.json,清化,106.186138,10.677974,,,
7_沈缙.json,荣市,105.698883,18.636599,,,
7_沈缙.json,文昌,110.79774,19.54329,,,
7_沈缙.json,神女庙,110.130787,31.203944,,,
7_沈缙.json,龙门峡,108.315049,29.126775,,,
7_沈缙.json,巫山,109.8788,31.07462,,,
7_沈缙.json,重庆,106.55073,29.56471,,,
7_沈缙.json,北宁,106.065131,21.172023,,,
7_沈缙.json,清化,106.186138,10.677974,,,
7_沈缙.json,荣市,105.698883,18.636599,,,
7_沈缙.json,文昌,110.79774,19.54329,,,
7_沈缙.json,巫山,109.8788,31.07462,,,
7_沈缙.json,重庆,106.55073,29.56471,,,
7_沈缙.json,北宁,106.065131,21.172023,,,
7_沈缙.json,清化,106.186138,10.677974,,,
7_沈缙.json,荣市,105.698883,18.636599,,,
7_沈缙.json,文昌,110.79774,19.54329,,,
7_沈缙.json,神女庙,110.130787,31.203944,,,
7_沈缙.json,龙门峡,108.315049,29.126775,,,
7_沈缙.json,巫山,109.8788,31.07462,,,
7_沈缙.json,重庆,106.55073,29.56471,,,
7_沈缙.json,北宁,106.065131,21.172023,,,
7_沈缙.json,清化,106.186138,10.677974,,,
7_沈缙.json,荣市,105.698883,18.636599,,,
7_沈缙.json,文昌,110.79774,19.54329,,,
7_沈缙.json,巫山,109.8788,31.07462,,,
7_沈缙.json,重庆,106.55073,29.56471,,,
7_沈缙.json,北宁,106.065131,21.172023,,,
7_沈缙.json,清化,106.186138,10.677974,,,
7_沈缙.json,荣市,105.698883,18.636599,,,
7_沈缙.json,文昌,110.79774,19.54329,,,
7_沈缙.json,神女庙,110.130787,31.203944,,,
7_沈缙.json,龙门峡,108.315049,29.126775,,,
7_沈缙.json,巫山,109.8788,31.07462,,,
7_沈缙.json,重庆,106.55073,29.56471,,,
7_沈缙.json,北宁,106.065131,21.172023,,,
7_沈缙.json,清化,106.186138,10.677974,,,
7_沈缙.json,荣市,105.698883,18.636599,,,
7_沈缙.json,文昌,110.79774,19.54329,,,
7_沈缙.json,巫山,109.8788,31.07462,,,
7_沈缙.json,重庆,106.55073,29.56471,,,
7_沈缙.json,北宁,106.065131,21.172023,,,
7_沈缙.json,清化,106.186138,10.677974,,,
7_沈缙.json,荣市,105.698883,18.636599,,,
7_沈缙.json,文昌,110.79774,19.54329,,,
7_沈缙.json,神女庙,110.130787,31.203944,,,
7_沈缙.json,龙门峡,108.315049,29.126775,,,
7_沈缙.json,巫山,109.8788,31.07462,,,
7_沈缙.json,重庆,106.55073,29.56471,,,
7_沈缙.json,北宁,106.065131,21.172023,,,
7_沈缙.json,清化,106.186138,10.677974,,,
7_沈缙.json,荣市,105.698883,18.636599,,,
7_沈缙.json,文昌,110.79774,19.54329,,,
7_沈缙.json,巫山,109.8788,31.07462,,,
7_沈缙.json,重庆,106.55073,29.56471,,,
7_沈缙.json,北宁,106.065131,21.172023,,,
7_沈缙.json,清化,106.186138,10.677974,,,
7_沈缙.json,荣市,105.698883,18.636599,,,
7_沈缙.json,文昌,110.79774,19.54329,,,
7_沈缙.json,神女庙,110.130787,31.203944,,,
7_沈缙.json,龙门峡,108.315049,29.126775,,,
7_沈缙.json,巫山,109.8788,31.07462,,,
7_沈缙.json,重庆,106.55073,29.56471,,,
7_沈缙.json,北宁,106.065131,21.172023,,,
7_沈缙.json,清化,106.186138,10.677974,,,
7_沈缙.json,荣市,105.698883,18.636599,,,
7_沈缙.json,文昌,110.79774,19.54329,,,
7_沈缙.json,巫山,109.8788,31.07462,,,
7_沈缙.json,重庆,106.55073,29.56471,,,
7_沈缙.json,北宁,106.065131,21.172023,,,
7_沈缙.json,清化,106.186138,10.677974,,,
7_沈缙.json,荣市,105.698883,18.636599,,,
7_沈缙.json,文昌,110.79774,19.54329,,,
7_沈缙.json,神女庙,110.130787,31.203944,,,
7_沈缙.json,龙门峡,108.315049,29.126775,,,
7_沈缙.json,巫山,109.8788,31.07462,,,
7_沈缙.json,重庆,106.55073,29.56471,,,
7_沈缙.json,北宁,106.065131,21.172023,,,
7_沈缙.json,清化,106.186138,10.677974,,,
7_沈缙.json,荣市,105.698883,18.636599,,,
7_沈缙.json,文昌,110.79774,19.54329,,,
7_沈缙.json,巫山,109.8788,31.07462,,,
7_沈缙.json,重庆,106.55073,29.56471,,,
7_沈缙.json,北宁,106.065131,21.172023,,,
7_沈缙.json,清化,106.186138,10.677974,,,
7_沈缙.json,荣市,105.698883,18.636599,,,
7_沈缙.json,文昌,110.79774,19.54329,,,
7_沈缙.json,神女庙,110.130787,31.203944,,,
7_沈缙.json,龙门峡,108.315049,29.126775,,,
7_沈缙.json,巫山,109.8788,31.07462,,,
7_沈缙.json,重庆,106.55073,29.56471,,,
7_沈缙.json,北宁,106.065131,21.172023,,,
7_沈缙.json,清化,106.186138,10.677974,,,
7_沈缙.json,荣市,105.698883,18.636599,,,
7_沈缙.json,文昌,110.79774,19.54329,,,
7_沈缙.json,巫山,109.8788,31.07462,,,
7_沈缙.json,重庆,106.55073,29.56471,,,
7_沈缙.json,北宁,106.065131,21.172023,,,
7_沈缙.json,清化,106.186138,10.677974,,,
7_沈缙.json,荣市,105.698883,18.636599,,,
7_沈缙.json,文昌,110.79774,19.54329,,,
7_沈缙.json,神女庙,110.130787,31.203944,,,
7_沈缙.json,龙门峡,108.315049,29.126775,,,
7_沈缙.json,巫山,109.8788,31.07462,,,
7_沈缙.json,重庆,106.55073,29.56471,,,
7_沈缙.json,北宁,106.065131,21.172023,,,
7_沈缙.json,清化,106.186138,10.677974,,,
7_沈缙.json,荣市,105.698883,18.636599,,,
7_沈缙.json,文昌,110.79774,19.54329,,,
7_沈缙.json,巫山,109.8788,31.07462,,,
7_沈缙.json,重庆,106.55073,29.56471,,,
7_沈缙.json,北宁,106.065131,21.172023,,,
7_沈缙.json,清化,106.186138,10.677974,,,
7_沈缙.json,荣市,105.698883,18.636599,,,
7_沈缙.json,文昌,110.79774,19.54329,,,
7_沈缙.json,神女庙,110.130787,31.203944,,,
7_沈缙.json,龙门峡,108.315049,29.126775,,,
7_沈缙.json,巫山,109.8788,31.07462,,,
7_沈缙.json,重庆,106.55073,29.56471,,,
7_沈缙.json,北宁,106.065131,21.172023,,,
7_沈缙.json,清化,106.186138,10.677974,,,
7_沈缙.json,荣市,105.698883,18.636599,,,
7_沈缙.json,文昌,110.79774,19.54329,,,
7_沈缙.json,巫山,109.8788,31.07462,,,
7_沈缙.json,重庆,106.55073,29.56471,,,
7_沈缙.json,北宁,106.065131,21.172023,,,
7_沈缙.json,清化,106.186138,10.677974,,,
7_沈缙.json,荣市,105.698883,18.636599,,,
7_沈缙.json,文昌,110.79774,19.54329,,,
7_沈缙.json,神女庙,110.130787,31.203944,,,
7_沈缙.json,龙门峡,108.315049,29.126775,,,
82_黄庭坚.json,巫山,109.8788,31.07462,,,
82_黄庭坚.json,云阳,108.69698,30.93063,,,
82_黄庭坚.json,彭水,108.165555,29.293763,,,
82_黄庭坚.json,涪陵,107.38982,29.70315,,,
82_黄庭坚.json,万州,108.40873,30.8079,,,
82_黄庭坚.json,巫山,109.8788,31.07462,,,
82_黄庭坚.json,巫山,109.8788,31.07462,,,
82_黄庭坚.json,云阳,108.69698,30.93063,,,
82_黄庭坚.json,彭水,108.165555,29.293763,,,
82_黄庭坚.json,涪陵,107.38982,29.70315,,,
82_黄庭坚.json,万州,108.40873,30.8079,,,
82_黄庭坚.json,巫山,109.8788,31.07462,,,
82_黄庭坚.json,云阳,108.69698,30.93063,,,
82_黄庭坚.json,彭水,108.165555,29.293763,,,
82_黄庭坚.json,涪陵,107.38982,29.70315,,,
82_黄庭坚.json,万州,108.40873,30.8079,,,
82_黄庭坚.json,巫山,109.8788,31.07462,,,
82_黄庭坚.json,巫山,109.8788,31.07462,,,
82_黄庭坚.json,云阳,108.69698,30.93063,,,
82_黄庭坚.json,彭水,108.165555,29.293763,,,
82_黄庭坚.json,涪陵,107.38982,29.70315,,,
82_黄庭坚.json,万州,108.40873,30.8079,,,
82_黄庭坚.json,巫山,109.8788,31.07462,,,
82_黄庭坚.json,云阳,108.69698,30.93063,,,
82_黄庭坚.json,彭水,108.165555,29.293763,,,
82_黄庭坚.json,涪陵,107.38982,29.70315,,,
82_黄庭坚.json,万州,108.40873,30.8079,,,
82_黄庭坚.json,巫山,109.8788,31.07462,,,
82_黄庭坚.json,巫山,109.8788,31.07462,,,
82_黄庭坚.json,云阳,108.69698,30.93063,,,
82_黄庭坚.json,彭水,108.165555,29.293763,,,
82_黄庭坚.json,涪陵,107.38982,29.70315,,,
82_黄庭坚.json,万州,108.40873,30.8079,,,
82_黄庭坚.json,巫山,109.8788,31.07462,,,
82_黄庭坚.json,云阳,108.69698,30.93063,,,
82_黄庭坚.json,彭水,108.165555,29.293763,,,
82_黄庭坚.json,涪陵,107.38982,29.70315,,,
82_黄庭坚.json,万州,108.40873,30.8079,,,
82_黄庭坚.json,巫山,109.8788,31.07462,,,
82_黄庭坚.json,巫山,109.8788,31.07462,,,
82_黄庭坚.json,云阳,108.69698,30.93063,,,
82_黄庭坚.json,彭水,108.165555,29.293763,,,
82_黄庭坚.json,涪陵,107.38982,29.70315,,,
82_黄庭坚.json,万州,108.40873,30.8079,,,
82_黄庭坚.json,巫山,109.8788,31.07462,,,
82_黄庭坚.json,云阳,108.69698,30.93063,,,
82_黄庭坚.json,彭水,108.165555,29.293763,,,
82_黄庭坚.json,涪陵,107.38982,29.70315,,,
82_黄庭坚.json,万州,108.40873,30.8079,,,
82_黄庭坚.json,巫山,109.8788,31.07462,,,
82_黄庭坚.json,巫山,109.8788,31.07462,,,
82_黄庭坚.json,云阳,108.69698,30.93063,,,
82_黄庭坚.json,彭水,108.165555,29.293763,,,
82_黄庭坚.json,涪陵,107.38982,29.70315,,,
82_黄庭坚.json,万州,108.40873,30.8079,,,
82_黄庭坚.json,巫山,109.8788,31.07462,,,
82_黄庭坚.json,云阳,108.69698,30.93063,,,
82_黄庭坚.json,彭水,108.165555,29.293763,,,
82_黄庭坚.json,涪陵,107.38982,29.70315,,,
82_黄庭坚.json,万州,108.40873,30.8079,,,
82_黄庭坚.json,巫山,109.8788,31.07462,,,
82_黄庭坚.json,巫山,109.8788,31.07462,,,
82_黄庭坚.json,云阳,108.69698,30.93063,,,
82_黄庭坚.json,彭水,108.165555,29.293763,,,
82_黄庭坚.json,涪陵,107.38982,29.70315,,,
82_黄庭坚.json,万州,108.40873,30.8079,,,
82_黄庭坚.json,巫山,109.8788,31.07462,,,
82_黄庭坚.json,云阳,108.69698,30.93063,,,
82_黄庭坚.json,彭水,108.165555,29.293763,,,
82_黄庭坚.json,涪陵,107.38982,29.70315,,,
82_黄庭坚.json,万州,108.40873,30.8079,,,
82_黄庭坚.json,巫山,109.8788,31.07462,,,
82_黄庭坚.json,巫山,109.8788,31.07462,,,
82_黄庭坚.json,云阳,108.69698,30.93063,,,
82_黄庭坚.json,彭水,108.165555,29.293763,,,
82_黄庭坚.json,涪陵,107.38982,29.70315,,,
82_黄庭坚.json,万州,108.40873,30.8079,,,
82_黄庭坚.json,巫山,109.8788,31.07462,,,
82_黄庭坚.json,云阳,108.69698,30.93063,,,
82_黄庭坚.json,彭水,108.165555,29.293763,,,
82_黄庭坚.json,涪陵,107.38982,29.70315,,,
82_黄庭坚.json,万州,108.40873,30.8079,,,
82_黄庭坚.json,巫山,109.8788,31.07462,,,
82_黄庭坚.json,巫山,109.8788,31.07462,,,
82_黄庭坚.json,云阳,108.69698,30.93063,,,
82_黄庭坚.json,彭水,108.165555,29.293763,,,
82_黄庭坚.json,涪陵,107.38982,29.70315,,,
82_黄庭坚.json,万州,108.40873,30.8079,,,
82_黄庭坚.json,巫山,109.8788,31.07462,,,
82_黄庭坚.json,云阳,108.69698,30.93063,,,
82_黄庭坚.json,彭水,108.165555,29.293763,,,
82_黄庭坚.json,涪陵,107.38982,29.70315,,,
82_黄庭坚.json,万州,108.40873,30.8079,,,
82_黄庭坚.json,巫山,109.8788,31.07462,,,
82_黄庭坚.json,巫山,109.8788,31.07462,,,
82_黄庭坚.json,云阳,108.69698,30.93063,,,
82_黄庭坚.json,彭水,108.165555,29.293763,,,
82_黄庭坚.json,涪陵,107.38982,29.70315,,,
82_黄庭坚.json,万州,108.40873,30.8079,,,
82_黄庭坚.json,巫山,109.8788,31.07462,,,
82_黄庭坚.json,云阳,108.69698,30.93063,,,
82_黄庭坚.json,彭水,108.165555,29.293763,,,
82_黄庭坚.json,涪陵,107.38982,29.70315,,,
82_黄庭坚.json,万州,108.40873,30.8079,,,
82_黄庭坚.json,巫山,109.8788,31.07462,,,
82_黄庭坚.json,巫山,109.8788,31.07462,,,
82_黄庭坚.json,云阳,108.69698,30.93063,,,
82_黄庭坚.json,彭水,108.165555,29.293763,,,
82_黄庭坚.json,涪陵,107.38982,29.70315,,,
82_黄庭坚.json,万州,108.40873,30.8079,,,
82_黄庭坚.json,巫山,109.8788,31.07462,,,
82_黄庭坚.json,云阳,108.69698,30.93063,,,
82_黄庭坚.json,彭水,108.165555,29.293763,,,
82_黄庭坚.json,涪陵,107.38982,29.70315,,,
82_黄庭坚.json,万州,108.40873,30.8079,,,
82_黄庭坚.json,巫山,109.8788,31.07462,,,
82_黄庭坚.json,巫山,109.8788,31.07462,,,
82_黄庭坚.json,云阳,108.69698,30.93063,,,
82_黄庭坚.json,彭水,108.165555,29.293763,,,
82_黄庭坚.json,涪陵,107.38982,29.70315,,,
82_黄庭坚.json,万州,108.40873,30.8079,,,
8_孟浩然.json,昌平,116.23128,40.22077,,,
8_孟浩然.json,昌平,116.23128,40.22077,,,
8_孟浩然.json,昌平,116.23128,40.22077,,,
8_孟浩然.json,昌平,116.23128,40.22077,,,
92_惠洪.json,万宁,110.38975,18.79532,,,
92_惠洪.json,陵水,110.0372,18.50596,,,
92_惠洪.json,澄迈,110.00487,19.73849,,,
92_惠洪.json,万宁,110.38975,18.79532,,,
92_惠洪.json,陵水,110.0372,18.50596,,,
92_惠洪.json,澄迈,110.00487,19.73849,,,
92_惠洪.json,万宁,110.38975,18.79532,,,
92_惠洪.json,陵水,110.0372,18.50596,,,
92_惠洪.json,澄迈,110.00487,19.73849,,,
92_惠洪.json,万宁,110.38975,18.79532,,,
92_惠洪.json,陵水,110.0372,18.50596,,,
92_惠洪.json,澄迈,110.00487,19.73849,,,
92_惠洪.json,万宁,110.38975,18.79532,,,
92_惠洪.json,陵水,110.0372,18.50596,,,
92_惠洪.json,澄迈,110.00487,19.73849,,,
92_惠洪.json,万宁,110.38975,18.79532,,,
92_惠洪.json,陵水,110.0372,18.50596,,,
92_惠洪.json,澄迈,110.00487,19.73849,,,
92_惠洪.json,万宁,110.38975,18.79532,,,
92_惠洪.json,陵水,110.0372,18.50596,,,
92_惠洪.json,澄迈,110.00487,19.73849,,,
92_惠洪.json,万宁,110.38975,18.79532,,,
92_惠洪.json,陵水,110.0372,18.50596,,,
92_惠洪.json,澄迈,110.00487,19.73849,,,
92_惠洪.json,万宁,110.38975,18.79532,,,
92_惠洪.json,陵水,110.0372,18.50596,,,
92_惠洪.json,澄迈,110.00487,19.73849,,,
92_惠洪.json,万宁,110.38975,18.79532,,,
92_惠洪.json,陵水,110.0372,18.50596,,,
92_惠洪.json,澄迈,110.00487,19.73849,,,
92_惠洪.json,万宁,110.38975,18.79532,,,
92_惠洪.json,陵水,110.0372,18.50596,,,
92_惠洪.json,澄迈,110.00487,19.73849,,,
92_惠洪.json,万宁,110.38975,18.79532,,,
92_惠洪.json,陵水,110.0372,18.50596,,,
92_惠洪.json,澄迈,110.00487,19.73849,,,
94_程俱.json,松江,121.22654,31.032409,,,
94_程俱.json,松江,121.22654,31.032409,,,
94_程俱.json,松江,121.22654,31.032409,,,
94_程俱.json,松江,121.22654,31.032409,,,
95_宇文虚中.json,北京,116.40717,39.90469,,,
95_宇文虚中.json,北京,116.40717,39.90469,,,
95_宇文虚中.json,北京,116.40717,39.90469,,,
95_宇文虚中.json,北京,116.40717,39.90469,,,
95_宇文虚中.json,北京,116.40717,39.90469,,,
95_宇文虚中.json,北京,116.40717,39.90469,,,
95_宇文虚中.json,北京,116.40717,39.90469,,,
95_宇文虚中.json,北京,116.40717,39.90469,,,
95_宇文虚中.json,北京,116.40717,39.90469,,,
96_王灼.json,奉节,109.46406,31.01846,,,
96_王灼.json,奉节,109.46406,31.01846,,,
96_王灼.json,奉节,109.46406,31.01846,,,
96_王灼.json,奉节,109.46406,31.01846,,,
157_陆游.json,天门,113.16614,30.66339,,,
157_陆游.json,巫山,109.8788,31.07462,,,
157_陆游.json,白帝,109.594363,31.055506,,,
157_陆游.json,奉节,109.46406,31.01846,,,
157_陆游.json,白帝,109.594363,31.055506,,,
157_陆游.json,奉节,109.46406,31.01846,,,
157_陆游.json,巫山,109.8788,31.07462,,,
157_陆游.json,奉节,109.46406,31.01846,,,
157_陆游.json,重庆,106.55073,29.56471,,,
157_陆游.json,万州,108.40873,30.8079,,,
157_陆游.json,梁平,107.80235,30.673729,,,
157_陆游.json,蟠龙,107.853245,30.632482,,,
157_陆游.json,安胜,107.724521,30.687757,,,
157_陆游.json,梁平,107.80235,30.673729,,,
157_陆游.json,重庆,106.55073,29.56471,,,
157_陆游.json,涪陵,107.38982,29.70315,,,
157_陆游.json,丰都,107.73085,29.86352,,,
157_陆游.json,忠县,108.03767,30.30026,,,
157_陆游.json,万州,108.40873,30.8079,,,
157_陆游.json,白帝,109.594363,31.055506,,,
157_陆游.json,奉节,109.46406,31.01846,,,
157_陆游.json,天门,113.16614,30.66339,,,
157_陆游.json,巫山,109.8788,31.07462,,,
157_陆游.json,白帝,109.594363,31.055506,,,
157_陆游.json,奉节,109.46406,31.01846,,,
157_陆游.json,重庆,106.55073,29.56471,,,
157_陆游.json,万州,108.40873,30.8079,,,
157_陆游.json,梁平,107.80235,30.673729,,,
157_陆游.json,蟠龙,107.853245,30.632482,,,
157_陆游.json,安胜,107.724521,30.687757,,,
157_陆游.json,涪陵,107.38982,29.70315,,,
157_陆游.json,丰都,107.73085,29.86352,,,
157_陆游.json,忠县,108.03767,30.30026,,,
157_陆游.json,白帝庙,109.574919,31.040505,,,
157_陆游.json,白帝城,109.573991,31.043917,,,
157_陆游.json,蟠龙山,108.09803,29.29909,,,
157_陆游.json,平都山,107.64149,30.580103,,,
157_陆游.json,龙兴寺,106.79421,29.6986,,,
157_陆游.json,天门,113.16614,30.66339,,,
157_陆游.json,巫山,109.8788,31.07462,,,
157_陆游.json,白帝,109.594363,31.055506,,,
157_陆游.json,奉节,109.46406,31.01846,,,
157_陆游.json,白帝,109.594363,31.055506,,,
157_陆游.json,奉节,109.46406,31.01846,,,
157_陆游.json,巫山,109.8788,31.07462,,,
157_陆游.json,奉节,109.46406,31.01846,,,
157_陆游.json,重庆,106.55073,29.56471,,,
157_陆游.json,万州,108.40873,30.8079,,,
157_陆游.json,梁平,107.80235,30.673729,,,
157_陆游.json,蟠龙,107.853245,30.632482,,,
157_陆游.json,安胜,107.724521,30.687757,,,
157_陆游.json,梁平,107.80235,30.673729,,,
157_陆游.json,重庆,106.55073,29.56471,,,
157_陆游.json,涪陵,107.38982,29.70315,,,
157_陆游.json,丰都,107.73085,29.86352,,,
157_陆游.json,忠县,108.03767,30.30026,,,
157_陆游.json,万州,108.40873,30.8079,,,
157_陆游.json,白帝,109.594363,31.055506,,,
157_陆游.json,奉节,109.46406,31.01846,,,
157_陆游.json,天门,113.16614,30.66339,,,
157_陆游.json,巫山,109.8788,31.07462,,,
157_陆游.json,白帝,109.594363,31.055506,,,
157_陆游.json,奉节,109.46406,31.01846,,,
157_陆游.json,重庆,106.55073,29.56471,,,
157_陆游.json,万州,108.40873,30.8079,,,
157_陆游.json,梁平,107.80235,30.673729,,,
157_陆游.json,蟠龙,107.853245,30.632482,,,
157_陆游.json,安胜,107.724521,30.687757,,,
157_陆游.json,涪陵,107.38982,29.70315,,,
157_陆游.json,丰都,107.73085,29.86352,,,
157_陆游.json,忠县,108.03767,30.30026,,,
157_陆游.json,白帝庙,109.574919,31.040505,,,
157_陆游.json,白帝城,109.573991,31.043917,,,
157_陆游.json,蟠龙山,108.09803,29.29909,,,
157_陆游.json,平都山,107.64149,30.580103,,,
157_陆游.json,龙兴寺,106.79421,29.6986,,,
157_陆游.json,天门,113.16614,30.66339,,,
157_陆游.json,巫山,109.8788,31.07462,,,
157_陆游.json,白帝,109.594363,31.055506,,,
157_陆游.json,奉节,109.46406,31.01846,,,
157_陆游.json,白帝,109.594363,31.055506,,,
157_陆游.json,奉节,109.46406,31.01846,,,
157_陆游.json,巫山,109.8788,31.07462,,,
157_陆游.json,奉节,109.46406,31.01846,,,
157_陆游.json,重庆,106.55073,29.56471,,,
157_陆游.json,万州,108.40873,30.8079,,,
157_陆游.json,梁平,107.80235,30.673729,,,
157_陆游.json,蟠龙,107.853245,30.632482,,,
157_陆游.json,安胜,107.724521,30.687757,,,
157_陆游.json,梁平,107.80235,30.673729,,,
157_陆游.json,重庆,106.55073,29.56471,,,
157_陆游.json,涪陵,107.38982,29.70315,,,
157_陆游.json,丰都,107.73085,29.86352,,,
157_陆游.json,忠县,108.03767,30.30026,,,
157_陆游.json,万州,108.40873,30.8079,,,
157_陆游.json,白帝,109.594363,31.055506,,,
157_陆游.json,奉节,109.46406,31.01846,,,
157_陆游.json,天门,113.16614,30.66339,,,
157_陆游.json,巫山,109.8788,31.07462,,,
157_陆游.json,白帝,109.594363,31.055506,,,
157_陆游.json,奉节,109.46406,31.01846,,,
157_陆游.json,重庆,106.55073,29.56471,,,
157_陆游.json,万州,108.40873,30.8079,,,
157_陆游.json,梁平,107.80235,30.673729,,,
157_陆游.json,蟠龙,107.853245,30.632482,,,
157_陆游.json,安胜,107.724521,30.687757,,,
157_陆游.json,涪陵,107.38982,29.70315,,,
157_陆游.json,丰都,107.73085,29.86352,,,
157_陆游.json,忠县,108.03767,30.30026,,,
157_陆游.json,白帝庙,109.574919,31.040505,,,
157_陆游.json,白帝城,109.573991,31.043917,,,
157_陆游.json,蟠龙山,108.09803,29.29909,,,
157_陆游.json,平都山,107.64149,30.580103,,,
157_陆游.json,龙兴寺,106.79421,29.6986,,,
157_陆游.json,天门,113.16614,30.66339,,,
157_陆游.json,巫山,109.8788,31.07462,,,
157_陆游.json,白帝,109.594363,31.055506,,,
157_陆游.json,奉节,109.46406,31.01846,,,
157_陆游.json,白帝,109.594363,31.055506,,,
157_陆游.json,奉节,109.46406,31.01846,,,
157_陆游.json,巫山,109.8788,31.07462,,,
157_陆游.json,奉节,109.46406,31.01846,,,
157_陆游.json,重庆,106.55073,29.56471,,,
157_陆游.json,万州,108.40873,30.8079,,,
157_陆游.json,梁平,107.80235,30.673729,,,
157_陆游.json,蟠龙,107.853245,30.632482,,,
157_陆游.json,安胜,107.724521,30.687757,,,
157_陆游.json,梁平,107.80235,30.673729,,,
157_陆游.json,重庆,106.55073,29.56471,,,
157_陆游.json,涪陵,107.38982,29.70315,,,
157_陆游.json,丰都,107.73085,29.86352,,,
157_陆游.json,忠县,108.03767,30.30026,,,
157_陆游.json,万州,108.40873,30.8079,,,
157_陆游.json,白帝,109.594363,31.055506,,,
157_陆游.json,奉节,109.46406,31.01846,,,
157_陆游.json,天门,113.16614,30.66339,,,
157_陆游.json,巫山,109.8788,31.07462,,,
157_陆游.json,白帝,109.594363,31.055506,,,
157_陆游.json,奉节,109.46406,31.01846,,,
157_陆游.json,重庆,106.55073,29.56471,,,
157_陆游.json,万州,108.40873,30.8079,,,
157_陆游.json,梁平,107.80235,30.673729,,,
157_陆游.json,蟠龙,107.853245,30.632482,,,
157_陆游.json,安胜,107.724521,30.687757,,,
157_陆游.json,涪陵,107.38982,29.70315,,,
157_陆游.json,丰都,107.73085,29.86352,,,
157_陆游.json,忠县,108.03767,30.30026,,,
157_陆游.json,白帝庙,109.574919,31.040505,,,
157_陆游.json,白帝城,109.573991,31.043917,,,
157_陆游.json,蟠龙山,108.09803,29.29909,,,
157_陆游.json,平都山,107.64149,30.580103,,,
157_陆游.json,龙兴寺,106.79421,29.6986,,,
157_陆游.json,天门,113.16614,30.66339,,,
157_陆游.json,巫山,109.8788,31.07462,,,
157_陆游.json,白帝,109.594363,31.055506,,,
157_陆游.json,奉节,109.46406,31.01846,,,
157_陆游.json,白帝,109.594363,31.055506,,,
157_陆游.json,奉节,109.46406,31.01846,,,
157_陆游.json,巫山,109.8788,31.07462,,,
157_陆游.json,奉节,109.46406,31.01846,,,
157_陆游.json,重庆,106.55073,29.56471,,,
157_陆游.json,万州,108.40873,30.8079,,,
157_陆游.json,梁平,107.80235,30.673729,,,
157_陆游.json,蟠龙,107.853245,30.632482,,,
157_陆游.json,安胜,107.724521,30.687757,,,
157_陆游.json,梁平,107.80235,30.673729,,,
157_陆游.json,重庆,106.55073,29.56471,,,
157_陆游.json,涪陵,107.38982,29.70315,,,
157_陆游.json,丰都,107.73085,29.86352,,,
157_陆游.json,忠县,108.03767,30.30026,,,
157_陆游.json,万州,108.40873,30.8079,,,
157_陆游.json,白帝,109.594363,31.055506,,,
157_陆游.json,奉节,109.46406,31.01846,,,
157_陆游.json,天门,113.16614,30.66339,,,
157_陆游.json,巫山,109.8788,31.07462,,,
157_陆游.json,白帝,109.594363,31.055506,,,
157_陆游.json,奉节,109.46406,31.01846,,,
157_陆游.json,重庆,106.55073,29.56471,,,
157_陆游.json,万州,108.40873,30.8079,,,
157_陆游.json,梁平,107.80235,30.673729,,,
157_陆游.json,蟠龙,107.853245,30.632482,,,
157_陆游.json,安胜,107.724521,30.687757,,,
157_陆游.json,涪陵,107.38982,29.70315,,,
157_陆游.json,丰都,107.73085,29.86352,,,
157_陆游.json,忠县,108.03767,30.30026,,,
157_陆游.json,白帝庙,109.574919,31.040505,,,
157_陆游.json,白帝城,109.573991,31.043917,,,
157_陆游.json,蟠龙山,108.09803,29.29909,,,
157_陆游.json,平都山,107.64149,30.580103,,,
157_陆游.json,龙兴寺,106.79421,29.6986,,,
157_陆游.json,天门,113.16614,30.66339,,,
157_陆游.json,巫山,109.8788,31.07462,,,
157_陆游.json,白帝,109.594363,31.055506,,,
157_陆游.json,奉节,109.46406,31.01846,,,
157_陆游.json,白帝,109.594363,31.055506,,,
157_陆游.json,奉节,109.46406,31.01846,,,
157_陆游.json,巫山,109.8788,31.07462,,,
157_陆游.json,奉节,109.46406,31.01846,,,
157_陆游.json,重庆,106.55073,29.56471,,,
157_陆游.json,万州,108.40873,30.8079,,,
157_陆游.json,梁平,107.80235,30.673729,,,
157_陆游.json,蟠龙,107.853245,30.632482,,,
157_陆游.json,安胜,107.724521,30.687757,,,
157_陆游.json,梁平,107.80235,30.673729,,,
157_陆游.json,重庆,106.55073,29.56471,,,
157_陆游.json,涪陵,107.38982,29.70315,,,
157_陆游.json,丰都,107.73085,29.86352,,,
157_陆游.json,忠县,108.03767,30.30026,,,
157_陆游.json,万州,108.40873,30.8079,,,
157_陆游.json,白帝,109.594363,31.055506,,,
157_陆游.json,奉节,109.46406,31.01846,,,
157_陆游.json,天门,113.16614,30.66339,,,
157_陆游.json,巫山,109.8788,31.07462,,,
157_陆游.json,白帝,109.594363,31.055506,,,
157_陆游.json,奉节,109.46406,31.01846,,,
157_陆游.json,重庆,106.55073,29.56471,,,
157_陆游.json,万州,108.40873,30.8079,,,
157_陆游.json,梁平,107.80235,30.673729,,,
157_陆游.json,蟠龙,107.853245,30.632482,,,
157_陆游.json,安胜,107.724521,30.687757,,,
157_陆游.json,涪陵,107.38982,29.70315,,,
157_陆游.json,丰都,107.73085,29.86352,,,
157_陆游.json,忠县,108.03767,30.30026,,,
157_陆游.json,白帝庙,109.574919,31.040505,,,
157_陆游.json,白帝城,109.573991,31.043917,,,
157_陆游.json,蟠龙山,108.09803,29.29909,,,
157_陆游.json,平都山,107.64149,30.580103,,,
157_陆游.json,龙兴寺,106.79421,29.6986,,,
157_陆游.json,天门,113.16614,30.66339,,,
157_陆游.json,巫山,109.8788,31.07462,,,
157_陆游.json,白帝,109.594363,31.055506,,,
157_陆游.json,奉节,109.46406,31.01846,,,
157_陆游.json,白帝,109.594363,31.055506,,,
157_陆游.json,奉节,109.46406,31.01846,,,
157_陆游.json,巫山,109.8788,31.07462,,,
157_陆游.json,奉节,109.46406,31.01846,,,
157_陆游.json,重庆,106.55073,29.56471,,,
157_陆游.json,万州,108.40873,30.8079,,,
157_陆游.json,梁平,107.80235,30.673729,,,
157_陆游.json,蟠龙,107.853245,30.632482,,,
157_陆游.json,安胜,107.724521,30.687757,,,
157_陆游.json,梁平,107.80235,30.673729,,,
157_陆游.json,重庆,106.55073,29.56471,,,
157_陆游.json,涪陵,107.38982,29.70315,,,
157_陆游.json,丰都,107.73085,29.86352,,,
157_陆游.json,忠县,108.03767,30.30026,,,
157_陆游.json,万州,108.40873,30.8079,,,
157_陆游.json,白帝,109.594363,31.055506,,,
157_陆游.json,奉节,109.46406,31.01846,,,
157_陆游.json,天门,113.16614,30.66339,,,
157_陆游.json,巫山,109.8788,31.07462,,,
157_陆游.json,白帝,109.594363,31.055506,,,
157_陆游.json,奉节,109.46406,31.01846,,,
157_陆游.json,重庆,106.55073,29.56471,,,
157_陆游.json,万州,108.40873,30.8079,,,
157_陆游.json,梁平,107.80235,30.673729,,,
157_陆游.json,蟠龙,107.853245,30.632482,,,
157_陆游.json,安胜,107.724521,30.687757,,,
157_陆游.json,涪陵,107.38982,29.70315,,,
157_陆游.json,丰都,107.73085,29.86352,,,
157_陆游.json,忠县,108.03767,30.30026,,,
157_陆游.json,白帝庙,109.574919,31.040505,,,
157_陆游.json,白帝城,109.573991,31.043917,,,
157_陆游.json,蟠龙山,108.09803,29.29909,,,
157_陆游.json,平都山,107.64149,30.580103,,,
157_陆游.json,龙兴寺,106.79421,29.6986,,,
157_陆游.json,天门,113.16614,30.66339,,,
157_陆游.json,巫山,109.8788,31.07462,,,
157_陆游.json,白帝,109.594363,31.055506,,,
157_陆游.json,奉节,109.46406,31.01846,,,
157_陆游.json,白帝,109.594363,31.055506,,,
157_陆游.json,奉节,109.46406,31.01846,,,
157_陆游.json,巫山,109.8788,31.07462,,,
157_陆游.json,奉节,109.46406,31.01846,,,
157_陆游.json,重庆,106.55073,29.56471,,,
157_陆游.json,万州,108.40873,30.8079,,,
157_陆游.json,梁平,107.80235,30.673729,,,
157_陆游.json,蟠龙,107.853245,30.632482,,,
157_陆游.json,安胜,107.724521,30.687757,,,
157_陆游.json,梁平,107.80235,30.673729,,,
157_陆游.json,重庆,106.55073,29.56471,,,
157_陆游.json,涪陵,107.38982,29.70315,,,
157_陆游.json,丰都,107.73085,29.86352,,,
157_陆游.json,忠县,108.03767,30.30026,,,
157_陆游.json,万州,108.40873,30.8079,,,
157_陆游.json,白帝,109.594363,31.055506,,,
157_陆游.json,奉节,109.46406,31.01846,,,
157_陆游.json,天门,113.16614,30.66339,,,
157_陆游.json,巫山,109.8788,31.07462,,,
157_陆游.json,白帝,109.594363,31.055506,,,
157_陆游.json,奉节,109.46406,31.01846,,,
157_陆游.json,重庆,106.55073,29.56471,,,
157_陆游.json,万州,108.40873,30.8079,,,
157_陆游.json,梁平,107.80235,30.673729,,,
157_陆游.json,蟠龙,107.853245,30.632482,,,
157_陆游.json,安胜,107.724521,30.687757,,,
157_陆游.json,涪陵,107.38982,29.70315,,,
157_陆游.json,丰都,107.73085,29.86352,,,
157_陆游.json,忠县,108.03767,30.30026,,,
157_陆游.json,白帝庙,109.574919,31.040505,,,
157_陆游.json,白帝城,109.573991,31.043917,,,
157_陆游.json,蟠龙山,108.09803,29.29909,,,
157_陆游.json,平都山,107.64149,30.580103,,,
157_陆游.json,龙兴寺,106.79421,29.6986,,,
157_陆游.json,天门,113.16614,30.66339,,,
157_陆游.json,巫山,109.8788,31.07462,,,
157_陆游.json,白帝,109.594363,31.055506,,,
157_陆游.json,奉节,109.46406,31.01846,,,
157_陆游.json,白帝,109.594363,31.055506,,,
157_陆游.json,奉节,109.46406,31.01846,,,
157_陆游.json,巫山,109.8788,31.07462,,,
157_陆游.json,奉节,109.46406,31.01846,,,
157_陆游.json,重庆,106.55073,29.56471,,,
157_陆游.json,万州,108.40873,30.8079,,,
157_陆游.json,梁平,107.80235,30.673729,,,
157_陆游.json,蟠龙,107.853245,30.632482,,,
157_陆游.json,安胜,107.724521,30.687757,,,
157_陆游.json,梁平,107.80235,30.673729,,,
157_陆游.json,重庆,106.55073,29.56471,,,
157_陆游.json,涪陵,107.38982,29.70315,,,
157_陆游.json,丰都,107.73085,29.86352,,,
157_陆游.json,忠县,108.03767,30.30026,,,
157_陆游.json,万州,108.40873,30.8079,,,
157_陆游.json,白帝,109.594363,31.055506,,,
157_陆游.json,奉节,109.46406,31.01846,,,
157_陆游.json,天门,113.16614,30.66339,,,
157_陆游.json,巫山,109.8788,31.07462,,,
157_陆游.json,白帝,109.594363,31.055506,,,
157_陆游.json,奉节,109.46406,31.01846,,,
157_陆游.json,重庆,106.55073,29.56471,,,
157_陆游.json,万州,108.40873,30.8079,,,
157_陆游.json,梁平,107.80235,30.673729,,,
157_陆游.json,蟠龙,107.853245,30.632482,,,
157_陆游.json,安胜,107.724521,30.687757,,,
157_陆游.json,涪陵,107.38982,29.70315,,,
157_陆游.json,丰都,107.73085,29.86352,,,
157_陆游.json,忠县,108.03767,30.30026,,,
157_陆游.json,白帝庙,109.574919,31.040505,,,
157_陆游.json,白帝城,109.573991,31.043917,,,
157_陆游.json,蟠龙山,108.09803,29.29909,,,
157_陆游.json,平都山,107.64149,30.580103,,,
157_陆游.json,龙兴寺,106.79421,29.6986,,,
157_陆游.json,天门,113.16614,30.66339,,,
157_陆游.json,巫山,109.8788,31.07462,,,
157_陆游.json,白帝,109.594363,31.055506,,,
157_陆游.json,奉节,109.46406,31.01846,,,
157_陆游.json,白帝,109.594363,31.055506,,,
157_陆游.json,奉节,109.46406,31.01846,,,
157_陆游.json,巫山,109.8788,31.07462,,,
157_陆游.json,奉节,109.46406,31.01846,,,
157_陆游.json,重庆,106.55073,29.56471,,,
157_陆游.json,万州,108.40873,30.8079,,,
157_陆游.json,梁平,107.80235,30.673729,,,
157_陆游.json,蟠龙,107.853245,30.632482,,,
157_陆游.json,安胜,107.724521,30.687757,,,
157_陆游.json,梁平,107.80235,30.673729,,,
157_陆游.json,重庆,106.55073,29.56471,,,
157_陆游.json,涪陵,107.38982,29.70315,,,
157_陆游.json,丰都,107.73085,29.86352,,,
157_陆游.json,忠县,108.03767,30.30026,,,
157_陆游.json,万州,108.40873,30.8079,,,
157_陆游.json,白帝,109.594363,31.055506,,,
157_陆游.json,奉节,109.46406,31.01846,,,
157_陆游.json,天门,113.16614,30.66339,,,
157_陆游.json,巫山,109.8788,31.07462,,,
157_陆游.json,白帝,109.594363,31.055506,,,
157_陆游.json,奉节,109.46406,31.01846,,,
157_陆游.json,重庆,106.55073,29.56471,,,
157_陆游.json,万州,108.40873,30.8079,,,
157_陆游.json,梁平,107.80235,30.673729,,,
157_陆游.json,蟠龙,107.853245,30.632482,,,
157_陆游.json,安胜,107.724521,30.687757,,,
157_陆游.json,涪陵,107.38982,29.70315,,,
157_陆游.json,丰都,107.73085,29.86352,,,
157_陆游.json,忠县,108.03767,30.30026,,,
157_陆游.json,白帝庙,109.574919,31.040505,,,
157_陆游.json,白帝城,109.573991,31.043917,,,
157_陆游.json,蟠龙山,108.09803,29.29909,,,
157_陆游.json,平都山,107.64149,30.580103,,,
157_陆游.json,龙兴寺,106.79421,29.6986,,,
157_陆游.json,天门,113.16614,30.66339,,,
157_陆游.json,巫山,109.8788,31.07462,,,
157_陆游.json,白帝,109.594363,31.055506,,,
157_陆游.json,奉节,109.46406,31.01846,,,
157_陆游.json,白帝,109.594363,31.055506,,,
157_陆游.json,奉节,109.46406,31.01846,,,
157_陆游.json,巫山,109.8788,31.07462,,,
157_陆游.json,奉节,109.46406,31.01846,,,
157_陆游.json,重庆,106.55073,29.56471,,,
157_陆游.json,万州,108.40873,30.8079,,,
157_陆游.json,梁平,107.80235,30.673729,,,
157_陆游.json,蟠龙,107.853245,30.632482,,,
157_陆游.json,安胜,107.724521,30.687757,,,
157_陆游.json,梁平,107.80235,30.673729,,,
157_陆游.json,重庆,106.55073,29.56471,,,
157_陆游.json,涪陵,107.38982,29.70315,,,
157_陆游.json,丰都,107.73085,29.86352,,,
157_陆游.json,忠县,108.03767,30.30026,,,
157_陆游.json,万州,108.40873,30.8079,,,
157_陆游.json,白帝,109.594363,31.055506,,,
157_陆游.json,奉节,109.46406,31.01846,,,
157_陆游.json,天门,113.16614,30.66339,,,
157_陆游.json,巫山,109.8788,31.07462,,,
157_陆游.json,白帝,109.594363,31.055506,,,
157_陆游.json,奉节,109.46406,31.01846,,,
157_陆游.json,重庆,106.55073,29.56471,,,
157_陆游.json,万州,108.40873,30.8079,,,
157_陆游.json,梁平,107.80235,30.673729,,,
157_陆游.json,蟠龙,107.853245,30.632482,,,
157_陆游.json,安胜,107.724521,30.687757,,,
157_陆游.json,涪陵,107.38982,29.70315,,,
157_陆游.json,丰都,107.73085,29.86352,,,
157_陆游.json,忠县,108.03767,30.30026,,,
157_陆游.json,白帝庙,109.574919,31.040505,,,
157_陆游.json,白帝城,109.573991,31.043917,,,
157_陆游.json,蟠龙山,108.09803,29.29909,,,
157_陆游.json,平都山,107.64149,30.580103,,,
157_陆游.json,龙兴寺,106.79421,29.6986,,,
157_陆游.json,天门,113.16614,30.66339,,,
157_陆游.json,巫山,109.8788,31.07462,,,
157_陆游.json,白帝,109.594363,31.055506,,,
157_陆游.json,奉节,109.46406,31.01846,,,
157_陆游.json,白帝,109.594363,31.055506,,,
157_陆游.json,奉节,109.46406,31.01846,,,
157_陆游.json,巫山,109.8788,31.07462,,,
157_陆游.json,奉节,109.46406,31.01846,,,
157_陆游.json,重庆,106.55073,29.56471,,,
157_陆游.json,万州,108.40873,30.8079,,,
157_陆游.json,梁平,107.80235,30.673729,,,
157_陆游.json,蟠龙,107.853245,30.632482,,,
157_陆游.json,安胜,107.724521,30.687757,,,
157_陆游.json,梁平,107.80235,30.673729,,,
157_陆游.json,重庆,106.55073,29.56471,,,
157_陆游.json,涪陵,107.38982,29.70315,,,
157_陆游.json,丰都,107.73085,29.86352,,,
157_陆游.json,忠县,108.03767,30.30026,,,
157_陆游.json,万州,108.40873,30.8079,,,
157_陆游.json,白帝,109.594363,31.055506,,,
157_陆游.json,奉节,109.46406,31.01846,,,
157_陆游.json,天门,113.16614,30.66339,,,
157_陆游.json,巫山,109.8788,31.07462,,,
157_陆游.json,白帝,109.594363,31.055506,,,
157_陆游.json,奉节,109.46406,31.01846,,,
157_陆游.json,重庆,106.55073,29.56471,,,
157_陆游.json,万州,108.40873,30.8079,,,
157_陆游.json,梁平,107.80235,30.673729,,,
157_陆游.json,蟠龙,107.853245,30.632482,,,
157_陆游.json,安胜,107.724521,30.687757,,,
157_陆游.json,涪陵,107.38982,29.70315,,,
157_陆游.json,丰都,107.73085,29.86352,,,
157_陆游.json,忠县,108.03767,30.30026,,,
157_陆游.json,白帝庙,109.574919,31.040505,,,
157_陆游.json,白帝城,109.573991,31.043917,,,
157_陆游.json,蟠龙山,108.09803,29.29909,,,
157_陆游.json,平都山,107.64149,30.580103,,,
157_陆游.json,龙兴寺,106.79421,29.6986,,,
157_陆游.json,天门,113.16614,30.66339,,,
157_陆游.json,巫山,109.8788,31.07462,,,
157_陆游.json,白帝,109.594363,31.055506,,,
157_陆游.json,奉节,109.46406,31.01846,,,
157_陆游.json,白帝,109.594363,31.055506,,,
157_陆游.json,奉节,109.46406,31.01846,,,
157_陆游.json,巫山,109.8788,31.07462,,,
157_陆游.json,奉节,109.46406,31.01846,,,
157_陆游.json,重庆,106.55073,29.56471,,,
157_陆游.json,万州,108.40873,30.8079,,,
157_陆游.json,梁平,107.80235,30.673729,,,
157_陆游.json,蟠龙,107.853245,30.632482,,,
157_陆游.json,安胜,107.724521,30.687757,,,
157_陆游.json,梁平,107.80235,30.673729,,,
157_陆游.json,重庆,106.55073,29.56471,,,
157_陆游.json,涪陵,107.38982,29.70315,,,
157_陆游.json,丰都,107.73085,29.86352,,,
157_陆游.json,忠县,108.03767,30.30026,,,
157_陆游.json,万州,108.40873,30.8079,,,
157_陆游.json,白帝,109.594363,31.055506,,,
157_陆游.json,奉节,109.46406,31.01846,,,
157_陆游.json,天门,113.16614,30.66339,,,
157_陆游.json,巫山,109.8788,31.07462,,,
157_陆游.json,白帝,109.594363,31.055506,,,
157_陆游.json,奉节,109.46406,31.01846,,,
157_陆游.json,重庆,106.55073,29.56471,,,
157_陆游.json,万州,108.40873,30.8079,,,
157_陆游.json,梁平,107.80235,30.673729,,,
157_陆游.json,蟠龙,107.853245,30.632482,,,
157_陆游.json,安胜,107.724521,30.687757,,,
157_陆游.json,涪陵,107.38982,29.70315,,,
157_陆游.json,丰都,107.73085,29.86352,,,
157_陆游.json,忠县,108.03767,30.30026,,,
157_陆游.json,白帝庙,109.574919,31.040505,,,
157_陆游.json,白帝城,109.573991,31.043917,,,
157_陆游.json,蟠龙山,108.09803,29.29909,,,
157_陆游.json,平都山,107.64149,30.580103,,,
157_陆游.json,龙兴寺,106.79421,29.6986,,,
157_陆游.json,天门,113.16614,30.66339,,,
157_陆游.json,巫山,109.8788,31.07462,,,
157_陆游.json,白帝,109.594363,31.055506,,,
157_陆游.json,奉节,109.46406,31.01846,,,
157_陆游.json,白帝,109.594363,31.055506,,,
157_陆游.json,奉节,109.46406,31.01846,,,
157_陆游.json,巫山,109.8788,31.07462,,,
157_陆游.json,奉节,109.46406,31.01846,,,
157_陆游.json,重庆,106.55073,29.56471,,,
157_陆游.json,万州,108.40873,30.8079,,,
157_陆游.json,梁平,107.80235,30.673729,,,
157_陆游.json,蟠龙,107.853245,30.632482,,,
157_陆游.json,安胜,107.724521,30.687757,,,
157_陆游.json,梁平,107.80235,30.673729,,,
157_陆游.json,重庆,106.55073,29.56471,,,
157_陆游.json,涪陵,107.38982,29.70315,,,
157_陆游.json,丰都,107.73085,29.86352,,,
157_陆游.json,忠县,108.03767,30.30026,,,
157_陆游.json,万州,108.40873,30.8079,,,
157_陆游.json,白帝,109.594363,31.055506,,,
157_陆游.json,奉节,109.46406,31.01846,,,
157_陆游.json,天门,113.16614,30.66339,,,
157_陆游.json,巫山,109.8788,31.07462,,,
157_陆游.json,白帝,109.594363,31.055506,,,
157_陆游.json,奉节,109.46406,31.01846,,,
157_陆游.json,重庆,106.55073,29.56471,,,
157_陆游.json,万州,108.40873,30.8079,,,
157_陆游.json,梁平,107.80235,30.673729,,,
157_陆游.json,蟠龙,107.853245,30.632482,,,
157_陆游.json,安胜,107.724521,30.687757,,,
157_陆游.json,涪陵,107.38982,29.70315,,,
157_陆游.json,丰都,107.73085,29.86352,,,
157_陆游.json,忠县,108.03767,30.30026,,,
157_陆游.json,白帝庙,109.574919,31.040505,,,
157_陆游.json,白帝城,109.573991,31.043917,,,
157_陆游.json,蟠龙山,108.09803,29.29909,,,
157_陆游.json,平都山,107.64149,30.580103,,,
157_陆游.json,龙兴寺,106.79421,29.6986,,,
157_陆游.json,天门,113.16614,30.66339,,,
157_陆游.json,巫山,109.8788,31.07462,,,
157_陆游.json,白帝,109.594363,31.055506,,,
157_陆游.json,奉节,109.46406,31.01846,,,
157_陆游.json,白帝,109.594363,31.055506,,,
157_陆游.json,奉节,109.46406,31.01846,,,
157_陆游.json,巫山,109.8788,31.07462,,,
157_陆游.json,奉节,109.46406,31.01846,,,
157_陆游.json,重庆,106.55073,29.56471,,,
157_陆游.json,万州,108.40873,30.8079,,,
157_陆游.json,梁平,107.80235,30.673729,,,
157_陆游.json,蟠龙,107.853245,30.632482,,,
157_陆游.json,安胜,107.724521,30.687757,,,
157_陆游.json,梁平,107.80235,30.673729,,,
157_陆游.json,重庆,106.55073,29.56471,,,
157_陆游.json,涪陵,107.38982,29.70315,,,
157_陆游.json,丰都,107.73085,29.86352,,,
157_陆游.json,忠县,108.03767,30.30026,,,
157_陆游.json,万州,108.40873,30.8079,,,
157_陆游.json,白帝,109.594363,31.055506,,,
157_陆游.json,奉节,109.46406,31.01846,,,
157_陆游.json,天门,113.16614,30.66339,,,
157_陆游.json,巫山,109.8788,31.07462,,,
157_陆游.json,白帝,109.594363,31.055506,,,
157_陆游.json,奉节,109.46406,31.01846,,,
157_陆游.json,重庆,106.55073,29.56471,,,
157_陆游.json,万州,108.40873,30.8079,,,
157_陆游.json,梁平,107.80235,30.673729,,,
157_陆游.json,蟠龙,107.853245,30.632482,,,
157_陆游.json,安胜,107.724521,30.687757,,,
157_陆游.json,涪陵,107.38982,29.70315,,,
157_陆游.json,丰都,107.73085,29.86352,,,
157_陆游.json,忠县,108.03767,30.30026,,,
157_陆游.json,白帝庙,109.574919,31.040505,,,
157_陆游.json,白帝城,109.573991,31.043917,,,
157_陆游.json,蟠龙山,108.09803,29.29909,,,
157_陆游.json,平都山,107.64149,30.580103,,,
157_陆游.json,龙兴寺,106.79421,29.6986,,,
157_陆游.json,天门,113.16614,30.66339,,,
157_陆游.json,巫山,109.8788,31.07462,,,
157_陆游.json,白帝,109.594363,31.055506,,,
157_陆游.json,奉节,109.46406,31.01846,,,
157_陆游.json,白帝,109.594363,31.055506,,,
157_陆游.json,奉节,109.46406,31.01846,,,
157_陆游.json,巫山,109.8788,31.07462,,,
157_陆游.json,奉节,109.46406,31.01846,,,
157_陆游.json,重庆,106.55073,29.56471,,,
157_陆游.json,万州,108.40873,30.8079,,,
157_陆游.json,梁平,107.80235,30.673729,,,
157_陆游.json,蟠龙,107.853245,30.632482,,,
157_陆游.json,安胜,107.724521,30.687757,,,
157_陆游.json,梁平,107.80235,30.673729,,,
157_陆游.json,重庆,106.55073,29.56471,,,
157_陆游.json,涪陵,107.38982,29.70315,,,
157_陆游.json,丰都,107.73085,29.86352,,,
157_陆游.json,忠县,108.03767,30.30026,,,
157_陆游.json,万州,108.40873,30.8079,,,
157_陆游.json,白帝,109.594363,31.055506,,,
157_陆游.json,奉节,109.46406,31.01846,,,
157_陆游.json,天门,113.16614,30.66339,,,
157_陆游.json,巫山,109.8788,31.07462,,,
157_陆游.json,白帝,109.594363,31.055506,,,
157_陆游.json,奉节,109.46406,31.01846,,,
157_陆游.json,重庆,106.55073,29.56471,,,
157_陆游.json,万州,108.40873,30.8079,,,
157_陆游.json,梁平,107.80235,30.673729,,,
157_陆游.json,蟠龙,107.853245,30.632482,,,
157_陆游.json,安胜,107.724521,30.687757,,,
157_陆游.json,涪陵,107.38982,29.70315,,,
157_陆游.json,丰都,107.73085,29.86352,,,
157_陆游.json,忠县,108.03767,30.30026,,,
157_陆游.json,白帝庙,109.574919,31.040505,,,
157_陆游.json,白帝城,109.573991,31.043917,,,
157_陆游.json,蟠龙山,108.09803,29.29909,,,
157_陆游.json,平都山,107.64149,30.580103,,,
157_陆游.json,龙兴寺,106.79421,29.6986,,,
157_陆游.json,天门,113.16614,30.66339,,,
157_陆游.json,巫山,109.8788,31.07462,,,
157_陆游.json,白帝,109.594363,31.055506,,,
157_陆游.json,奉节,109.46406,31.01846,,,
157_陆游.json,白帝,109.594363,31.055506,,,
157_陆游.json,奉节,109.46406,31.01846,,,
157_陆游.json,巫山,109.8788,31.07462,,,
157_陆游.json,奉节,109.46406,31.01846,,,
157_陆游.json,重庆,106.55073,29.56471,,,
157_陆游.json,万州,108.40873,30.8079,,,
157_陆游.json,梁平,107.80235,30.673729,,,
157_陆游.json,蟠龙,107.853245,30.632482,,,
157_陆游.json,安胜,107.724521,30.687757,,,
157_陆游.json,梁平,107.80235,30.673729,,,
157_陆游.json,重庆,106.55073,29.56471,,,
157_陆游.json,涪陵,107.38982,29.70315,,,
157_陆游.json,丰都,107.73085,29.86352,,,
157_陆游.json,忠县,108.03767,30.30026,,,
157_陆游.json,万州,108.40873,30.8079,,,
157_陆游.json,白帝,109.594363,31.055506,,,
157_陆游.json,奉节,109.46406,31.01846,,,
157_陆游.json,天门,113.16614,30.66339,,,
157_陆游.json,巫山,109.8788,31.07462,,,
157_陆游.json,白帝,109.594363,31.055506,,,
157_陆游.json,奉节,109.46406,31.01846,,,
157_陆游.json,重庆,106.55073,29.56471,,,
157_陆游.json,万州,108.40873,30.8079,,,
157_陆游.json,梁平,107.80235,30.673729,,,
157_陆游.json,蟠龙,107.853245,30.632482,,,
157_陆游.json,安胜,107.724521,30.687757,,,
157_陆游.json,涪陵,107.38982,29.70315,,,
157_陆游.json,丰都,107.73085,29.86352,,,
157_陆游.json,忠县,108.03767,30.30026,,,
157_陆游.json,白帝庙,109.574919,31.040505,,,
157_陆游.json,白帝城,109.573991,31.043917,,,
157_陆游.json,蟠龙山,108.09803,29.29909,,,
157_陆游.json,平都山,107.64149,30.580103,,,
157_陆游.json,龙兴寺,106.79421,29.6986,,,
157_陆游.json,天门,113.16614,30.66339,,,
157_陆游.json,巫山,109.8788,31.07462,,,
157_陆游.json,白帝,109.594363,31.055506,,,
157_陆游.json,奉节,109.46406,31.01846,,,
157_陆游.json,白帝,109.594363,31.055506,,,
157_陆游.json,奉节,109.46406,31.01846,,,
157_陆游.json,巫山,109.8788,31.07462,,,
157_陆游.json,奉节,109.46406,31.01846,,,
157_陆游.json,重庆,106.55073,29.56471,,,
157_陆游.json,万州,108.40873,30.8079,,,
157_陆游.json,梁平,107.80235,30.673729,,,
157_陆游.json,蟠龙,107.853245,30.632482,,,
157_陆游.json,安胜,107.724521,30.687757,,,
157_陆游.json,梁平,107.80235,30.673729,,,
157_陆游.json,重庆,106.55073,29.56471,,,
157_陆游.json,涪陵,107.38982,29.70315,,,
157_陆游.json,丰都,107.73085,29.86352,,,
157_陆游.json,忠县,108.03767,30.30026,,,
157_陆游.json,万州,108.40873,30.8079,,,
157_陆游.json,白帝,109.594363,31.055506,,,
157_陆游.json,奉节,109.46406,31.01846,,,
157_陆游.json,天门,113.16614,30.66339,,,
157_陆游.json,巫山,109.8788,31.07462,,,
157_陆游.json,白帝,109.594363,31.055506,,,
157_陆游.json,奉节,109.46406,31.01846,,,
157_陆游.json,重庆,106.55073,29.56471,,,
157_陆游.json,万州,108.40873,30.8079,,,
157_陆游.json,梁平,107.80235,30.673729,,,
157_陆游.json,蟠龙,107.853245,30.632482,,,
157_陆游.json,安胜,107.724521,30.687757,,,
157_陆游.json,涪陵,107.38982,29.70315,,,
157_陆游.json,丰都,107.73085,29.86352,,,
157_陆游.json,忠县,108.03767,30.30026,,,
157_陆游.json,白帝庙,109.574919,31.040505,,,
157_陆游.json,白帝城,109.573991,31.043917,,,
157_陆游.json,蟠龙山,108.09803,29.29909,,,
157_陆游.json,平都山,107.64149,30.580103,,,
157_陆游.json,龙兴寺,106.79421,29.6986,,,
157_陆游.json,天门,113.16614,30.66339,,,
157_陆游.json,巫山,109.8788,31.07462,,,
157_陆游.json,白帝,109.594363,31.055506,,,
157_陆游.json,奉节,109.46406,31.01846,,,
157_陆游.json,白帝,109.594363,31.055506,,,
157_陆游.json,奉节,109.46406,31.01846,,,
157_陆游.json,巫山,109.8788,31.07462,,,
157_陆游.json,奉节,109.46406,31.01846,,,
157_陆游.json,重庆,106.55073,29.56471,,,
157_陆游.json,万州,108.40873,30.8079,,,
157_陆游.json,梁平,107.80235,30.673729,,,
157_陆游.json,蟠龙,107.853245,30.632482,,,
157_陆游.json,安胜,107.724521,30.687757,,,
157_陆游.json,梁平,107.80235,30.673729,,,
157_陆游.json,重庆,106.55073,29.56471,,,
157_陆游.json,涪陵,107.38982,29.70315,,,
157_陆游.json,丰都,107.73085,29.86352,,,
157_陆游.json,忠县,108.03767,30.30026,,,
157_陆游.json,万州,108.40873,30.8079,,,
157_陆游.json,白帝,109.594363,31.055506,,,
157_陆游.json,奉节,109.46406,31.01846,,,
157_陆游.json,天门,113.16614,30.66339,,,
157_陆游.json,巫山,109.8788,31.07462,,,
157_陆游.json,白帝,109.594363,31.055506,,,
157_陆游.json,奉节,109.46406,31.01846,,,
157_陆游.json,重庆,106.55073,29.56471,,,
157_陆游.json,万州,108.40873,30.8079,,,
157_陆游.json,梁平,107.80235,30.673729,,,
157_陆游.json,蟠龙,107.853245,30.632482,,,
157_陆游.json,安胜,107.724521,30.687757,,,
157_陆游.json,涪陵,107.38982,29.70315,,,
157_陆游.json,丰都,107.73085,29.86352,,,
157_陆游.json,忠县,108.03767,30.30026,,,
157_陆游.json,白帝庙,109.574919,31.040505,,,
157_陆游.json,白帝城,109.573991,31.043917,,,
157_陆游.json,蟠龙山,108.09803,29.29909,,,
157_陆游.json,平都山,107.64149,30.580103,,,
157_陆游.json,龙兴寺,106.79421,29.6986,,,
157_陆游.json,天门,113.16614,30.66339,,,
157_陆游.json,巫山,109.8788,31.07462,,,
157_陆游.json,白帝,109.594363,31.055506,,,
157_陆游.json,奉节,109.46406,31.01846,,,
157_陆游.json,白帝,109.594363,31.055506,,,
157_陆游.json,奉节,109.46406,31.01846,,,
157_陆游.json,巫山,109.8788,31.07462,,,
157_陆游.json,奉节,109.46406,31.01846,,,
157_陆游.json,重庆,106.55073,29.56471,,,
157_陆游.json,万州,108.40873,30.8079,,,
157_陆游.json,梁平,107.80235,30.673729,,,
157_陆游.json,蟠龙,107.853245,30.632482,,,
157_陆游.json,安胜,107.724521,30.687757,,,
157_陆游.json,梁平,107.80235,30.673729,,,
157_陆游.json,重庆,106.55073,29.56471,,,
157_陆游.json,涪陵,107.38982,29.70315,,,
157_陆游.json,丰都,107.73085,29.86352,,,
157_陆游.json,忠县,108.03767,30.30026,,,
157_陆游.json,万州,108.40873,30.8079,,,
157_陆游.json,白帝,109.594363,31.055506,,,
157_陆游.json,奉节,109.46406,31.01846,,,
157_陆游.json,天门,113.16614,30.66339,,,
157_陆游.json,巫山,109.8788,31.07462,,,
157_陆游.json,白帝,109.594363,31.055506,,,
157_陆游.json,奉节,109.46406,31.01846,,,
157_陆游.json,重庆,106.55073,29.56471,,,
157_陆游.json,万州,108.40873,30.8079,,,
157_陆游.json,梁平,107.80235,30.673729,,,
157_陆游.json,蟠龙,107.853245,30.632482,,,
157_陆游.json,安胜,107.724521,30.687757,,,
157_陆游.json,涪陵,107.38982,29.70315,,,
157_陆游.json,丰都,107.73085,29.86352,,,
157_陆游.json,忠县,108.03767,30.30026,,,
157_陆游.json,白帝庙,109.574919,31.040505,,,
157_陆游.json,白帝城,109.573991,31.043917,,,
157_陆游.json,蟠龙山,108.09803,29.29909,,,
157_陆游.json,平都山,107.64149,30.580103,,,
157_陆游.json,龙兴寺,106.79421,29.6986,,,
157_陆游.json,天门,113.16614,30.66339,,,
157_陆游.json,巫山,109.8788,31.07462,,,
157_陆游.json,白帝,109.594363,31.055506,,,
157_陆游.json,奉节,109.46406,31.01846,,,
157_陆游.json,白帝,109.594363,31.055506,,,
157_陆游.json,奉节,109.46406,31.01846,,,
157_陆游.json,巫山,109.8788,31.07462,,,
157_陆游.json,奉节,109.46406,31.01846,,,
157_陆游.json,重庆,106.55073,29.56471,,,
157_陆游.json,万州,108.40873,30.8079,,,
157_陆游.json,梁平,107.80235,30.673729,,,
157_陆游.json,蟠龙,107.853245,30.632482,,,
157_陆游.json,安胜,107.724521,30.687757,,,
157_陆游.json,梁平,107.80235,30.673729,,,
157_陆游.json,重庆,106.55073,29.56471,,,
157_陆游.json,涪陵,107.38982,29.70315,,,
157_陆游.json,丰都,107.73085,29.86352,,,
157_陆游.json,忠县,108.03767,30.30026,,,
157_陆游.json,万州,108.40873,30.8079,,,
157_陆游.json,白帝,109.594363,31.055506,,,
157_陆游.json,奉节,109.46406,31.01846,,,
157_陆游.json,天门,113.16614,30.66339,,,
157_陆游.json,巫山,109.8788,31.07462,,,
157_陆游.json,白帝,109.594363,31.055506,,,
157_陆游.json,奉节,109.46406,31.01846,,,
157_陆游.json,重庆,106.55073,29.56471,,,
157_陆游.json,万州,108.40873,30.8079,,,
157_陆游.json,梁平,107.80235,30.673729,,,
157_陆游.json,蟠龙,107.853245,30.632482,,,
157_陆游.json,安胜,107.724521,30.687757,,,
157_陆游.json,涪陵,107.38982,29.70315,,,
157_陆游.json,丰都,107.73085,29.86352,,,
157_陆游.json,忠县,108.03767,30.30026,,,
157_陆游.json,白帝庙,109.574919,31.040505,,,
157_陆游.json,白帝城,109.573991,31.043917,,,
157_陆游.json,蟠龙山,108.09803,29.29909,,,
157_陆游.json,平都山,107.64149,30.580103,,,
157_陆游.json,龙兴寺,106.79421,29.6986,,,
157_陆游.json,天门,113.16614,30.66339,,,
157_陆游.json,巫山,109.8788,31.07462,,,
157_陆游.json,白帝,109.594363,31.055506,,,
157_陆游.json,奉节,109.46406,31.01846,,,
157_陆游.json,白帝,109.594363,31.055506,,,
157_陆游.json,奉节,109.46406,31.01846,,,
157_陆游.json,巫山,109.8788,31.07462,,,
157_陆游.json,奉节,109.46406,31.01846,,,
157_陆游.json,重庆,106.55073,29.56471,,,
157_陆游.json,万州,108.40873,30.8079,,,
157_陆游.json,梁平,107.80235,30.673729,,,
157_陆游.json,蟠龙,107.853245,30.632482,,,
157_陆游.json,安胜,107.724521,30.687757,,,
157_陆游.json,梁平,107.80235,30.673729,,,
157_陆游.json,重庆,106.55073,29.56471,,,
157_陆游.json,涪陵,107.38982,29.70315,,,
157_陆游.json,丰都,107.73085,29.86352,,,
157_陆游.json,忠县,108.03767,30.30026,,,
157_陆游.json,万州,108.40873,30.8079,,,
157_陆游.json,白帝,109.594363,31.055506,,,
157_陆游.json,奉节,109.46406,31.01846,,,
157_陆游.json,天门,113.16614,30.66339,,,
157_陆游.json,巫山,109.8788,31.07462,,,
157_陆游.json,白帝,109.594363,31.055506,,,
157_陆游.json,奉节,109.46406,31.01846,,,
157_陆游.json,重庆,106.55073,29.56471,,,
157_陆游.json,万州,108.40873,30.8079,,,
157_陆游.json,梁平,107.80235,30.673729,,,
157_陆游.json,蟠龙,107.853245,30.632482,,,
157_陆游.json,安胜,107.724521,30.687757,,,
157_陆游.json,涪陵,107.38982,29.70315,,,
157_陆游.json,丰都,107.73085,29.86352,,,
157_陆游.json,忠县,108.03767,30.30026,,,
157_陆游.json,白帝庙,109.574919,31.040505,,,
157_陆游.json,白帝城,109.573991,31.043917,,,
157_陆游.json,蟠龙山,108.09803,29.29909,,,
157_陆游.json,平都山,107.64149,30.580103,,,
157_陆游.json,龙兴寺,106.79421,29.6986,,,
157_陆游.json,天门,113.16614,30.66339,,,
157_陆游.json,巫山,109.8788,31.07462,,,
157_陆游.json,白帝,109.594363,31.055506,,,
157_陆游.json,奉节,109.46406,31.01846,,,
157_陆游.json,白帝,109.594363,31.055506,,,
157_陆游.json,奉节,109.46406,31.01846,,,
157_陆游.json,巫山,109.8788,31.07462,,,
157_陆游.json,奉节,109.46406,31.01846,,,
157_陆游.json,重庆,106.55073,29.56471,,,
157_陆游.json,万州,108.40873,30.8079,,,
157_陆游.json,梁平,107.80235,30.673729,,,
157_陆游.json,蟠龙,107.853245,30.632482,,,
157_陆游.json,安胜,107.724521,30.687757,,,
157_陆游.json,梁平,107.80235,30.673729,,,
157_陆游.json,重庆,106.55073,29.56471,,,
157_陆游.json,涪陵,107.38982,29.70315,,,
157_陆游.json,丰都,107.73085,29.86352,,,
157_陆游.json,忠县,108.03767,30.30026,,,
157_陆游.json,万州,108.40873,30.8079,,,
157_陆游.json,白帝,109.594363,31.055506,,,
157_陆游.json,奉节,109.46406,31.01846,,,
157_陆游.json,天门,113.16614,30.66339,,,
157_陆游.json,巫山,109.8788,31.07462,,,
157_陆游.json,白帝,109.594363,31.055506,,,
157_陆游.json,奉节,109.46406,31.01846,,,
157_陆游.json,重庆,106.55073,29.56471,,,
157_陆游.json,万州,108.40873,30.8079,,,
157_陆游.json,梁平,107.80235,30.673729,,,
157_陆游.json,蟠龙,107.853245,30.632482,,,
157_陆游.json,安胜,107.724521,30.687757,,,
157_陆游.json,涪陵,107.38982,29.70315,,,
157_陆游.json,丰都,107.73085,29.86352,,,
157_陆游.json,忠县,108.03767,30.30026,,,
157_陆游.json,白帝庙,109.574919,31.040505,,,
157_陆游.json,白帝城,109.573991,31.043917,,,
157_陆游.json,蟠龙山,108.09803,29.29909,,,
157_陆游.json,平都山,107.64149,30.580103,,,
157_陆游.json,龙兴寺,106.79421,29.6986,,,
157_陆游.json,天门,113.16614,30.66339,,,
157_陆游.json,巫山,109.8788,31.07462,,,
157_陆游.json,白帝,109.594363,31.055506,,,
157_陆游.json,奉节,109.46406,31.01846,,,
157_陆游.json,白帝,109.594363,31.055506,,,
157_陆游.json,奉节,109.46406,31.01846,,,
157_陆游.json,巫山,109.8788,31.07462,,,
157_陆游.json,奉节,109.46406,31.01846,,,
157_陆游.json,重庆,106.55073,29.56471,,,
157_陆游.json,万州,108.40873,30.8079,,,
157_陆游.json,梁平,107.80235,30.673729,,,
157_陆游.json,蟠龙,107.853245,30.632482,,,
157_陆游.json,安胜,107.724521,30.687757,,,
157_陆游.json,梁平,107.80235,30.673729,,,
157_陆游.json,重庆,106.55073,29.56471,,,
157_陆游.json,涪陵,107.38982,29.70315,,,
157_陆游.json,丰都,107.73085,29.86352,,,
157_陆游.json,忠县,108.03767,30.30026,,,
157_陆游.json,万州,108.40873,30.8079,,,
157_陆游.json,白帝,109.594363,31.055506,,,
157_陆游.json,奉节,109.46406,31.01846,,,
157_陆游.json,天门,113.16614,30.66339,,,
157_陆游.json,巫山,109.8788,31.07462,,,
157_陆游.json,白帝,109.594363,31.055506,,,
157_陆游.json,奉节,109.46406,31.01846,,,
157_陆游.json,重庆,106.55073,29.56471,,,
157_陆游.json,万州,108.40873,30.8079,,,
157_陆游.json,梁平,107.80235,30.673729,,,
157_陆游.json,蟠龙,107.853245,30.632482,,,
157_陆游.json,安胜,107.724521,30.687757,,,
157_陆游.json,涪陵,107.38982,29.70315,,,
157_陆游.json,丰都,107.73085,29.86352,,,
157_陆游.json,忠县,108.03767,30.30026,,,
157_陆游.json,白帝庙,109.574919,31.040505,,,
157_陆游.json,白帝城,109.573991,31.043917,,,
157_陆游.json,蟠龙山,108.09803,29.29909,,,
157_陆游.json,平都山,107.64149,30.580103,,,
157_陆游.json,龙兴寺,106.79421,29.6986,,,
157_陆游.json,天门,113.16614,30.66339,,,
157_陆游.json,巫山,109.8788,31.07462,,,
157_陆游.json,白帝,109.594363,31.055506,,,
157_陆游.json,奉节,109.46406,31.01846,,,
157_陆游.json,白帝,109.594363,31.055506,,,
157_陆游.json,奉节,109.46406,31.01846,,,
157_陆游.json,巫山,109.8788,31.07462,,,
157_陆游.json,奉节,109.46406,31.01846,,,
157_陆游.json,重庆,106.55073,29.56471,,,
157_陆游.json,万州,108.40873,30.8079,,,
157_陆游.json,梁平,107.80235,30.673729,,,
157_陆游.json,蟠龙,107.853245,30.632482,,,
157_陆游.json,安胜,107.724521,30.687757,,,
157_陆游.json,梁平,107.80235,30.673729,,,
157_陆游.json,重庆,106.55073,29.56471,,,
157_陆游.json,涪陵,107.38982,29.70315,,,
157_陆游.json,丰都,107.73085,29.86352,,,
157_陆游.json,忠县,108.03767,30.30026,,,
157_陆游.json,万州,108.40873,30.8079,,,
157_陆游.json,白帝,109.594363,31.055506,,,
157_陆游.json,奉节,109.46406,31.01846,,,
157_陆游.json,天门,113.16614,30.66339,,,
157_陆游.json,巫山,109.8788,31.07462,,,
157_陆游.json,白帝,109.594363,31.055506,,,
157_陆游.json,奉节,109.46406,31.01846,,,
157_陆游.json,重庆,106.55073,29.56471,,,
157_陆游.json,万州,108.40873,30.8079,,,
157_陆游.json,梁平,107.80235,30.673729,,,
157_陆游.json,蟠龙,107.853245,30.632482,,,
157_陆游.json,安胜,107.724521,30.687757,,,
157_陆游.json,涪陵,107.38982,29.70315,,,
157_陆游.json,丰都,107.73085,29.86352,,,
157_陆游.json,忠县,108.03767,30.30026,,,
157_陆游.json,白帝庙,109.574919,31.040505,,,
157_陆游.json,白帝城,109.573991,31.043917,,,
157_陆游.json,蟠龙山,108.09803,29.29909,,,
157_陆游.json,平都山,107.64149,30.580103,,,
157_陆游.json,龙兴寺,106.79421,29.6986,,,
157_陆游.json,天门,113.16614,30.66339,,,
157_陆游.json,巫山,109.8788,31.07462,,,
157_陆游.json,白帝,109.594363,31.055506,,,
157_陆游.json,奉节,109.46406,31.01846,,,
157_陆游.json,白帝,109.594363,31.055506,,,
157_陆游.json,奉节,109.46406,31.01846,,,
157_陆游.json,巫山,109.8788,31.07462,,,
157_陆游.json,奉节,109.46406,31.01846,,,
157_陆游.json,重庆,106.55073,29.56471,,,
157_陆游.json,万州,108.40873,30.8079,,,
157_陆游.json,梁平,107.80235,30.673729,,,
157_陆游.json,蟠龙,107.853245,30.632482,,,
157_陆游.json,安胜,107.724521,30.687757,,,
157_陆游.json,梁平,107.80235,30.673729,,,
157_陆游.json,重庆,106.55073,29.56471,,,
157_陆游.json,涪陵,107.38982,29.70315,,,
157_陆游.json,丰都,107.73085,29.86352,,,
157_陆游.json,忠县,108.03767,30.30026,,,
157_陆游.json,万州,108.40873,30.8079,,,
157_陆游.json,白帝,109.594363,31.055506,,,
157_陆游.json,奉节,109.46406,31.01846,,,
157_陆游.json,天门,113.16614,30.66339,,,
157_陆游.json,巫山,109.8788,31.07462,,,
157_陆游.json,白帝,109.594363,31.055506,,,
157_陆游.json,奉节,109.46406,31.01846,,,
157_陆游.json,重庆,106.55073,29.56471,,,
157_陆游.json,万州,108.40873,30.8079,,,
157_陆游.json,梁平,107.80235,30.673729,,,
157_陆游.json,蟠龙,107.853245,30.632482,,,
157_陆游.json,安胜,107.724521,30.687757,,,
157_陆游.json,涪陵,107.38982,29.70315,,,
157_陆游.json,丰都,107.73085,29.86352,,,
157_陆游.json,忠县,108.03767,30.30026,,,
157_陆游.json,白帝庙,109.574919,31.040505,,,
157_陆游.json,白帝城,109.573991,31.043917,,,
157_陆游.json,蟠龙山,108.09803,29.29909,,,
157_陆游.json,平都山,107.64149,30.580103,,,
157_陆游.json,龙兴寺,106.79421,29.6986,,,
157_陆游.json,天门,113.16614,30.66339,,,
157_陆游.json,巫山,109.8788,31.07462,,,
157_陆游.json,白帝,109.594363,31.055506,,,
157_陆游.json,奉节,109.46406,31.01846,,,
157_陆游.json,白帝,109.594363,31.055506,,,
157_陆游.json,奉节,109.46406,31.01846,,,
157_陆游.json,巫山,109.8788,31.07462,,,
157_陆游.json,奉节,109.46406,31.01846,,,
157_陆游.json,重庆,106.55073,29.56471,,,
157_陆游.json,万州,108.40873,30.8079,,,
157_陆游.json,梁平,107.80235,30.673729,,,
157_陆游.json,蟠龙,107.853245,30.632482,,,
157_陆游.json,安胜,107.724521,30.687757,,,
157_陆游.json,梁平,107.80235,30.673729,,,
157_陆游.json,重庆,106.55073,29.56471,,,
157_陆游.json,涪陵,107.38982,29.70315,,,
157_陆游.json,丰都,107.73085,29.86352,,,
157_陆游.json,忠县,108.03767,30.30026,,,
157_陆游.json,万州,108.40873,30.8079,,,
157_陆游.json,白帝,109.594363,31.055506,,,
157_陆游.json,奉节,109.46406,31.01846,,,
157_陆游.json,天门,113.16614,30.66339,,,
157_陆游.json,巫山,109.8788,31.07462,,,
157_陆游.json,白帝,109.594363,31.055506,,,
157_陆游.json,奉节,109.46406,31.01846,,,
157_陆游.json,重庆,106.55073,29.56471,,,
157_陆游.json,万州,108.40873,30.8079,,,
157_陆游.json,梁平,107.80235,30.673729,,,
157_陆游.json,蟠龙,107.853245,30.632482,,,
157_陆游.json,安胜,107.724521,30.687757,,,
157_陆游.json,涪陵,107.38982,29.70315,,,
157_陆游.json,丰都,107.73085,29.86352,,,
157_陆游.json,忠县,108.03767,30.30026,,,
157_陆游.json,白帝庙,109.574919,31.040505,,,
157_陆游.json,白帝城,109.573991,31.043917,,,
157_陆游.json,蟠龙山,108.09803,29.29909,,,
157_陆游.json,平都山,107.64149,30.580103,,,
157_陆游.json,龙兴寺,106.79421,29.6986,,,
157_陆游.json,天门,113.16614,30.66339,,,
157_陆游.json,巫山,109.8788,31.07462,,,
157_陆游.json,白帝,109.594363,31.055506,,,
157_陆游.json,奉节,109.46406,31.01846,,,
157_陆游.json,白帝,109.594363,31.055506,,,
157_陆游.json,奉节,109.46406,31.01846,,,
157_陆游.json,巫山,109.8788,31.07462,,,
157_陆游.json,奉节,109.46406,31.01846,,,
157_陆游.json,重庆,106.55073,29.56471,,,
157_陆游.json,万州,108.40873,30.8079,,,
157_陆游.json,梁平,107.80235,30.673729,,,
157_陆游.json,蟠龙,107.853245,30.632482,,,
157_陆游.json,安胜,107.724521,30.687757,,,
157_陆游.json,梁平,107.80235,30.673729,,,
157_陆游.json,重庆,106.55073,29.56471,,,
157_陆游.json,涪陵,107.38982,29.70315,,,
157_陆游.json,丰都,107.73085,29.86352,,,
157_陆游.json,忠县,108.03767,30.30026,,,
157_陆游.json,万州,108.40873,30.8079,,,
157_陆游.json,白帝,109.594363,31.055506,,,
157_陆游.json,奉节,109.46406,31.01846,,,
157_陆游.json,天门,113.16614,30.66339,,,
157_陆游.json,巫山,109.8788,31.07462,,,
157_陆游.json,白帝,109.594363,31.055506,,,
157_陆游.json,奉节,109.46406,31.01846,,,
157_陆游.json,重庆,106.55073,29.56471,,,
157_陆游.json,万州,108.40873,30.8079,,,
157_陆游.json,梁平,107.80235,30.673729,,,
157_陆游.json,蟠龙,107.853245,30.632482,,,
157_陆游.json,安胜,107.724521,30.687757,,,
157_陆游.json,涪陵,107.38982,29.70315,,,
157_陆游.json,丰都,107.73085,29.86352,,,
157_陆游.json,忠县,108.03767,30.30026,,,
157_陆游.json,白帝庙,109.574919,31.040505,,,
157_陆游.json,白帝城,109.573991,31.043917,,,
157_陆游.json,蟠龙山,108.09803,29.29909,,,
157_陆游.json,平都山,107.64149,30.580103,,,
157_陆游.json,龙兴寺,106.79421,29.6986,,,
157_陆游.json,天门,113.16614,30.66339,,,
157_陆游.json,巫山,109.8788,31.07462,,,
157_陆游.json,白帝,109.594363,31.055506,,,
157_陆游.json,奉节,109.46406,31.01846,,,
157_陆游.json,白帝,109.594363,31.055506,,,
157_陆游.json,奉节,109.46406,31.01846,,,
157_陆游.json,巫山,109.8788,31.07462,,,
157_陆游.json,奉节,109.46406,31.01846,,,
157_陆游.json,重庆,106.55073,29.56471,,,
157_陆游.json,万州,108.40873,30.8079,,,
157_陆游.json,梁平,107.80235,30.673729,,,
157_陆游.json,蟠龙,107.853245,30.632482,,,
157_陆游.json,安胜,107.724521,30.687757,,,
157_陆游.json,梁平,107.80235,30.673729,,,
157_陆游.json,重庆,106.55073,29.56471,,,
157_陆游.json,涪陵,107.38982,29.70315,,,
157_陆游.json,丰都,107.73085,29.86352,,,
157_陆游.json,忠县,108.03767,30.30026,,,
157_陆游.json,万州,108.40873,30.8079,,,
157_陆游.json,白帝,109.594363,31.055506,,,
157_陆游.json,奉节,109.46406,31.01846,,,
157_陆游.json,天门,113.16614,30.66339,,,
157_陆游.json,巫山,109.8788,31.07462,,,
157_陆游.json,白帝,109.594363,31.055506,,,
157_陆游.json,奉节,109.46406,31.01846,,,
157_陆游.json,重庆,106.55073,29.56471,,,
157_陆游.json,万州,108.40873,30.8079,,,
157_陆游.json,梁平,107.80235,30.673729,,,
157_陆游.json,蟠龙,107.853245,30.632482,,,
157_陆游.json,安胜,107.724521,30.687757,,,
157_陆游.json,涪陵,107.38982,29.70315,,,
157_陆游.json,丰都,107.73085,29.86352,,,
157_陆游.json,忠县,108.03767,30.30026,,,
157_陆游.json,白帝庙,109.574919,31.040505,,,
157_陆游.json,白帝城,109.573991,31.043917,,,
157_陆游.json,蟠龙山,108.09803,29.29909,,,
157_陆游.json,平都山,107.64149,30.580103,,,
157_陆游.json,龙兴寺,106.79421,29.6986,,,
157_陆游.json,天门,113.16614,30.66339,,,
157_陆游.json,巫山,109.8788,31.07462,,,
157_陆游.json,白帝,109.594363,31.055506,,,
157_陆游.json,奉节,109.46406,31.01846,,,
157_陆游.json,白帝,109.594363,31.055506,,,
157_陆游.json,奉节,109.46406,31.01846,,,
157_陆游.json,巫山,109.8788,31.07462,,,
157_陆游.json,奉节,109.46406,31.01846,,,
157_陆游.json,重庆,106.55073,29.56471,,,
157_陆游.json,万州,108.40873,30.8079,,,
157_陆游.json,梁平,107.80235,30.673729,,,
157_陆游.json,蟠龙,107.853245,30.632482,,,
157_陆游.json,安胜,107.724521,30.687757,,,
157_陆游.json,梁平,107.80235,30.673729,,,
157_陆游.json,重庆,106.55073,29.56471,,,
157_陆游.json,涪陵,107.38982,29.70315,,,
157_陆游.json,丰都,107.73085,29.86352,,,
157_陆游.json,忠县,108.03767,30.30026,,,
157_陆游.json,万州,108.40873,30.8079,,,
157_陆游.json,白帝,109.594363,31.055506,,,
157_陆游.json,奉节,109.46406,31.01846,,,
157_陆游.json,天门,113.16614,30.66339,,,
157_陆游.json,巫山,109.8788,31.07462,,,
157_陆游.json,白帝,109.594363,31.055506,,,
157_陆游.json,奉节,109.46406,31.01846,,,
157_陆游.json,重庆,106.55073,29.56471,,,
157_陆游.json,万州,108.40873,30.8079,,,
157_陆游.json,梁平,107.80235,30.673729,,,
157_陆游.json,蟠龙,107.853245,30.632482,,,
157_陆游.json,安胜,107.724521,30.687757,,,
157_陆游.json,涪陵,107.38982,29.70315,,,
157_陆游.json,丰都,107.73085,29.86352,,,
157_陆游.json,忠县,108.03767,30.30026,,,
157_陆游.json,白帝庙,109.574919,31.040505,,,
157_陆游.json,白帝城,109.573991,31.043917,,,
157_陆游.json,蟠龙山,108.09803,29.29909,,,
157_陆游.json,平都山,107.64149,30.580103,,,
157_陆游.json,龙兴寺,106.79421,29.6986,,,
157_陆游.json,天门,113.16614,30.66339,,,
157_陆游.json,巫山,109.8788,31.07462,,,
157_陆游.json,白帝,109.594363,31.055506,,,
157_陆游.json,奉节,109.46406,31.01846,,,
157_陆游.json,白帝,109.594363,31.055506,,,
157_陆游.json,奉节,109.46406,31.01846,,,
157_陆游.json,巫山,109.8788,31.07462,,,
157_陆游.json,奉节,109.46406,31.01846,,,
157_陆游.json,重庆,106.55073,29.56471,,,
157_陆游.json,万州,108.40873,30.8079,,,
157_陆游.json,梁平,107.80235,30.673729,,,
157_陆游.json,蟠龙,107.853245,30.632482,,,
157_陆游.json,安胜,107.724521,30.687757,,,
157_陆游.json,梁平,107.80235,30.673729,,,
157_陆游.json,重庆,106.55073,29.56471,,,
157_陆游.json,涪陵,107.38982,29.70315,,,
157_陆游.json,丰都,107.73085,29.86352,,,
157_陆游.json,忠县,108.03767,30.30026,,,
157_陆游.json,万州,108.40873,30.8079,,,
157_陆游.json,白帝,109.594363,31.055506,,,
157_陆游.json,奉节,109.46406,31.01846,,,
157_陆游.json,天门,113.16614,30.66339,,,
157_陆游.json,巫山,109.8788,31.07462,,,
157_陆游.json,白帝,109.594363,31.055506,,,
157_陆游.json,奉节,109.46406,31.01846,,,
157_陆游.json,重庆,106.55073,29.56471,,,
157_陆游.json,万州,108.40873,30.8079,,,
157_陆游.json,梁平,107.80235,30.673729,,,
157_陆游.json,蟠龙,107.853245,30.632482,,,
157_陆游.json,安胜,107.724521,30.687757,,,
157_陆游.json,涪陵,107.38982,29.70315,,,
157_陆游.json,丰都,107.73085,29.86352,,,
157_陆游.json,忠县,108.03767,30.30026,,,
157_陆游.json,白帝庙,109.574919,31.040505,,,
157_陆游.json,白帝城,109.573991,31.043917,,,
157_陆游.json,蟠龙山,108.09803,29.29909,,,
157_陆游.json,平都山,107.64149,30.580103,,,
157_陆游.json,龙兴寺,106.79421,29.6986,,,
157_陆游.json,天门,113.16614,30.66339,,,
157_陆游.json,巫山,109.8788,31.07462,,,
157_陆游.json,白帝,109.594363,31.055506,,,
157_陆游.json,奉节,109.46406,31.01846,,,
157_陆游.json,白帝,109.594363,31.055506,,,
157_陆游.json,奉节,109.46406,31.01846,,,
157_陆游.json,巫山,109.8788,31.07462,,,
157_陆游.json,奉节,109.46406,31.01846,,,
157_陆游.json,重庆,106.55073,29.56471,,,
157_陆游.json,万州,108.40873,30.8079,,,
157_陆游.json,梁平,107.80235,30.673729,,,
157_陆游.json,蟠龙,107.853245,30.632482,,,
157_陆游.json,安胜,107.724521,30.687757,,,
157_陆游.json,梁平,107.80235,30.673729,,,
157_陆游.json,重庆,106.55073,29.56471,,,
157_陆游.json,涪陵,107.38982,29.70315,,,
157_陆游.json,丰都,107.73085,29.86352,,,
157_陆游.json,忠县,108.03767,30.30026,,,
157_陆游.json,万州,108.40873,30.8079,,,
157_陆游.json,白帝,109.594363,31.055506,,,
157_陆游.json,奉节,109.46406,31.01846,,,
157_陆游.json,天门,113.16614,30.66339,,,
157_陆游.json,巫山,109.8788,31.07462,,,
157_陆游.json,白帝,109.594363,31.055506,,,
157_陆游.json,奉节,109.46406,31.01846,,,
157_陆游.json,重庆,106.55073,29.56471,,,
157_陆游.json,万州,108.40873,30.8079,,,
157_陆游.json,梁平,107.80235,30.673729,,,
157_陆游.json,蟠龙,107.853245,30.632482,,,
157_陆游.json,安胜,107.724521,30.687757,,,
157_陆游.json,涪陵,107.38982,29.70315,,,
157_陆游.json,丰都,107.73085,29.86352,,,
157_陆游.json,忠县,108.03767,30.30026,,,
157_陆游.json,白帝庙,109.574919,31.040505,,,
157_陆游.json,白帝城,109.573991,31.043917,,,
157_陆游.json,蟠龙山,108.09803,29.29909,,,
157_陆游.json,平都山,107.64149,30.580103,,,
157_陆游.json,龙兴寺,106.79421,29.6986,,,
157_陆游.json,天门,113.16614,30.66339,,,
157_陆游.json,巫山,109.8788,31.07462,,,
157_陆游.json,白帝,109.594363,31.055506,,,
157_陆游.json,奉节,109.46406,31.01846,,,
157_陆游.json,白帝,109.594363,31.055506,,,
157_陆游.json,奉节,109.46406,31.01846,,,
157_陆游.json,巫山,109.8788,31.07462,,,
157_陆游.json,奉节,109.46406,31.01846,,,
157_陆游.json,重庆,106.55073,29.56471,,,
157_陆游.json,万州,108.40873,30.8079,,,
157_陆游.json,梁平,107.80235,30.673729,,,
157_陆游.json,蟠龙,107.853245,30.632482,,,
157_陆游.json,安胜,107.724521,30.687757,,,
157_陆游.json,梁平,107.80235,30.673729,,,
157_陆游.json,重庆,106.55073,29.56471,,,
157_陆游.json,涪陵,107.38982,29.70315,,,
157_陆游.json,丰都,107.73085,29.86352,,,
157_陆游.json,忠县,108.03767,30.30026,,,
157_陆游.json,万州,108.40873,30.8079,,,
157_陆游.json,白帝,109.594363,31.055506,,,
157_陆游.json,奉节,109.46406,31.01846,,,
157_陆游.json,天门,113.16614,30.66339,,,
157_陆游.json,巫山,109.8788,31.07462,,,
157_陆游.json,白帝,109.594363,31.055506,,,
157_陆游.json,奉节,109.46406,31.01846,,,
157_陆游.json,重庆,106.55073,29.56471,,,
157_陆游.json,万州,108.40873,30.8079,,,
157_陆游.json,梁平,107.80235,30.673729,,,
157_陆游.json,蟠龙,107.853245,30.632482,,,
157_陆游.json,安胜,107.724521,30.687757,,,
157_陆游.json,涪陵,107.38982,29.70315,,,
157_陆游.json,丰都,107.73085,29.86352,,,
157_陆游.json,忠县,108.03767,30.30026,,,
157_陆游.json,白帝庙,109.574919,31.040505,,,
157_陆游.json,白帝城,109.573991,31.043917,,,
157_陆游.json,蟠龙山,108.09803,29.29909,,,
157_陆游.json,平都山,107.64149,30.580103,,,
157_陆游.json,龙兴寺,106.79421,29.6986,,,
157_陆游.json,天门,113.16614,30.66339,,,
157_陆游.json,巫山,109.8788,31.07462,,,
157_陆游.json,白帝,109.594363,31.055506,,,
157_陆游.json,奉节,109.46406,31.01846,,,
157_陆游.json,白帝,109.594363,31.055506,,,
157_陆游.json,奉节,109.46406,31.01846,,,
157_陆游.json,巫山,109.8788,31.07462,,,
157_陆游.json,奉节,109.46406,31.01846,,,
157_陆游.json,重庆,106.55073,29.56471,,,
157_陆游.json,万州,108.40873,30.8079,,,
157_陆游.json,梁平,107.80235,30.673729,,,
157_陆游.json,蟠龙,107.853245,30.632482,,,
157_陆游.json,安胜,107.724521,30.687757,,,
157_陆游.json,梁平,107.80235,30.673729,,,
157_陆游.json,重庆,106.55073,29.56471,,,
157_陆游.json,涪陵,107.38982,29.70315,,,
157_陆游.json,丰都,107.73085,29.86352,,,
157_陆游.json,忠县,108.03767,30.30026,,,
157_陆游.json,万州,108.40873,30.8079,,,
157_陆游.json,白帝,109.594363,31.055506,,,
157_陆游.json,奉节,109.46406,31.01846,,,
157_陆游.json,天门,113.16614,30.66339,,,
157_陆游.json,巫山,109.8788,31.07462,,,
157_陆游.json,白帝,109.594363,31.055506,,,
157_陆游.json,奉节,109.46406,31.01846,,,
157_陆游.json,重庆,106.55073,29.56471,,,
157_陆游.json,万州,108.40873,30.8079,,,
157_陆游.json,梁平,107.80235,30.673729,,,
157_陆游.json,蟠龙,107.853245,30.632482,,,
157_陆游.json,安胜,107.724521,30.687757,,,
157_陆游.json,涪陵,107.38982,29.70315,,,
157_陆游.json,丰都,107.73085,29.86352,,,
157_陆游.json,忠县,108.03767,30.30026,,,
157_陆游.json,白帝庙,109.574919,31.040505,,,
157_陆游.json,白帝城,109.573991,31.043917,,,
157_陆游.json,蟠龙山,108.09803,29.29909,,,
157_陆游.json,平都山,107.64149,30.580103,,,
157_陆游.json,龙兴寺,106.79421,29.6986,,,
157_陆游.json,天门,113.16614,30.66339,,,
157_陆游.json,巫山,109.8788,31.07462,,,
157_陆游.json,白帝,109.594363,31.055506,,,
157_陆游.json,奉节,109.46406,31.01846,,,
157_陆游.json,白帝,109.594363,31.055506,,,
157_陆游.json,奉节,109.46406,31.01846,,,
157_陆游.json,巫山,109.8788,31.07462,,,
157_陆游.json,奉节,109.46406,31.01846,,,
157_陆游.json,重庆,106.55073,29.56471,,,
157_陆游.json,万州,108.40873,30.8079,,,
157_陆游.json,梁平,107.80235,30.673729,,,
157_陆游.json,蟠龙,107.853245,30.632482,,,
157_陆游.json,安胜,107.724521,30.687757,,,
157_陆游.json,梁平,107.80235,30.673729,,,
157_陆游.json,重庆,106.55073,29.56471,,,
157_陆游.json,涪陵,107.38982,29.70315,,,
157_陆游.json,丰都,107.73085,29.86352,,,
157_陆游.json,忠县,108.03767,30.30026,,,
157_陆游.json,万州,108.40873,30.8079,,,
157_陆游.json,白帝,109.594363,31.055506,,,
157_陆游.json,奉节,109.46406,31.01846,,,
157_陆游.json,天门,113.16614,30.66339,,,
157_陆游.json,巫山,109.8788,31.07462,,,
157_陆游.json,白帝,109.594363,31.055506,,,
157_陆游.json,奉节,109.46406,31.01846,,,
157_陆游.json,重庆,106.55073,29.56471,,,
157_陆游.json,万州,108.40873,30.8079,,,
157_陆游.json,梁平,107.80235,30.673729,,,
157_陆游.json,蟠龙,107.853245,30.632482,,,
157_陆游.json,安胜,107.724521,30.687757,,,
157_陆游.json,涪陵,107.38982,29.70315,,,
157_陆游.json,丰都,107.73085,29.86352,,,
157_陆游.json,忠县,108.03767,30.30026,,,
157_陆游.json,白帝庙,109.574919,31.040505,,,
157_陆游.json,白帝城,109.573991,31.043917,,,
157_陆游.json,蟠龙山,108.09803,29.29909,,,
157_陆游.json,平都山,107.64149,30.580103,,,
157_陆游.json,龙兴寺,106.79421,29.6986,,,
157_陆游.json,天门,113.16614,30.66339,,,
157_陆游.json,巫山,109.8788,31.07462,,,
157_陆游.json,白帝,109.594363,31.055506,,,
157_陆游.json,奉节,109.46406,31.01846,,,
157_陆游.json,白帝,109.594363,31.055506,,,
157_陆游.json,奉节,109.46406,31.01846,,,
157_陆游.json,巫山,109.8788,31.07462,,,
157_陆游.json,奉节,109.46406,31.01846,,,
157_陆游.json,重庆,106.55073,29.56471,,,
157_陆游.json,万州,108.40873,30.8079,,,
157_陆游.json,梁平,107.80235,30.673729,,,
157_陆游.json,蟠龙,107.853245,30.632482,,,
157_陆游.json,安胜,107.724521,30.687757,,,
157_陆游.json,梁平,107.80235,30.673729,,,
157_陆游.json,重庆,106.55073,29.56471,,,
157_陆游.json,涪陵,107.38982,29.70315,,,
157_陆游.json,丰都,107.73085,29.86352,,,
157_陆游.json,忠县,108.03767,30.30026,,,
157_陆游.json,万州,108.40873,30.8079,,,
157_陆游.json,白帝,109.594363,31.055506,,,
157_陆游.json,奉节,109.46406,31.01846,,,
157_陆游.json,天门,113.16614,30.66339,,,
157_陆游.json,巫山,109.8788,31.07462,,,
157_陆游.json,白帝,109.594363,31.055506,,,
157_陆游.json,奉节,109.46406,31.01846,,,
157_陆游.json,重庆,106.55073,29.56471,,,
157_陆游.json,万州,108.40873,30.8079,,,
157_陆游.json,梁平,107.80235,30.673729,,,
157_陆游.json,蟠龙,107.853245,30.632482,,,
157_陆游.json,安胜,107.724521,30.687757,,,
157_陆游.json,涪陵,107.38982,29.70315,,,
157_陆游.json,丰都,107.73085,29.86352,,,
157_陆游.json,忠县,108.03767,30.30026,,,
157_陆游.json,白帝庙,109.574919,31.040505,,,
157_陆游.json,白帝城,109.573991,31.043917,,,
157_陆游.json,蟠龙山,108.09803,29.29909,,,
157_陆游.json,平都山,107.64149,30.580103,,,
157_陆游.json,龙兴寺,106.79421,29.6986,,,
157_陆游.json,天门,113.16614,30.66339,,,
157_陆游.json,巫山,109.8788,31.07462,,,
157_陆游.json,白帝,109.594363,31.055506,,,
157_陆游.json,奉节,109.46406,31.01846,,,
157_陆游.json,白帝,109.594363,31.055506,,,
157_陆游.json,奉节,109.46406,31.01846,,,
157_陆游.json,巫山,109.8788,31.07462,,,
157_陆游.json,奉节,109.46406,31.01846,,,
157_陆游.json,重庆,106.55073,29.56471,,,
157_陆游.json,万州,108.40873,30.8079,,,
157_陆游.json,梁平,107.80235,30.673729,,,
157_陆游.json,蟠龙,107.853245,30.632482,,,
157_陆游.json,安胜,107.724521,30.687757,,,
157_陆游.json,梁平,107.80235,30.673729,,,
157_陆游.json,重庆,106.55073,29.56471,,,
157_陆游.json,涪陵,107.38982,29.70315,,,
157_陆游.json,丰都,107.73085,29.86352,,,
157_陆游.json,忠县,108.03767,30.30026,,,
157_陆游.json,万州,108.40873,30.8079,,,
157_陆游.json,白帝,109.594363,31.055506,,,
157_陆游.json,奉节,109.46406,31.01846,,,
157_陆游.json,天门,113.16614,30.66339,,,
157_陆游.json,巫山,109.8788,31.07462,,,
157_陆游.json,白帝,109.594363,31.055506,,,
157_陆游.json,奉节,109.46406,31.01846,,,
157_陆游.json,重庆,106.55073,29.56471,,,
157_陆游.json,万州,108.40873,30.8079,,,
157_陆游.json,梁平,107.80235,30.673729,,,
157_陆游.json,蟠龙,107.853245,30.632482,,,
157_陆游.json,安胜,107.724521,30.687757,,,
157_陆游.json,涪陵,107.38982,29.70315,,,
157_陆游.json,丰都,107.73085,29.86352,,,
157_陆游.json,忠县,108.03767,30.30026,,,
157_陆游.json,白帝庙,109.574919,31.040505,,,
157_陆游.json,白帝城,109.573991,31.043917,,,
157_陆游.json,蟠龙山,108.09803,29.29909,,,
157_陆游.json,平都山,107.64149,30.580103,,,
157_陆游.json,龙兴寺,106.79421,29.6986,,,
157_陆游.json,天门,113.16614,30.66339,,,
157_陆游.json,巫山,109.8788,31.07462,,,
157_陆游.json,白帝,109.594363,31.055506,,,
157_陆游.json,奉节,109.46406,31.01846,,,
157_陆游.json,白帝,109.594363,31.055506,,,
157_陆游.json,奉节,109.46406,31.01846,,,
157_陆游.json,巫山,109.8788,31.07462,,,
157_陆游.json,奉节,109.46406,31.01846,,,
157_陆游.json,重庆,106.55073,29.56471,,,
157_陆游.json,万州,108.40873,30.8079,,,
157_陆游.json,梁平,107.80235,30.673729,,,
157_陆游.json,蟠龙,107.853245,30.632482,,,
157_陆游.json,安胜,107.724521,30.687757,,,
157_陆游.json,梁平,107.80235,30.673729,,,
157_陆游.json,重庆,106.55073,29.56471,,,
157_陆游.json,涪陵,107.38982,29.70315,,,
157_陆游.json,丰都,107.73085,29.86352,,,
157_陆游.json,忠县,108.03767,30.30026,,,
157_陆游.json,万州,108.40873,30.8079,,,
157_陆游.json,白帝,109.594363,31.055506,,,
157_陆游.json,奉节,109.46406,31.01846,,,
157_陆游.json,天门,113.16614,30.66339,,,
157_陆游.json,巫山,109.8788,31.07462,,,
157_陆游.json,白帝,109.594363,31.055506,,,
157_陆游.json,奉节,109.46406,31.01846,,,
157_陆游.json,重庆,106.55073,29.56471,,,
157_陆游.json,万州,108.40873,30.8079,,,
157_陆游.json,梁平,107.80235,30.673729,,,
157_陆游.json,蟠龙,107.853245,30.632482,,,
157_陆游.json,安胜,107.724521,30.687757,,,
157_陆游.json,涪陵,107.38982,29.70315,,,
157_陆游.json,丰都,107.73085,29.86352,,,
157_陆游.json,忠县,108.03767,30.30026,,,
157_陆游.json,白帝庙,109.574919,31.040505,,,
157_陆游.json,白帝城,109.573991,31.043917,,,
157_陆游.json,蟠龙山,108.09803,29.29909,,,
157_陆游.json,平都山,107.64149,30.580103,,,
157_陆游.json,龙兴寺,106.79421,29.6986,,,
